{"type": "FeatureCollection", "features": [{"type": "Feature", "geometry": {"type": "Point", "coordinates": [121.4852678, 25.05262838]}, "properties": {"point_sid": 3170, "dist": "三重區", "vil": "福德里", "point_name": "重新路4段臨121號", "point_type_primary": "限時定點清運點", "point_type_summary": "限時定點清運點", "schedule_summary": "07:00~21:00", "source_type_codes": "2"}}, {"type": "Feature", "geometry": {"type": "Point", "coordinates": [121.483254, 24.989676]}, "properties": {"point_sid": 2654, "dist": "中和區", "vil": "灰瑤里", "point_name": "中和區和城路1段271巷1號(清潔隊本部)", "point_type_primary": "限時定點清運點", "point_type_summary": "限時定點清運點", "schedule_summary": "00:00~24:00", "source_type_codes": "2"}}, {"type": "Feature", "geometry": {"type": "Point", "coordinates": [121.520119, 24.995082]}, "properties": {"point_sid": 2655, "dist": "中和區", "vil": "秀山里", "point_name": "中和區立人街與自強路口(秀山國小旁)", "point_type_primary": "限時定點清運點", "point_type_summary": "限時定點清運點", "schedule_summary": "07:00~08:00", "source_type_codes": "2"}}, {"type": "Feature", "geometry": {"type": "Point", "coordinates": [121.505847, 24.991996]}, "properties": {"point_sid": 2657, "dist": "中和區", "vil": "景福里", "point_name": "和平街65號旁", "point_type_primary": "限時定點清運點", "point_type_summary": "限時定點清運點", "schedule_summary": "07:00~08:00", "source_type_codes": "2"}}, {"type": "Feature", "geometry": {"type": "Point", "coordinates": [121.500249, 25.001403]}, "properties": {"point_sid": 2659, "dist": "中和區", "vil": "廟美里", "point_name": "中和區中和路與廟美街口(中和農會旁)", "point_type_primary": "限時定點清運點", "point_type_summary": "限時定點清運點", "schedule_summary": "07:00~08:00", "source_type_codes": "2"}}, {"type": "Feature", "geometry": {"type": "Point", "coordinates": [121.499949, 25.005545]}, "properties": {"point_sid": 2660, "dist": "中和區", "vil": "福美里", "point_name": "中和區莊敬路33巷口", "point_type_primary": "限時定點清運點", "point_type_summary": "限時定點清運點", "schedule_summary": "07:00~08:00", "source_type_codes": "2"}}, {"type": "Feature", "geometry": {"type": "Point", "coordinates": [121.52568, 25.00937]}, "properties": {"point_sid": 2627, "dist": "永和區", "vil": "河濱里", "point_name": "永福橋下永和區清潔隊停車場", "point_type_primary": "限時定點清運點", "point_type_summary": "限時定點清運點", "schedule_summary": "06:00~18:00", "source_type_codes": "2"}}, {"type": "Feature", "geometry": {"type": "Point", "coordinates": [121.519964, 25.008462]}, "properties": {"point_sid": 2628, "dist": "永和區", "vil": "光明里", "point_name": "國光路2號(圖書館永和分館旁)", "point_type_primary": "限時定點清運點", "point_type_summary": "限時定點清運點", "schedule_summary": "07:00~08:30", "source_type_codes": "2"}}, {"type": "Feature", "geometry": {"type": "Point", "coordinates": [121.537858, 24.976904]}, "properties": {"point_sid": 2518, "dist": "新店區", "vil": "國豐里", "point_name": "民族路小金門友誼公園前", "point_type_primary": "限時定點清運點", "point_type_summary": "限時定點清運點", "schedule_summary": "07:00~09:00", "source_type_codes": "2"}}, {"type": "Feature", "geometry": {"type": "Point", "coordinates": [121.459412, 25.038135]}, "properties": {"point_sid": 2671, "dist": "新莊區", "vil": "文明里", "point_name": "中正路與新莊路口", "point_type_primary": "限時定點清運點", "point_type_summary": "限時定點清運點", "schedule_summary": "06:00~08:00", "source_type_codes": "2"}}, {"type": "Feature", "geometry": {"type": "Point", "coordinates": [121.444593, 25.042419]}, "properties": {"point_sid": 2672, "dist": "新莊區", "vil": "立功里", "point_name": "新泰路與中平路口", "point_type_primary": "限時定點清運點", "point_type_summary": "限時定點清運點", "schedule_summary": "06:00~08:00", "source_type_codes": "2"}}, {"type": "Feature", "geometry": {"type": "Point", "coordinates": [121.452999, 25.044465]}, "properties": {"point_sid": 2673, "dist": "新莊區", "vil": "中華里", "point_name": "中港路與中華路二段口", "point_type_primary": "限時定點清運點", "point_type_summary": "限時定點清運點", "schedule_summary": "06:00~08:00", "source_type_codes": "2"}}, {"type": "Feature", "geometry": {"type": "Point", "coordinates": [121.4243297, 25.01843555]}, "properties": {"point_sid": 2674, "dist": "新莊區", "vil": "成德里", "point_name": "龍安路與光明路口", "point_type_primary": "限時定點清運點", "point_type_summary": "限時定點清運點", "schedule_summary": "06:00~08:00", "source_type_codes": "2"}}, {"type": "Feature", "geometry": {"type": "Point", "coordinates": [121.41887, 25.065218]}, "properties": {"point_sid": 2711, "dist": "泰山區", "vil": "黎明里", "point_name": "黎明技術學院門口(橫窠雅路)", "point_type_primary": "限時定點清運點", "point_type_summary": "限時定點清運點", "schedule_summary": "07:15~09:00", "source_type_codes": "2"}}, {"type": "Feature", "geometry": {"type": "Point", "coordinates": [121.4278, 24.9591]}, "properties": {"point_sid": 892, "dist": "土城區", "vil": "永寧里", "point_name": "永寧路(北二高橋下)永寧停車場 (永寧路32巷口，左邊300公尺)", "point_type_primary": "限時定點清運點", "point_type_summary": "限時定點清運點", "schedule_summary": "06:00~22:00", "source_type_codes": "2"}}, {"type": "Feature", "geometry": {"type": "Point", "coordinates": [121.650983, 25.075214]}, "properties": {"point_sid": 2592, "dist": "汐止區", "vil": "江北里", "point_name": "康寧街901號(車庫)", "point_type_primary": "限時定點清運點", "point_type_summary": "限時定點清運點", "schedule_summary": "08:00~22:00", "source_type_codes": "2"}}, {"type": "Feature", "geometry": {"type": "Point", "coordinates": [121.502984, 25.254315]}, "properties": {"point_sid": 2928, "dist": "三芝區", "vil": "埔坪里", "point_name": "停二停車場旁(中山路三段與中正路二段交叉口)", "point_type_primary": "限時定點清運點", "point_type_summary": "限時定點清運點", "schedule_summary": "06:30~08:30", "source_type_codes": "2"}}, {"type": "Feature", "geometry": {"type": "Point", "coordinates": [121.433585, 25.071331]}, "properties": {"point_sid": 2554, "dist": "五股區", "vil": "水碓里", "point_name": "德音消防隊旁(新北市五股區明德路8號)", "point_type_primary": "限時定點清運點", "point_type_summary": "限時定點清運點", "schedule_summary": "07:20~09:00", "source_type_codes": "2"}}, {"type": "Feature", "geometry": {"type": "Point", "coordinates": [121.505363, 24.952868]}, "properties": {"point_sid": 2520, "dist": "新店區", "vil": "德安里", "point_name": "車子路土地公廟前", "point_type_primary": "限時定點清運點", "point_type_summary": "限時定點清運點", "schedule_summary": "06:30~08:30", "source_type_codes": "2"}}, {"type": "Feature", "geometry": {"type": "Point", "coordinates": [121.546946, 24.952525]}, "properties": {"point_sid": 2521, "dist": "新店區", "vil": "青潭里", "point_name": "北宜路一段南青宮對面候車站旁", "point_type_primary": "限時定點清運點", "point_type_summary": "限時定點清運點", "schedule_summary": "06:30~08:00", "source_type_codes": "2"}}, {"type": "Feature", "geometry": {"type": "Point", "coordinates": [121.51911, 24.984816]}, "properties": {"point_sid": 2522, "dist": "新店區", "vil": "永安里", "point_name": "新和街31巷口新和國小", "point_type_primary": "限時定點清運點", "point_type_summary": "限時定點清運點", "schedule_summary": "06:30~08:00", "source_type_codes": "2"}}, {"type": "Feature", "geometry": {"type": "Point", "coordinates": [121.496737, 24.958352]}, "properties": {"point_sid": 2519, "dist": "新店區", "vil": "德安里", "point_name": "薏仁坑路自強巷安康分隊", "point_type_primary": "限時定點清運點", "point_type_summary": "限時定點清運點", "schedule_summary": "08:00~20:00", "source_type_codes": "2"}}, {"type": "Feature", "geometry": {"type": "Point", "coordinates": [121.481177, 25.08394]}, "properties": {"point_sid": 3322, "dist": "蘆洲區", "vil": "仁義里", "point_name": "尼加拉瓜公園(集賢路上)", "point_type_primary": "限時定點清運點", "point_type_summary": "限時定點清運點", "schedule_summary": "08:00~09:00", "source_type_codes": "2"}}, {"type": "Feature", "geometry": {"type": "Point", "coordinates": [121.5027016, 25.25952717]}, "properties": {"point_sid": 2933, "dist": "三芝區", "vil": "埔坪里", "point_name": "淡金公路郵局", "point_type_primary": "限時定點清運點", "point_type_summary": "限時定點清運點", "schedule_summary": "18:55~19:35", "source_type_codes": "2"}}, {"type": "Feature", "geometry": {"type": "Point", "coordinates": [121.41916, 24.974]}, "properties": {"point_sid": 2670, "dist": "樹林區", "vil": "彭厝里", "point_name": "清潔隊車庫，八德街339號", "point_type_primary": "限時定點清運點", "point_type_summary": "限時定點清運點", "schedule_summary": "06:00~20:00", "source_type_codes": "2"}}, {"type": "Feature", "geometry": {"type": "Point", "coordinates": [121.423875, 24.991263]}, "properties": {"point_sid": 2669, "dist": "樹林區", "vil": "樹西里", "point_name": "中山路一段樹林火車站後站廣場前", "point_type_primary": "限時定點清運點", "point_type_summary": "限時定點清運點", "schedule_summary": "06:20~08:00", "source_type_codes": "2"}}, {"type": "Feature", "geometry": {"type": "Point", "coordinates": [121.345827, 24.935045]}, "properties": {"point_sid": 2753, "dist": "鶯歌區", "vil": "二甲里", "point_name": "鶯歌區清潔隊停車場大門口(鶯歌區環河路175-18號,北二高橋下)", "point_type_primary": "限時定點清運點", "point_type_summary": "限時定點清運點", "schedule_summary": "06:00~22:00", "source_type_codes": "2"}}, {"type": "Feature", "geometry": {"type": "Point", "coordinates": [121.354634, 24.955727]}, "properties": {"point_sid": 2751, "dist": "鶯歌區", "vil": "北鶯里", "point_name": "鶯歌區公所前停車場", "point_type_primary": "限時定點清運點", "point_type_summary": "限時定點清運點、限時定點清運點", "schedule_summary": "06:20~09:20；17:20~20:50", "source_type_codes": "2,2"}}, {"type": "Feature", "geometry": {"type": "Point", "coordinates": [121.353535, 24.953972]}, "properties": {"point_sid": 2752, "dist": "鶯歌區", "vil": "中鶯里", "point_name": "公有零售市場旁(鶯歌區建國路108號)", "point_type_primary": "限時定點清運點", "point_type_summary": "限時定點清運點", "schedule_summary": "12:30~13:30", "source_type_codes": "2"}}, {"type": "Feature", "geometry": {"type": "Point", "coordinates": [121.34872, 24.93287]}, "properties": {"point_sid": 3179, "dist": "三峽區", "vil": "鳶山里", "point_name": "本隊茅埔停車場(中山路553號對面)", "point_type_primary": "限時定點清運點", "point_type_summary": "限時定點清運點", "schedule_summary": "08:00~17:00", "source_type_codes": "2"}}, {"type": "Feature", "geometry": {"type": "Point", "coordinates": [121.357634, 24.940958]}, "properties": {"point_sid": 3180, "dist": "三峽區", "vil": "鳶山里", "point_name": "本區隊部(三峽區隆恩街243號)", "point_type_primary": "限時定點清運點", "point_type_summary": "限時定點清運點", "schedule_summary": "08:00~17:00", "source_type_codes": "2"}}, {"type": "Feature", "geometry": {"type": "Point", "coordinates": [121.445312, 25.168659]}, "properties": {"point_sid": 2735, "dist": "淡水區", "vil": "幸福里", "point_name": "英專路口", "point_type_primary": "限時定點清運點", "point_type_summary": "限時定點清運點", "schedule_summary": "06:10~08:30", "source_type_codes": "2"}}, {"type": "Feature", "geometry": {"type": "Point", "coordinates": [121.8507014, 25.06344972]}, "properties": {"point_sid": 1997, "dist": "雙溪區", "vil": "三貂里", "point_name": "政光3-5號(資源回收場)", "point_type_primary": "限時定點清運點", "point_type_summary": "限時定點清運點", "schedule_summary": "17:20~18:00", "source_type_codes": "2"}}, {"type": "Feature", "geometry": {"type": "Point", "coordinates": [121.809132, 25.107416]}, "properties": {"point_sid": 2405, "dist": "瑞芳區", "vil": "龍興里", "point_name": "明燈路三段2號(第一市場旁)", "point_type_primary": "限時定點清運點", "point_type_summary": "限時定點清運點、限時定點清運點、限時定點清運點", "schedule_summary": "07:30~08:30；12:00~13:00；21:00~21:30", "source_type_codes": "2,2,2"}}, {"type": "Feature", "geometry": {"type": "Point", "coordinates": [121.805897, 25.107552]}, "properties": {"point_sid": 2406, "dist": "瑞芳區", "vil": "龍興里", "point_name": "中正路、民生街交叉路口(中華電信前)", "point_type_primary": "限時定點清運點", "point_type_summary": "限時定點清運點", "schedule_summary": "21:30~22:00", "source_type_codes": "2"}}, {"type": "Feature", "geometry": {"type": "Point", "coordinates": [121.4345, 24.9617]}, "properties": {"point_sid": 893, "dist": "土城區", "vil": "員福里", "point_name": "中華路二段(全國加油站後)員福停車場(城林路6巷62號旁)", "point_type_primary": "限時定點清運點", "point_type_summary": "限時定點清運點", "schedule_summary": "06:00~22:00", "source_type_codes": "2"}}, {"type": "Feature", "geometry": {"type": "Point", "coordinates": [121.438, 24.9797]}, "properties": {"point_sid": 896, "dist": "土城區", "vil": "永寧里", "point_name": "永和街(北二高橋下)資源回收場 (永和街25號旁，400公尺)", "point_type_primary": "限時定點清運點", "point_type_summary": "限時定點清運點", "schedule_summary": "07:00~16:00", "source_type_codes": "2"}}, {"type": "Feature", "geometry": {"type": "Point", "coordinates": [121.4592, 24.9882]}, "properties": {"point_sid": 894, "dist": "土城區", "vil": "清溪里", "point_name": "清水消防隊(青雲路與立德路口)", "point_type_primary": "限時定點清運點", "point_type_summary": "限時定點清運點", "schedule_summary": "07:30~09:30", "source_type_codes": "2"}}, {"type": "Feature", "geometry": {"type": "Point", "coordinates": [121.4605238, 25.08299694]}, "properties": {"point_sid": 3323, "dist": "蘆洲區", "vil": "正義里", "point_name": "蘆洲慈惠堂", "point_type_primary": "限時定點清運點", "point_type_summary": "限時定點清運點", "schedule_summary": "08:00~09:00", "source_type_codes": "2"}}, {"type": "Feature", "geometry": {"type": "Point", "coordinates": [121.437547, 25.084423]}, "properties": {"point_sid": 2553, "dist": "五股區", "vil": "五股里", "point_name": "成泰路2段91巷(坑口公園廣場)", "point_type_primary": "限時定點清運點", "point_type_summary": "限時定點清運點", "schedule_summary": "07:20~09:00", "source_type_codes": "2"}}, {"type": "Feature", "geometry": {"type": "Point", "coordinates": [121.462032, 25.075913]}, "properties": {"point_sid": 2551, "dist": "五股區", "vil": "更寮里", "point_name": "中興路2段39號旁(高速公路橋下)", "point_type_primary": "限時定點清運點", "point_type_summary": "限時定點清運點", "schedule_summary": "07:20~09:00", "source_type_codes": "2"}}, {"type": "Feature", "geometry": {"type": "Point", "coordinates": [121.4498, 25.0977]}, "properties": {"point_sid": 2552, "dist": "五股區", "vil": "成州里", "point_name": "成泰路3段433號對面(成州2路)(五股鹹粥對面)", "point_type_primary": "限時定點清運點", "point_type_summary": "限時定點清運點", "schedule_summary": "07:20~09:00", "source_type_codes": "2"}}, {"type": "Feature", "geometry": {"type": "Point", "coordinates": [121.421762, 25.034952]}, "properties": {"point_sid": 2708, "dist": "泰山區", "vil": "貴和里", "point_name": "明志路三段357號OK便利商店對面", "point_type_primary": "限時定點清運點", "point_type_summary": "限時定點清運點", "schedule_summary": "07:15~09:00", "source_type_codes": "2"}}, {"type": "Feature", "geometry": {"type": "Point", "coordinates": [121.436822, 25.055411]}, "properties": {"point_sid": 2709, "dist": "泰山區", "vil": "義仁里", "point_name": "泰林路二段與中港南路口", "point_type_primary": "限時定點清運點", "point_type_summary": "限時定點清運點", "schedule_summary": "07:15~09:00", "source_type_codes": "2"}}, {"type": "Feature", "geometry": {"type": "Point", "coordinates": [121.433436, 25.063729]}, "properties": {"point_sid": 2710, "dist": "泰山區", "vil": "楓樹里", "point_name": "明志路一段(與文化街口)", "point_type_primary": "限時定點清運點", "point_type_summary": "限時定點清運點", "schedule_summary": "07:15~09:00", "source_type_codes": "2"}}, {"type": "Feature", "geometry": {"type": "Point", "coordinates": [121.42379177553721, 25.043644106017787]}, "properties": {"point_sid": 2714, "dist": "泰山區", "vil": "明志里", "point_name": "應化街", "point_type_primary": "限時定點清運點", "point_type_summary": "限時定點清運點、限時定點清運點", "schedule_summary": "14:35~14:50；19:35~20:10", "source_type_codes": "2,2"}}, {"type": "Feature", "geometry": {"type": "Point", "coordinates": [121.404945, 25.090817]}, "properties": {"point_sid": 1672, "dist": "林口區", "vil": "東林里", "point_name": "林口區粉寮路二段128號(清潔隊調度場)", "point_type_primary": "限時定點清運點", "point_type_summary": "限時定點清運點", "schedule_summary": "08:00~21:00", "source_type_codes": "2"}}, {"type": "Feature", "geometry": {"type": "Point", "coordinates": [121.6135061, 25.00195562]}, "properties": {"point_sid": 2676, "dist": "深坑區", "vil": "深坑里", "point_name": "北深路2段192號（公有立體停車場）", "point_type_primary": "限時定點清運點", "point_type_summary": "限時定點清運點", "schedule_summary": "07:00~10:00", "source_type_codes": "2"}}, {"type": "Feature", "geometry": {"type": "Point", "coordinates": [121.629421, 25.008749]}, "properties": {"point_sid": 2677, "dist": "深坑區", "vil": "土庫里", "point_name": "北深路1段26號", "point_type_primary": "限時定點清運點", "point_type_summary": "限時定點清運點", "schedule_summary": "07:00~09:00", "source_type_codes": "2"}}, {"type": "Feature", "geometry": {"type": "Point", "coordinates": [121.612394, 24.998899]}, "properties": {"point_sid": 2678, "dist": "深坑區", "vil": "阿柔里", "point_name": "阿柔洋40號", "point_type_primary": "限時定點清運點", "point_type_summary": "限時定點清運點", "schedule_summary": "07:00~10:00", "source_type_codes": "2"}}, {"type": "Feature", "geometry": {"type": "Point", "coordinates": [121.614974, 25.001068]}, "properties": {"point_sid": 2679, "dist": "深坑區", "vil": "深坑里", "point_name": "平埔街22巷8號旁", "point_type_primary": "限時定點清運點", "point_type_summary": "限時定點清運點", "schedule_summary": "07:00~22:00", "source_type_codes": "2"}}, {"type": "Feature", "geometry": {"type": "Point", "coordinates": [121.498319, 25.256653]}, "properties": {"point_sid": 2931, "dist": "三芝區", "vil": "埔頭里", "point_name": "中興、公正街口", "point_type_primary": "限時定點清運點", "point_type_summary": "限時定點清運點", "schedule_summary": "17:47~18:19", "source_type_codes": "2"}}, {"type": "Feature", "geometry": {"type": "Point", "coordinates": [121.415268, 25.164]}, "properties": {"point_sid": 3324, "dist": "八里區", "vil": "埤頭里", "point_name": "八里區清潔隊資源回收場(八里區博物館路10號之1)", "point_type_primary": "限時定點清運點", "point_type_summary": "限時定點清運點", "schedule_summary": "08:00~17:00", "source_type_codes": "2"}}, {"type": "Feature", "geometry": {"type": "Point", "coordinates": [121.866429, 25.038847]}, "properties": {"point_sid": 1995, "dist": "雙溪區", "vil": "新基里", "point_name": "自行車站(雙溪區新基里自強路5-1號)", "point_type_primary": "限時定點清運點", "point_type_summary": "限時定點清運點", "schedule_summary": "06:45~07:15", "source_type_codes": "2"}}, {"type": "Feature", "geometry": {"type": "Point", "coordinates": [121.8647894, 25.03549479]}, "properties": {"point_sid": 1996, "dist": "雙溪區", "vil": "雙溪里", "point_name": "綜合市場(雙溪區雙溪里太平路50號)", "point_type_primary": "限時定點清運點", "point_type_summary": "限時定點清運點", "schedule_summary": "07:20~07:50", "source_type_codes": "2"}}, {"type": "Feature", "geometry": {"type": "Point", "coordinates": [121.8662345, 25.03360015]}, "properties": {"point_sid": 1998, "dist": "雙溪區", "vil": "共和里", "point_name": "東榮街31號旁", "point_type_primary": "限時定點清運點", "point_type_summary": "限時定點清運點", "schedule_summary": "17:20~18:00", "source_type_codes": "2"}}, {"type": "Feature", "geometry": {"type": "Point", "coordinates": [121.91201, 25.02129]}, "properties": {"point_sid": 2501, "dist": "貢寮區", "vil": "貢寮里", "point_name": "清潔隊車庫(朝陽街1-2號)", "point_type_primary": "限時定點清運點", "point_type_summary": "限時定點清運點", "schedule_summary": "08:00~17:00", "source_type_codes": "2"}}, {"type": "Feature", "geometry": {"type": "Point", "coordinates": [121.92927, 25.03578777]}, "properties": {"point_sid": 2502, "dist": "貢寮區", "vil": "仁里里", "point_name": "貢寮區清潔隊資收場(台2線97公里處)", "point_type_primary": "限時定點清運點", "point_type_summary": "限時定點清運點", "schedule_summary": "08:00~17:00", "source_type_codes": "2"}}, {"type": "Feature", "geometry": {"type": "Point", "coordinates": [121.639327, 25.22754]}, "properties": {"point_sid": 2409, "dist": "金山區", "vil": "磺港里", "point_name": "金山區清潔隊資源回收場(磺清路135號旁)", "point_type_primary": "限時定點清運點", "point_type_summary": "限時定點清運點、限時定點清運點、限時定點清運點", "schedule_summary": "08:00~12:00；13:00~17:00；17:30~21:30", "source_type_codes": "2,2,2"}}, {"type": "Feature", "geometry": {"type": "Point", "coordinates": [121.693284, 25.178299]}, "properties": {"point_sid": 803, "dist": "萬里區", "vil": "萬里里", "point_name": "清潔隊停車場(獅頭路上）", "point_type_primary": "限時定點清運點", "point_type_summary": "限時定點清運點", "schedule_summary": "00:00~24:00", "source_type_codes": "2"}}, {"type": "Feature", "geometry": {"type": "Point", "coordinates": [121.551873, 24.865052]}, "properties": {"point_sid": 110, "dist": "烏來區", "vil": "烏來里", "point_name": "烏來立體停車場(烏來街47號）", "point_type_primary": "限時定點清運點", "point_type_summary": "限時定點清運點", "schedule_summary": "07:00~08:00", "source_type_codes": "2"}}]}