{"type": "FeatureCollection", "features": [{"type": "Feature", "geometry": {"type": "Point", "coordinates": [121.52006, 25.09997]}, "properties": {"dist": "士林區", "brigade": "蘭雅", "phone": "(02)28311586", "address": "臺北市士林區文昌路211之3號", "note": "周三、周日開放時間為06：00~16：00，其餘開放時間為06：00~22：00"}}, {"type": "Feature", "geometry": {"type": "Point", "coordinates": [121.50647, 25.08603]}, "properties": {"dist": "士林區", "brigade": "社子", "phone": "(02)28136658", "address": "臺北市士林區中正路臨692號對面", "note": "開放時間06：00~23：00"}}, {"type": "Feature", "geometry": {"type": "Point", "coordinates": [121.52771, 25.11576]}, "properties": {"dist": "士林區", "brigade": "天母", "phone": "(02)28742048", "address": "臺北市士林區中山北路6段763巷臨2號對面(垃圾車駐點)", "note": "開放時間07：00~10：00、14：00 ~17：00、20：00 ~ 22：00"}}, {"type": "Feature", "geometry": {"type": "Point", "coordinates": [121.52059, 25.076]}, "properties": {"dist": "大同區", "brigade": "大龍", "phone": "(02)25860781", "address": "臺北市大同區承德路3段303號之1", "note": "開放時間06：00~11：00、14：00~21：00"}}, {"type": "Feature", "geometry": {"type": "Point", "coordinates": [121.51439, 25.06284]}, "properties": {"dist": "大同區", "brigade": "建成", "phone": "(02)25535107", "address": "臺北市大同區民權西路臨194之1號", "note": "開放時間06：00~16：30加油站旁"}}, {"type": "Feature", "geometry": {"type": "Point", "coordinates": [121.5072, 25.0525]}, "properties": {"dist": "大同區", "brigade": "延平", "phone": "(02)25521952", "address": "臺北市大同區環河北路1段63號之1", "note": "其他開放時間06：00~19：00"}}, {"type": "Feature", "geometry": {"type": "Point", "coordinates": [121.5328, 25.0223]}, "properties": {"dist": "大安區", "brigade": "和平", "phone": "(02)23625869", "address": "臺北市大安區辛亥路1段臨143號", "note": "開放時間06：00~16：00、20：00~22：00"}}, {"type": "Feature", "geometry": {"type": "Point", "coordinates": [121.53778, 25.02495]}, "properties": {"dist": "大安區", "brigade": "瑞安", "phone": "(02)23634850", "address": "臺北市大安區建國南路2段臨263號", "note": "開放時間06：00~23：00"}}, {"type": "Feature", "geometry": {"type": "Point", "coordinates": [121.53528, 25.02242]}, "properties": {"dist": "大安區", "brigade": "臺大", "phone": "(02)23633215", "address": "臺北市大安區辛亥路1段臨138號", "note": "開放時間06：00~23：00"}}, {"type": "Feature", "geometry": {"type": "Point", "coordinates": [121.54693, 25.01937]}, "properties": {"dist": "大安區", "brigade": "臥龍", "phone": "(02)23785530", "address": "臺北市大安區基隆路3段臨24號", "note": "開放時間06：00~17：00"}}, {"type": "Feature", "geometry": {"type": "Point", "coordinates": [121.53785, 25.03986]}, "properties": {"dist": "大安區", "brigade": "新生", "phone": "(02)27529383", "address": "臺北市大安區建國南路1段臨173號", "note": "開放時間06：00~23：00"}}, {"type": "Feature", "geometry": {"type": "Point", "coordinates": [121.53707, 25.04182]}, "properties": {"dist": "大安區", "brigade": "敦化", "phone": "(02)27786724", "address": "臺北市大安區忠孝東路3段臨31號", "note": "開放時間06：00~23：00"}}, {"type": "Feature", "geometry": {"type": "Point", "coordinates": [121.53785, 25.02882]}, "properties": {"dist": "大安區", "brigade": "建南停車場", "phone": "(02)27000962", "address": "臺北市大安區建國南路2段臨149號", "note": "開放時間06：00~23：00，僅收受使用專用垃圾袋之一般垃圾"}}, {"type": "Feature", "geometry": {"type": "Point", "coordinates": [121.53685, 25.04628]}, "properties": {"dist": "中山區", "brigade": "長安", "phone": "(02)27775545", "address": "臺北市中山區建國北路1段臨5-1號", "note": "開放時間06：00~11：00、13：30~16：30，僅收受使用專用垃圾袋之一般垃圾及資源回收物(不含廚餘)"}}, {"type": "Feature", "geometry": {"type": "Point", "coordinates": [121.52748, 25.05412]}, "properties": {"dist": "中山區", "brigade": "中山", "phone": "(02)25110958", "address": "臺北市中山區新生北路2段臨30-1號", "note": "開放時間06：00~16：00"}}, {"type": "Feature", "geometry": {"type": "Point", "coordinates": [121.54174, 25.05456]}, "properties": {"dist": "中山區", "brigade": "南京", "phone": "(02)27132687", "address": "臺北市中山區長春路350號", "note": "開放時間：06：00∼11：00、13：30∼16：30 其他：開放時間 06：00∼11：00、13：30∼16：30，僅收受使用專用垃圾袋之一般垃圾及資源回收物(不含廚餘)"}}, {"type": "Feature", "geometry": {"type": "Point", "coordinates": [121.54577, 25.07292]}, "properties": {"dist": "中山區", "brigade": "大直停車場", "phone": "(02)25057649", "address": "臺北市中山區濱江街301巷內", "note": "開放時間06：00~23：00"}}, {"type": "Feature", "geometry": {"type": "Point", "coordinates": [121.52533, 25.02094]}, "properties": {"dist": "中正區", "brigade": "師大路停車場", "phone": "(02)23654040", "address": "臺北市中正區師大路臨241號", "note": "開放時間06：00~17：00"}}, {"type": "Feature", "geometry": {"type": "Point", "coordinates": [121.57479, 25.07005]}, "properties": {"dist": "內湖區", "brigade": "內湖停車場", "phone": "(02)87912409", "address": "臺北市內湖區舊宗路2段臨158號", "note": "開放時間06：00~23：00"}}, {"type": "Feature", "geometry": {"type": "Point", "coordinates": [121.54512, 25.00126]}, "properties": {"dist": "文山區", "brigade": "興隆", "phone": "(02)89315653", "address": "臺北市文山區景豐街臨82號對面(垃圾車駐點)", "note": "收受時間為每周一、二、四、五、六上午07：00~08：00，僅收受專用垃圾袋之一般垃圾"}}, {"type": "Feature", "geometry": {"type": "Point", "coordinates": [121.56851, 25.00229]}, "properties": {"dist": "文山區", "brigade": "博嘉", "phone": "(02)22397182", "address": "臺北市文山區萬美街1段47號", "note": "開放時間08：00~08：30(每周三、日、颱風天、停班日暫停開放)"}}, {"type": "Feature", "geometry": {"type": "Point", "coordinates": [121.5356, 25.00245]}, "properties": {"dist": "文山區", "brigade": "景美", "phone": "(02)29305836", "address": "臺北市文山區溪洲街臨220號", "note": "週三、周日開放時間為06：00~15：00，其餘開放時間為06：00~22：00，僅收受使用專用垃圾袋之一般垃圾及資源回收物(不含廚餘)"}}, {"type": "Feature", "geometry": {"type": "Point", "coordinates": [121.54636, 25.15127]}, "properties": {"dist": "北投區", "brigade": "陽明一班", "phone": "(02)28617757", "address": "臺北市北投區紗帽路141巷23號", "note": "開放時間06：00~23：00"}}, {"type": "Feature", "geometry": {"type": "Point", "coordinates": [121.49836, 25.11205]}, "properties": {"dist": "北投區", "brigade": "石牌", "phone": "(02)28235650", "address": "臺北市北投區承德路7段393巷200號", "note": "開放時間為周一至周六06：00~23：00"}}, {"type": "Feature", "geometry": {"type": "Point", "coordinates": [121.46703, 25.12311]}, "properties": {"dist": "北投區", "brigade": "關渡", "phone": "(02)28950256", "address": "臺北市北投區大度路3段臨250號", "note": "開放時間06：00~23：00"}}, {"type": "Feature", "geometry": {"type": "Point", "coordinates": [121.56934, 25.05127]}, "properties": {"dist": "松山區", "brigade": "松山", "phone": "(02)27678552", "address": "臺北市松山區南京東路5段356號對面橋下", "note": "開放時間為週三、周日06：00~16：30"}}, {"type": "Feature", "geometry": {"type": "Point", "coordinates": [121.62225, 25.02897]}, "properties": {"dist": "南港區", "brigade": "南港停車場", "phone": "(02)27835658", "address": "臺北市南港區南深路37-1號", "note": "開放時間06：00~23：00"}}, {"type": "Feature", "geometry": {"type": "Point", "coordinates": [121.61112, 25.06107]}, "properties": {"dist": "南港區", "brigade": "南港", "phone": "(02)27837522", "address": "臺北市南港區松河街699號", "note": "開放時間06：00~23：00"}}, {"type": "Feature", "geometry": {"type": "Point", "coordinates": [121.489, 25.03295]}, "properties": {"dist": "萬華區", "brigade": "大理", "phone": "(02)23068781", "address": "臺北市萬華區長順街臨131號", "note": "周三、周日開放時間為06：00~16：30，其餘時間正常開放(06：00~23：00)"}}, {"type": "Feature", "geometry": {"type": "Point", "coordinates": [121.50975, 25.05034]}, "properties": {"dist": "萬華區", "brigade": "萬華停車場", "phone": "(02)25521063", "address": "臺北市萬華區鄭州路及環河北路1段交口", "note": "開放時間06：00~23：00，淡3號疏散門外"}}]}