{"type": "FeatureCollection", "features": [{"type": "Feature", "geometry": {"type": "Point", "coordinates": [121.359821758174, 24.907414080446]}, "properties": {"dist": "三峽區", "vil": "二鬮里", "leader": "陳孝皇", "siteaddress": "三峽區二鬮路110巷口(土地公廟)", "office_address": "三峽區二鬮路110巷口(土地公廟)", "worktime": "每月第2、4周四 07:00-09:00", "phone": "02-26733365"}}, {"type": "Feature", "geometry": {"type": "Point", "coordinates": [121.368766, 24.911902]}, "properties": {"dist": "三峽區", "vil": "嘉添里", "leader": "李萬興", "siteaddress": "新北市三峽區嘉添路9號", "office_address": "新北市三峽區嘉添路9號", "worktime": "每月第1, 3 週日 07:00~10:30", "phone": "02-26714079"}}, {"type": "Feature", "geometry": {"type": "Point", "coordinates": [121.327526, 24.935188]}, "properties": {"dist": "鶯歌區", "vil": "二橋里", "leader": "李金量", "siteaddress": "第1週六:新北市鶯歌區中正三路337號 第3週六 中正三路37號對面", "office_address": "新北市鶯歌區二橋里10鄰中正三路318巷20號", "worktime": "每月第1.3周六09:00~11:00", "phone": "02-2679-5373"}}, {"type": "Feature", "geometry": {"type": "Point", "coordinates": [121.366138322882, 24.927060642172]}, "properties": {"dist": "三峽區", "vil": "中埔里", "leader": "翁聖潍", "siteaddress": "新北市三峽區弘園街36巷(中園國小後門)", "office_address": "新北市三峽區弘園街36巷(中園國小後門)", "worktime": "每單數周日0900-1100", "phone": "02-26736698"}}, {"type": "Feature", "geometry": {"type": "Point", "coordinates": [121.371363, 24.928849]}, "properties": {"dist": "三峽區", "vil": "安溪里", "leader": "王曼甄", "siteaddress": "新北市三峽區中華路76號對面空地", "office_address": "新北市三峽區安溪里中正路1段108巷14號", "worktime": "每月第2, 4週日9:00-11:00", "phone": "02-26718399"}}, {"type": "Feature", "geometry": {"type": "Point", "coordinates": [121.374324, 24.928114]}, "properties": {"dist": "三峽區", "vil": "中正里", "leader": "陳志泉", "siteaddress": "新北市三峽區永安街95巷29號", "office_address": "新北市三峽區永安街95巷29號旁(中正里黃金資收站)(貨到先電話聯絡)", "worktime": "每週六 09:00~11:00", "phone": ""}}, {"type": "Feature", "geometry": {"type": "Point", "coordinates": [121.376614, 24.929395]}, "properties": {"dist": "三峽區", "vil": "介壽里", "leader": "周梓亭", "siteaddress": "新北市三峽區光明路69巷25-7號(環保志工總部)", "office_address": "新北市三峽區介壽里7鄰中正路1段47號", "worktime": "每週六09:00~11:00", "phone": "02-26719658"}}, {"type": "Feature", "geometry": {"type": "Point", "coordinates": [121.366859770276, 24.9374659089175]}, "properties": {"dist": "三峽區", "vil": "鳶山里", "leader": "周文美", "siteaddress": "新北市三峽區大勇路36巷2號", "office_address": "新北市三峽區中山路128號", "worktime": "每週六09:00-11:00", "phone": "02-26715961"}}, {"type": "Feature", "geometry": {"type": "Point", "coordinates": [121.368513, 24.937516]}, "properties": {"dist": "三峽區", "vil": "永館里", "leader": "蘇正國", "siteaddress": "新北市三峽區永館里文化路210巷(舊公有臨時市場)", "office_address": "新北市三峽區和平街97號(送貨: 三峽區文化路210巷12-1號, 請連絡蘇里長:0932-121126)", "worktime": "每週六 08:00~11:00", "phone": "0932121126"}}, {"type": "Feature", "geometry": {"type": "Point", "coordinates": [121.343682, 24.946583]}, "properties": {"dist": "鶯歌區", "vil": "尖山里", "leader": "陳怡潔", "siteaddress": "新北市鶯歌區尖山路211巷1號", "office_address": "新北市鶯歌區尖山里尖山路211巷1號", "worktime": "每月第3周六09:00~11:00", "phone": "0937-923006"}}, {"type": "Feature", "geometry": {"type": "Point", "coordinates": [121.342755, 24.950148]}, "properties": {"dist": "鶯歌區", "vil": "永昌里", "leader": "游武雄", "siteaddress": "新北市鶯歌區永昌街36-1號(第四週) 新北市鶯歌區永明街22號(第二週 昌福國小門口)", "office_address": "新北市鶯歌區永昌里10鄰鶯桃路95巷20號﻿", "worktime": "每月2,4週六 09:00~11:00", "phone": "(02)2678-2585"}}, {"type": "Feature", "geometry": {"type": "Point", "coordinates": [121.350142, 24.950817]}, "properties": {"dist": "鶯歌區", "vil": "建國里", "leader": "林清得", "siteaddress": "新北市鶯歌區育智路100號旁(里活動中心籃球場)", "office_address": "新北市鶯歌區育智路49號", "worktime": "每月第1.3週日08:30~10:30", "phone": "02-26796063"}}, {"type": "Feature", "geometry": {"type": "Point", "coordinates": [121.352776, 24.950284]}, "properties": {"dist": "鶯歌區", "vil": "南靖里", "leader": "楊祚榮", "siteaddress": "新北市鶯歌區文化路395號(活動中心)", "office_address": "新北市鶯歌區文化路379號 (貨送文化路395號/先電里長)", "worktime": "每月2、4週六 08:30~10:30", "phone": "02-86772819"}}, {"type": "Feature", "geometry": {"type": "Point", "coordinates": [121.349288, 24.951817]}, "properties": {"dist": "鶯歌區", "vil": "同慶里", "leader": "張素燕", "siteaddress": "新北市鶯歌區尖山埔路104號(活動中心)", "office_address": "新北市鶯歌區重慶街69號", "worktime": "每月第2、第4周一17:00~20:00", "phone": "02-26706526"}}, {"type": "Feature", "geometry": {"type": "Point", "coordinates": [121.347795641677, 24.953369616975]}, "properties": {"dist": "鶯歌區", "vil": "南鶯里", "leader": "李明弘", "siteaddress": "新北市鶯歌區建國路257號", "office_address": "新北市鶯歌區建國路257號", "worktime": "每月第2週五9:00~11:00", "phone": "02-26793167"}}, {"type": "Feature", "geometry": {"type": "Point", "coordinates": [121.354606, 24.953438]}, "properties": {"dist": "鶯歌區", "vil": "東鶯里", "leader": "陳陸賀", "siteaddress": "新北市鶯歌區文化路215號(東鶯活動中心)", "office_address": "新北市鶯歌區文化路173號", "worktime": "每月第2、4週六 08:00~10:00", "phone": "02-26792501"}}, {"type": "Feature", "geometry": {"type": "Point", "coordinates": [121.407513, 24.932014]}, "properties": {"dist": "三峽區", "vil": "溪東里", "leader": "陳錫遠", "siteaddress": "新北市三峽區溪東路218巷1號(活動中心)", "office_address": "新北市三峽區溪東路299巷7號(貨送資收點/先電里長太太)", "worktime": "每月第1週六09:00-12:00", "phone": "02-8676-3543"}}, {"type": "Feature", "geometry": {"type": "Point", "coordinates": [121.338309, 24.959268]}, "properties": {"dist": "鶯歌區", "vil": "永吉里", "leader": "林茂哲", "siteaddress": "新北市鶯歌區鶯桃路206巷24弄30-1號", "office_address": "新北市鶯歌區鶯桃路206巷24弄14號", "worktime": "每月第2、4週日08:30~11:00", "phone": "02-26705638"}}, {"type": "Feature", "geometry": {"type": "Point", "coordinates": [121.446675, 24.927099]}, "properties": {"dist": "三峽區", "vil": "安坑里", "leader": "李瑞娉", "siteaddress": "新北市三峽區建安路41號", "office_address": "新北市三峽區建安路42號", "worktime": "每月第2、4週六 09:00~11:30", "phone": "02-26726088"}}, {"type": "Feature", "geometry": {"type": "Point", "coordinates": [121.522588, 24.926402]}, "properties": {"dist": "新店區", "vil": "塗潭里", "leader": "邱秀雄", "siteaddress": "新北市新店區新潭路二段61號", "office_address": "新北市新店區新潭路二段61號", "worktime": "每月第2、4週日 08:00~11:00", "phone": "02-29127797"}}, {"type": "Feature", "geometry": {"type": "Point", "coordinates": [121.47914, 24.945756]}, "properties": {"dist": "新店區", "vil": "日興里", "leader": "廖景春", "siteaddress": "新北市新店區日興里錦秀路1之1號旁(守望相助隊旁)", "office_address": "新北市新店區安康路三段622號", "worktime": "每月第2週日14:00~16:00", "phone": "02-22151793"}}, {"type": "Feature", "geometry": {"type": "Point", "coordinates": [121.418583, 24.957471]}, "properties": {"dist": "土城區", "vil": "頂埔里", "leader": "林忠謀", "siteaddress": "新北市土城區中央路四段55-12號(頂鋪市民活動中心)", "office_address": "新北市土城區中央路四段103號(送貨地址：中央路四段55-12號，送貨前先聯絡里長0936106627", "worktime": "每週四 10:00~11:30", "phone": "02-2267-8936"}}, {"type": "Feature", "geometry": {"type": "Point", "coordinates": [121.495909, 24.947748]}, "properties": {"dist": "新店區", "vil": "吉祥里", "leader": "林永輝", "siteaddress": "新北市新店區玫瑰路51巷2號1樓(吉祥里活動中心)", "office_address": "新北市新店區玫瑰路57巷46號", "worktime": "每週一 19:00~21:00", "phone": "02-22151115"}}, {"type": "Feature", "geometry": {"type": "Point", "coordinates": [121.49488, 24.948967]}, "properties": {"dist": "新店區", "vil": "玫瑰里", "leader": "施天賜", "siteaddress": "新北市新店區富貴街9巷29號(B1樓)", "office_address": "新北市新店區富貴街9巷29號2樓", "worktime": "每週三 18:30~21:30", "phone": "02-22150119"}}, {"type": "Feature", "geometry": {"type": "Point", "coordinates": [121.530261, 24.949197]}, "properties": {"dist": "新店區", "vil": "美城里", "leader": "翁智冠", "siteaddress": "新北市新店區永業路81巷5弄5號B1樓", "office_address": "新北市新店區永業路81巷5弄5號B1樓", "worktime": "每月1、3週日 08:00~10:00", "phone": "02-29148839"}}, {"type": "Feature", "geometry": {"type": "Point", "coordinates": [121.550165, 24.950011]}, "properties": {"dist": "新店區", "vil": "青潭里", "leader": "林岑郁", "siteaddress": "新北市新店區新烏路一段11巷口", "office_address": "新北市新店區新烏路一段9-1號4樓(送貨地址:新店區竹林路二巷36弄3號1樓)", "worktime": "每月第2、4週六 08:00~11:00", "phone": "02-22179229"}}, {"type": "Feature", "geometry": {"type": "Point", "coordinates": [121.538589, 24.953962]}, "properties": {"dist": "新店區", "vil": "國校里", "leader": "郭儒鈞", "siteaddress": "新北市新店區國校路65巷1號(里辦) 新北市新店區北宜路一段115巷8弄3-1號(國校里活動中心)", "office_address": "新北市新店區國校路65巷1號（送貨地點：新店區北宜路一段115巷8弄3之1號，活動中心）", "worktime": "每月第1週六:里辦前每月第2週日:活動中心 時間皆08:00~10:00", "phone": "02-29117312"}}, {"type": "Feature", "geometry": {"type": "Point", "coordinates": [121.532503, 24.958659]}, "properties": {"dist": "新店區", "vil": "太平里", "leader": "李謝素珍", "siteaddress": "新北市新店區碧潭路27號 新北市新店區精忠路10-1號", "office_address": "新北市新店區永業路4巷5號2樓", "worktime": "每月1, 2,4 週六 08:00~10:00", "phone": "02-22115711"}}, {"type": "Feature", "geometry": {"type": "Point", "coordinates": [121.539248, 24.958241]}, "properties": {"dist": "新店區", "vil": "文中里", "leader": "劉閔禮", "siteaddress": "新北市新店區北宜路一段39巷32號旁(文中活動中心)", "office_address": "新北市新店區北宜路一段83號1樓", "worktime": "每月第1、3週日 8:00~11:00", "phone": "02-29122820"}}, {"type": "Feature", "geometry": {"type": "Point", "coordinates": [121.538066, 24.9612]}, "properties": {"dist": "新店區", "vil": "張南里", "leader": "林國榮", "siteaddress": "新北市新店區環河路5號1樓", "office_address": "新北市新店區環河路5號1樓", "worktime": "每週六 09:00~11:00", "phone": "02-29117423"}}, {"type": "Feature", "geometry": {"type": "Point", "coordinates": [121.508255, 24.959839]}, "properties": {"dist": "新店區", "vil": "德安里", "leader": "丁萬貴", "siteaddress": "新北市新店區安德街148巷1號旁", "office_address": "新北市新店區安康路二段183巷13-4號(送貨聯絡丁太太：0937020489)", "worktime": "每月第1、3週六 08:00~10:00", "phone": "02-22121736"}}, {"type": "Feature", "geometry": {"type": "Point", "coordinates": [121.523611, 24.962572]}, "properties": {"dist": "新店區", "vil": "下城里", "leader": "廖瓊瑤", "siteaddress": "新北市新店區安康路一段281巷6號(下城社區發展協會)", "office_address": "新北市新店區安康路一段186號", "worktime": "每月第3週六 14:00~16:00", "phone": "02-22123302"}}, {"type": "Feature", "geometry": {"type": "Point", "coordinates": [121.541368, 24.963579]}, "properties": {"dist": "新店區", "vil": "文明里", "leader": "彭永珍", "siteaddress": "新北市新店區檳榔路36巷土地公廟口", "office_address": "新北市新店區光明街155號(貨送資收點先電聯里辦)", "worktime": "每月第2.4週二08:00~10:00", "phone": "02-2914-1879"}}, {"type": "Feature", "geometry": {"type": "Point", "coordinates": [121.513496, 24.963327]}, "properties": {"dist": "新店區", "vil": "公崙里", "leader": "游炎嵐", "siteaddress": "新北市新店區安康路二段100巷5-1號", "office_address": "新北市新店區安康路二段81號之1(送貨:新店安康路二段100巷5號, 請先電聯里長)", "worktime": "每月第1、3週六 08:00~10:00", "phone": "02-22125650"}}, {"type": "Feature", "geometry": {"type": "Point", "coordinates": [121.541154, 24.966283]}, "properties": {"dist": "新店區", "vil": "中興里", "leader": "張正義", "siteaddress": "新北市新店區北新路一段50號", "office_address": "新北市新店區北新路一段50號", "worktime": "每月第1、3週二 07:00~10:00", "phone": "02-29120556"}}, {"type": "Feature", "geometry": {"type": "Point", "coordinates": [121.681712, 24.91605]}, "properties": {"dist": "坪林區", "vil": "粗窟里", "leader": "李志忠", "siteaddress": "新北市坪林區金瓜寮13號", "office_address": "新北市坪林區金瓜寮13號", "worktime": "每月第3週二 08:30~11:00", "phone": "02-26657868"}}, {"type": "Feature", "geometry": {"type": "Point", "coordinates": [121.542126, 24.968774]}, "properties": {"dist": "新店區", "vil": "五峯里", "leader": "陳淑美", "siteaddress": "新北市新店區北新路1段92號(文化劇場)", "office_address": "新北市新店區大新街9巷14號4樓", "worktime": "每月第1.3週四07:00~09:00", "phone": "(02)2912-6264"}}, {"type": "Feature", "geometry": {"type": "Point", "coordinates": [121.70664, 24.928998]}, "properties": {"dist": "坪林區", "vil": "大林里", "leader": "李秋勝", "siteaddress": "新北市坪林區(魚逮)魚堀55之8號)", "office_address": "新北市坪林區大林里5鄰(魚逮)魚堀55之8號", "worktime": "每月第2週二 08:30~11:00", "phone": "02-26656407"}}, {"type": "Feature", "geometry": {"type": "Point", "coordinates": [121.711844226876, 24.936121824196]}, "properties": {"dist": "坪林區", "vil": "坪林里", "leader": "陳錦發", "siteaddress": "新北市坪林街88號", "office_address": "新北市坪林街88號", "worktime": "每月第3周五08:30-11:00", "phone": "02-26657827"}}, {"type": "Feature", "geometry": {"type": "Point", "coordinates": [121.7116927, 24.9361756]}, "properties": {"dist": "坪林區", "vil": "水德里", "leader": "鐘國賓", "siteaddress": "新北市坪林區水聳淒坑7號之6(倆兄弟茶園)", "office_address": "新北市坪林區水聳淒坑7號之6(倆兄弟茶園)", "worktime": "每月第1周一上午08:30-11:00", "phone": "02-26656177"}}, {"type": "Feature", "geometry": {"type": "Point", "coordinates": [121.744816, 24.944579]}, "properties": {"dist": "坪林區", "vil": "上德里", "leader": "陳金山", "siteaddress": "新北市坪林區虎寮潭畔16號(虎寮潭休閒度假山莊)", "office_address": "新北市坪林區虎寮潭畔16號(虎寮潭休閒度假山莊)", "worktime": "每月第2個周四上午08:30-11:00", "phone": "02-26656549"}}, {"type": "Feature", "geometry": {"type": "Point", "coordinates": [121.657309, 24.975054]}, "properties": {"dist": "石碇區", "vil": "烏塗里", "leader": "林", "siteaddress": "新北市石碇區烏塗窟26號旁", "office_address": "新北市石碇區烏塗窟26號", "worktime": "每月第1、3週六 08:00~11:00", "phone": "02-26631657"}}, {"type": "Feature", "geometry": {"type": "Point", "coordinates": [121.739328, 24.96388]}, "properties": {"dist": "坪林區", "vil": "漁光里", "leader": "白珮嫻", "siteaddress": "新北市坪林區大舌湖24號(土地公廟旁)", "office_address": "新北市坪林區大舌湖24號(土地公廟旁)", "worktime": "每月第2周一上午08:30-11:00", "phone": "02-26656989"}}, {"type": "Feature", "geometry": {"type": "Point", "coordinates": [121.65932, 24.990891]}, "properties": {"dist": "石碇區", "vil": "石碇里", "leader": "王銘勇", "siteaddress": "新北市石碇區石碇西街6號", "office_address": "新北市石碇區石碇西街1號", "worktime": "每月第1、3週二 12:30~14:00", "phone": "26631080 #237(石碇區公所里幹事林's)"}}, {"type": "Feature", "geometry": {"type": "Point", "coordinates": [121.657806, 24.991402]}, "properties": {"dist": "石碇區", "vil": "潭邊里", "leader": "王萬紫", "siteaddress": "新北市石碇區碇坪路一段122號隔壁(巡守隊)", "office_address": "新北市石碇區碇坪路一段116號", "worktime": "每月第2、4週六 08:00~11:00", "phone": "02-26631322"}}, {"type": "Feature", "geometry": {"type": "Point", "coordinates": [121.716642, 25.020083]}, "properties": {"dist": "平溪區", "vil": "薯榔里", "leader": "潘隆裕", "siteaddress": "新北市平溪區雙菁路81-4號", "office_address": "新北市平溪區雙菁路81-4號", "worktime": "每週三全日", "phone": ""}}, {"type": "Feature", "geometry": {"type": "Point", "coordinates": [121.905245, 25.015057]}, "properties": {"dist": "貢寮區", "vil": "龍崗里", "leader": "黃朝銘", "siteaddress": "新北市貢寮區嵩陽街40-1(貢寮根帝宮)", "office_address": "新北市貢寮區泮宮路6號", "worktime": "每月第1週四 10:00~11:30", "phone": "02-24942666"}}, {"type": "Feature", "geometry": {"type": "Point", "coordinates": [121.84945, 25.03513]}, "properties": {"dist": "雙溪區", "vil": "平林里", "leader": "黃添松", "siteaddress": "新北市雙溪區外平林52號", "office_address": "新北市雙溪區平林里5鄰外平林17號", "worktime": "每週四 8:30~15:00", "phone": "02-24933032"}}, {"type": "Feature", "geometry": {"type": "Point", "coordinates": [121.620979, 24.999678]}, "properties": {"dist": "深坑區", "vil": "昇高里", "leader": "李傳震", "siteaddress": "新北市深坑區旺耽路25號(昇高活動中心) 新北市深坑區雲鄉路1號B1(雲鄉社區會議室)", "office_address": "新北市深坑區旺耽路45巷21號 (貨送:雲鄉路1號B1雲鄉社區會議室(02)2662-1070黃總幹事)", "worktime": "每週一 09:00-11:00(昇高活動中心) + 每週六 13:30-15:30(雲鄉社區會議室)", "phone": "02-2662-1648"}}, {"type": "Feature", "geometry": {"type": "Point", "coordinates": [121.8655773, 25.033837]}, "properties": {"dist": "雙溪區", "vil": "三港里", "leader": "康俐瑩", "siteaddress": "新北市雙溪區三港里三港7號", "office_address": "新北市雙溪區三港里三港7號", "worktime": "每週一10:00~12:00", "phone": "02-24933531"}}, {"type": "Feature", "geometry": {"type": "Point", "coordinates": [121.634095, 25.010814]}, "properties": {"dist": "深坑區", "vil": "土庫里", "leader": "高太郎", "siteaddress": "新北市深坑區北深路一段164號 (土庫第二市民活動中心)", "office_address": "新北市深坑區北深路一段170號", "worktime": "每週一 19:00~21:00；每週四 9:00~11:00", "phone": "02-26627777"}}, {"type": "Feature", "geometry": {"type": "Point", "coordinates": [121.629633, 25.008779]}, "properties": {"dist": "深坑區", "vil": "賴仲里", "leader": "蕭麗玉", "siteaddress": "新北市深坑區北深路一段300號(慈聖宮旁)", "office_address": "新北市深坑區翠谷路34巷10號6樓 (送貨: 翠谷街24號旁車庫, 打手機給里長)", "worktime": "每週六 08:30~10:30", "phone": "2662-9962"}}, {"type": "Feature", "geometry": {"type": "Point", "coordinates": [121.619552784422, 25.003539414612]}, "properties": {"dist": "深坑區", "vil": "埔新里", "leader": "游貫中", "siteaddress": "新北市深坑區北深路二段43巷11弄2號", "office_address": "新北市深坑區北深路二段43巷11弄2號", "worktime": "每周一上午09:00-11:00", "phone": ""}}, {"type": "Feature", "geometry": {"type": "Point", "coordinates": [121.615249, 25.001818]}, "properties": {"dist": "深坑區", "vil": "深坑里", "leader": "黃建強", "siteaddress": "\"新北市深坑區深坑街57號", "office_address": "新北市深坑區深坑里深坑街3巷2號2樓 (貨送新北市深坑區深坑街57號)", "worktime": "$6", "phone": "$7"}}, {"type": "Feature", "geometry": {"type": "Point", "coordinates": [121.332415, 24.963779]}, "properties": {"dist": "鶯歌區", "vil": "鳳祥里", "leader": "曾勝利", "siteaddress": "新北市鶯歌區鶯桃路381巷2弄17號(活動中心)", "office_address": "新北市鶯歌區鶯桃路507號", "worktime": "每月第1、3週日 08:30~11:00", "phone": "02-86777028"}}, {"type": "Feature", "geometry": {"type": "Point", "coordinates": [121.342001, 24.961255]}, "properties": {"dist": "鶯歌區", "vil": "中湖里", "leader": "游盛政", "siteaddress": "1.新北市鶯歌區中湖街23號 2.新北市鶯歌區湖山路34巷(湖山福德宮) 3.新北市鶯歌區大湖路余厝巷廣場", "office_address": "新北市鶯歌區大湖路金包珠巷13號", "worktime": "每月第2、4週六 08:30~11:00", "phone": "02-26701600"}}, {"type": "Feature", "geometry": {"type": "Point", "coordinates": [121.419384973785, 24.963592018449]}, "properties": {"dist": "土城區", "vil": "沛陂里", "leader": "王金芬", "siteaddress": "新北市土城區三民路23巷8弄9號", "office_address": "新北市土城區三民路23巷8弄9號", "worktime": "每月第1.3周三上午07:30-10:00", "phone": "02-22686607"}}, {"type": "Feature", "geometry": {"type": "Point", "coordinates": [121.430091, 24.965115]}, "properties": {"dist": "土城區", "vil": "永寧里", "leader": "周清芳", "siteaddress": "新北市土城區中央路三段184巷5號", "office_address": "新北市土城區永安街82號(貨送:土城區中央路三段184巷5號,先電聯里長)", "worktime": "每月第2, 4週一 19:00~21:00, 週二 09:00~11:00", "phone": "02-22696053"}}, {"type": "Feature", "geometry": {"type": "Point", "coordinates": [121.435932, 24.96615]}, "properties": {"dist": "土城區", "vil": "大安里", "leader": "張俊隆", "siteaddress": "新北市土城區承天路2號(巡守隊前)", "office_address": "新北市土城區中央路三段76巷4號1樓", "worktime": "每週二 9:00~11:00", "phone": "02-22672969"}}, {"type": "Feature", "geometry": {"type": "Point", "coordinates": [121.440713, 24.968157]}, "properties": {"dist": "土城區", "vil": "埤塘里", "leader": "邱顯俊", "siteaddress": "新北市土城區忠義路61號", "office_address": "新北市土城區金城路一段36號", "worktime": "每週六 08:30~12:00", "phone": "02-22692102"}}, {"type": "Feature", "geometry": {"type": "Point", "coordinates": [121.394653, 24.971553]}, "properties": {"dist": "樹林區", "vil": "中山里", "leader": "簡炎輝", "siteaddress": "新北市樹林區地政街12號旁(老人會館廣場)", "office_address": "新北市樹林區中山路3段241號(貨送：樹林區地政街10號)", "worktime": "每月第1、3週六8:00~10:00", "phone": ""}}, {"type": "Feature", "geometry": {"type": "Point", "coordinates": [121.439375, 24.973966]}, "properties": {"dist": "土城區", "vil": "員仁里", "leader": "洪永富", "siteaddress": "新北市土城區福仁街81之1號(服務處)", "office_address": "新北市土城區中央路二段370號, 送貨地址:土城區福仁街81-1號", "worktime": "每週一 07:30~11:30", "phone": "02-22705007"}}, {"type": "Feature", "geometry": {"type": "Point", "coordinates": [121.541831000495, 24.96937301707]}, "properties": {"dist": "新店區", "vil": "新德里", "leader": "陳炳漢", "siteaddress": "新店區北新路一段351號旁(北新藝術廣場)", "office_address": "新店區北新路一段351號旁(北新藝術廣場)", "worktime": "每月第4周六上午07:00-10:00", "phone": "02-29110007"}}, {"type": "Feature", "geometry": {"type": "Point", "coordinates": [121.536743, 24.970938]}, "properties": {"dist": "新店區", "vil": "中華里", "leader": "邱湘羚", "siteaddress": "新北市新店區三民路20之1號(三民活動中心)", "office_address": "新北市新店區三民路57號4樓", "worktime": "每月第2、4週六 08:00~10:00", "phone": "02-89119959"}}, {"type": "Feature", "geometry": {"type": "Point", "coordinates": [121.604245, 25.000757]}, "properties": {"dist": "深坑區", "vil": "萬順里", "leader": "楊文得", "siteaddress": "新北市深坑區北深路3段107巷 26號(萬順活動中心)", "office_address": "新北市深坑區萬順里北深路三段243巷12 弄6號2樓(送貨: 深坑區北深路三段107巷26號, 請先聯絡里長)", "worktime": "每週六 08:00~10:00", "phone": "02-2662-2208"}}, {"type": "Feature", "geometry": {"type": "Point", "coordinates": [121.600636, 25.004125]}, "properties": {"dist": "深坑區", "vil": "萬福里", "leader": "鄭宗良", "siteaddress": "新北市深坑區北深路三段232號", "office_address": "新北市深坑區北深路三段232號4樓", "worktime": "每週六 09:00~11:00", "phone": "02-26621600"}}, {"type": "Feature", "geometry": {"type": "Point", "coordinates": [121.328854, 24.975487]}, "properties": {"dist": "鶯歌區", "vil": "鳳福里", "leader": "簡騰源", "siteaddress": "新北市鶯歌區鳳吉一街167-1號", "office_address": "新北市鶯歌區大湖路361巷48弄5號", "worktime": "每月第1、3週六 08:30~11:00", "phone": "02-26708600"}}, {"type": "Feature", "geometry": {"type": "Point", "coordinates": [121.338973, 24.973928]}, "properties": {"dist": "鶯歌區", "vil": "大湖里", "leader": "蕭鈴玉", "siteaddress": "單月:新北市鶯歌區朝陽街1號 雙月: 新北市鶯歌區國際二路6巷底(聖天宮廣場) 每月第3週一 新北市鶯歌區大湖路732巷16弄走到底(土地公廟)", "office_address": "新北市鶯歌區大湖里8鄰明圓街1號﻿", "worktime": "每月第1周六08:30~10:30 每月第3週一08:30~10:30", "phone": "(02)26705824"}}, {"type": "Feature", "geometry": {"type": "Point", "coordinates": [121.333236, 24.967482]}, "properties": {"dist": "鶯歌區", "vil": "鳳鳴里", "leader": "陳芷柔", "siteaddress": "新北市鶯歌區永和街34巷8號 (鳳鳴活動中心)", "office_address": "新北市鶯歌區鶯桃路668巷22弄8號(送貨:鶯歌區永和街34巷8號, 請先連絡里長)", "worktime": "每月第2 ,4週日 09:00~11:00", "phone": "02-86771878"}}, {"type": "Feature", "geometry": {"type": "Point", "coordinates": [121.353512, 24.9571]}, "properties": {"dist": "鶯歌區", "vil": "西鶯里", "leader": "蘇炳輝", "siteaddress": "新北市鶯歌區中正一路203號(活動中心)", "office_address": "新北市鶯歌區中正一路133號(先電聯確認貨送點)", "worktime": "每月第1.3週六08:30~11:00(如果當月有5週則是1.4週六8:30~11:00)", "phone": "02-86775288"}}, {"type": "Feature", "geometry": {"type": "Point", "coordinates": [121.354441, 24.955867]}, "properties": {"dist": "鶯歌區", "vil": "北鶯里", "leader": "李松進", "siteaddress": "新北市鶯歌區仁愛路 55號 (區公所前)", "office_address": "新北市鶯歌區中正一路353號", "worktime": "每月第3週六 08:30-10:30", "phone": "02-26791067"}}, {"type": "Feature", "geometry": {"type": "Point", "coordinates": [121.42337, 25.012097]}, "properties": {"dist": "樹林區", "vil": "圳民里", "leader": "王", "siteaddress": "新北市樹林區俊英街155巷27號", "office_address": "新北市樹林區俊英街155巷27號", "worktime": "每月第1、3週六08:00~10:30", "phone": "02-26885543"}}, {"type": "Feature", "geometry": {"type": "Point", "coordinates": [121.424867, 25.010047]}, "properties": {"dist": "樹林區", "vil": "圳安里", "leader": "許進旺", "siteaddress": "新北市樹林區俊英街222號", "office_address": "新北市樹林區俊英街222號", "worktime": "每月第1、3週六 08:30~10:30", "phone": "02-26811454"}}, {"type": "Feature", "geometry": {"type": "Point", "coordinates": [121.427141, 25.015474]}, "properties": {"dist": "新莊區", "vil": "光正里", "leader": "陳通助", "siteaddress": "新北市新莊區民安西路189巷29號", "office_address": "新北市新莊區民安西路189巷29號", "worktime": "每週六16:00~19:00", "phone": "02-22034597"}}, {"type": "Feature", "geometry": {"type": "Point", "coordinates": [121.414981, 25.000061]}, "properties": {"dist": "樹林區", "vil": "金寮里", "leader": "楊淑惠", "siteaddress": "新北市樹林區保安街二段151號武林國小", "office_address": "新北市樹林區保安街二段49號", "worktime": "每月第1、3週六 08:00~10:00", "phone": "02-26757295"}}, {"type": "Feature", "geometry": {"type": "Point", "coordinates": [121.421614, 25.021103]}, "properties": {"dist": "新莊區", "vil": "南港里", "leader": "林朝基", "siteaddress": "新北市新莊區四維路186巷2號 (四維活動中心)", "office_address": "新北市新莊區四維路188巷8號", "worktime": "每週一早上9:30~11:30.下午3:00~7:30", "phone": "02-22048385"}}, {"type": "Feature", "geometry": {"type": "Point", "coordinates": [121.427651, 24.999462]}, "properties": {"dist": "樹林區", "vil": "圳福里", "leader": "蘇益和", "siteaddress": "新北市樹林區圳福里千歲街橋下休閒廣場", "office_address": "新北市樹林區樹新路219巷10號3樓", "worktime": "每月第1, 3週六 08:00~10:00", "phone": "02-86755255"}}, {"type": "Feature", "geometry": {"type": "Point", "coordinates": [121.426062, 24.997543]}, "properties": {"dist": "樹林區", "vil": "文林里", "leader": "甘永昌", "siteaddress": "新北市樹林區千歲街59號(文林國小懷恩樓川堂)", "office_address": "新北市樹林區潭興街107巷21弄6號", "worktime": "每月第1、3週六8:00~10:00", "phone": "02-26755252"}}, {"type": "Feature", "geometry": {"type": "Point", "coordinates": [121.42896, 25.02194]}, "properties": {"dist": "新莊區", "vil": "民全里", "leader": "張文興", "siteaddress": "新北市新莊區民全街21號旁", "office_address": "新北市新莊區民全街11號1樓", "worktime": "每週五19:00-20:50", "phone": "02-2202-0089"}}, {"type": "Feature", "geometry": {"type": "Point", "coordinates": [121.426885, 25.023921]}, "properties": {"dist": "新莊區", "vil": "建安里", "leader": "王永華", "siteaddress": "新北市新莊區建安街101巷34號", "office_address": "新北市新莊區建安街101巷34號", "worktime": "每週四 19:00~21:00", "phone": "02-22062060"}}, {"type": "Feature", "geometry": {"type": "Point", "coordinates": [121.404342977984, 25.016610992614]}, "properties": {"dist": "樹林區", "vil": "三福里", "leader": "張致遠", "siteaddress": "新北市樹林區福興街17號(活動中心)", "office_address": "新北市樹林區福興街17號(活動中心)", "worktime": "每月第2、4周六上午08:00-09:30", "phone": "02-26888622"}}, {"type": "Feature", "geometry": {"type": "Point", "coordinates": [121.412976, 25.027429]}, "properties": {"dist": "新莊區", "vil": "雙鳳里", "leader": "潘素娥", "siteaddress": "新北市新莊區鳳山街52號", "office_address": "新北市新莊區鳳山街52號", "worktime": "每週二 18:00~20:00", "phone": "02-29035533"}}, {"type": "Feature", "geometry": {"type": "Point", "coordinates": [121.429128433312, 24.992684388995]}, "properties": {"dist": "板橋區", "vil": "崑崙里", "leader": "魏烽智", "siteaddress": "新北市板橋區大觀路三段240號(活動中心)", "office_address": "新北市板橋區大觀路三段240號(活動中心)", "worktime": "每月第2、4周五上午08:00-11:00(遇連假順延一周)", "phone": "0972085988"}}, {"type": "Feature", "geometry": {"type": "Point", "coordinates": [121.433282, 24.992402]}, "properties": {"dist": "板橋區", "vil": "成和里", "leader": "鄧月茶", "siteaddress": "新北市板橋區金門街97號", "office_address": "新北市板橋區金門街97號", "worktime": "每月第1,3週五11:00~14:00", "phone": "02-26816526"}}, {"type": "Feature", "geometry": {"type": "Point", "coordinates": [121.441361, 25.002562]}, "properties": {"dist": "板橋區", "vil": "聚安里", "leader": "蔡世川", "siteaddress": "新北市板橋區大觀路二段174巷147號旁空地", "office_address": "新北市板橋區龍興街71巷12號", "worktime": "每周六 08:00~11:00", "phone": "02-2960-0213"}}, {"type": "Feature", "geometry": {"type": "Point", "coordinates": [121.426703, 24.988335]}, "properties": {"dist": "板橋區", "vil": "溪洲里", "leader": "王山崎", "siteaddress": "新北市板橋區溪洲里溪崑二街113號(溪洲公園活動中心)", "office_address": "新北市板橋區滿平二街15號,送貨地址:溪崑二街113號(溪洲公園活動中心,請先連絡里長)", "worktime": "每月第2、4週五 10:00~12:00", "phone": "02-26842011"}}, {"type": "Feature", "geometry": {"type": "Point", "coordinates": [121.415224, 24.986475]}, "properties": {"dist": "樹林區", "vil": "樹人里", "leader": "邱世昌", "siteaddress": "新北市樹林區備前街124號", "office_address": "新北市樹林區復興路308巷2弄6號", "worktime": "每月2.4週六08:00~10:00", "phone": "02-86753127"}}, {"type": "Feature", "geometry": {"type": "Point", "coordinates": [121.405231, 24.990664]}, "properties": {"dist": "樹林區", "vil": "坡內里", "leader": "陳譽丰", "siteaddress": "新北市樹林區備內街117號", "office_address": "新北市樹林區備內街109號", "worktime": "每月第2,4週六 08:00~10:00", "phone": "02-26867040"}}, {"type": "Feature", "geometry": {"type": "Point", "coordinates": [121.427935, 24.985]}, "properties": {"dist": "板橋區", "vil": "溪福里", "leader": "楊秋菊", "siteaddress": "新北市板橋區金門街336巷7號", "office_address": "新北市板橋區篤行路3段玉平巷68弄15之2號(貨送新北市板橋區金門街336巷7號請先電聯里長)", "worktime": "每週六 08:00~11:00", "phone": "02-26831254"}}, {"type": "Feature", "geometry": {"type": "Point", "coordinates": [121.446223, 25.008919]}, "properties": {"dist": "板橋區", "vil": "大觀里", "leader": "何明山", "siteaddress": "新北市板橋區僑中二街92巷1號", "office_address": "新北市板橋區僑中二街92巷1號1樓", "worktime": "每週五8:00-10:30", "phone": "02-2969-1007"}}, {"type": "Feature", "geometry": {"type": "Point", "coordinates": [121.528486, 25.002587]}, "properties": {"dist": "永和區", "vil": "秀成里", "leader": "黃昰瑋", "siteaddress": "新北市永和區成功路一段93巷20弄3號1樓", "office_address": "新北市永和區成功路一段93巷20弄12號", "worktime": "每月2.4週四18:00~20:00", "phone": "02-2925-1658"}}, {"type": "Feature", "geometry": {"type": "Point", "coordinates": [121.526055, 25.002655]}, "properties": {"dist": "永和區", "vil": "秀朗里", "leader": "沈賜是", "siteaddress": "新北市永和區永亨路203號", "office_address": "新北市永和區永亨路203號", "worktime": "每月第1,3週六 08:00~10:00", "phone": "02-2925-9090"}}, {"type": "Feature", "geometry": {"type": "Point", "coordinates": [121.527238, 24.998576]}, "properties": {"dist": "永和區", "vil": "民樂里", "leader": "潘慶忠", "siteaddress": "新北市永和區成功路二段121巷9號", "office_address": "新北市永和區成功路二段121巷9號", "worktime": "每月2.4周二18:00~20:00", "phone": "02-22319635"}}, {"type": "Feature", "geometry": {"type": "Point", "coordinates": [121.527376995202, 24.995841013731]}, "properties": {"dist": "永和區", "vil": "民本里", "leader": "曹麗莉", "siteaddress": "新北市永和區成功路二段201巷8弄7號", "office_address": "新北市永和區成功路二段201巷8弄7號", "worktime": "每月第1.3周三下午12:30-14:30", "phone": "02-29483326"}}, {"type": "Feature", "geometry": {"type": "Point", "coordinates": [121.520972, 25.010514]}, "properties": {"dist": "永和區", "vil": "竹林里", "leader": "王素娥", "siteaddress": "新北市永和區豫溪街151巷9號", "office_address": "新北市永和區豫溪街151巷9號", "worktime": "每月第三週六8:00~10:00", "phone": "02-8928-2635"}}, {"type": "Feature", "geometry": {"type": "Point", "coordinates": [121.534705, 24.991615]}, "properties": {"dist": "新店區", "vil": "大鵬里", "leader": "喬天鼎", "siteaddress": "新北市新店區大鵬里中正路700巷(車道尾端)", "office_address": "新北市新店區中正路700巷26號2樓(配送、月報請聯絡喬天鼎：0968357541)", "worktime": "每週六 09:00~11:00", "phone": "02-82182338"}}, {"type": "Feature", "geometry": {"type": "Point", "coordinates": [121.525146989862, 24.997604985255]}, "properties": {"dist": "永和區", "vil": "民生里", "leader": "黃新旺", "siteaddress": "新北市永和區民生路67巷45號旁", "office_address": "新北市永和區民生路67巷45號旁", "worktime": "每月第2、4周三上午08:00~10:00", "phone": "02-29409888"}}, {"type": "Feature", "geometry": {"type": "Point", "coordinates": [121.520945, 25.00259]}, "properties": {"dist": "永和區", "vil": "永元里", "leader": "呂卓春英", "siteaddress": "新北市永和區永和區秀朗路二段38號(巡守隊崗亭)", "office_address": "新北市永和區秀朗路二段26號", "worktime": "每月第1.3週六 08:00~10:00", "phone": "02-29282712"}}, {"type": "Feature", "geometry": {"type": "Point", "coordinates": [121.519655, 25.013637]}, "properties": {"dist": "永和區", "vil": "上林里", "leader": "林維楠", "siteaddress": "新北市永和區竹林路75巷17號旁", "office_address": "新北市永和區竹林路75巷17號旁", "worktime": "每週六13:00~15:30", "phone": "02-89269859"}}, {"type": "Feature", "geometry": {"type": "Point", "coordinates": [121.53288197775, 24.990180002055]}, "properties": {"dist": "新店區", "vil": "忠孝里", "leader": "游皓麟", "siteaddress": "新店區中正路663巷7弄15號", "office_address": "新店區中正路663巷7弄15號", "worktime": "每月第4週四08:00-10:00", "phone": "0222186010"}}, {"type": "Feature", "geometry": {"type": "Point", "coordinates": [121.525530964846, 24.994303982237]}, "properties": {"dist": "中和區", "vil": "秀義里", "leader": "張文亮", "siteaddress": "中和區秀朗路三段70巷31號", "office_address": "中和區秀朗路三段70巷31號", "worktime": "每月第2.4週六8:00~10:00", "phone": "02-29430058"}}, {"type": "Feature", "geometry": {"type": "Point", "coordinates": [121.523793, 24.995958]}, "properties": {"dist": "中和區", "vil": "秀福里", "leader": "林江西", "siteaddress": "新北市中和區秀朗路三段10巷37弄8號", "office_address": "新北市中和區秀朗路三段10巷37弄8號", "worktime": "每月第2、4週六 07:30~09:30", "phone": "02-29464757"}}, {"type": "Feature", "geometry": {"type": "Point", "coordinates": [121.519697, 25.002724]}, "properties": {"dist": "永和區", "vil": "得和里", "leader": "蔡琇花", "siteaddress": "新北市永和區秀朗路一段203巷口", "office_address": "新北市永和區秀朗路一段209巷7號", "worktime": "每月第1.3週六08:00~10:00", "phone": "02-22312735"}}, {"type": "Feature", "geometry": {"type": "Point", "coordinates": [121.518063, 25.011465]}, "properties": {"dist": "永和區", "vil": "永興里", "leader": "陳錦松", "siteaddress": "新北市永和區竹林路124巷30號", "office_address": "新北市永和區竹林路124巷30號", "worktime": "每月隔週週四13:00--15:00", "phone": "02-29270057"}}, {"type": "Feature", "geometry": {"type": "Point", "coordinates": [121.526829, 24.991309]}, "properties": {"dist": "中和區", "vil": "秀景里", "leader": "李淙河", "siteaddress": "新北市中和區成功路97巷7號", "office_address": "新北市中和區成功路72號", "worktime": "每月第2、4週六 07:30~10:00", "phone": "02-29424281"}}, {"type": "Feature", "geometry": {"type": "Point", "coordinates": [121.517628, 25.004222]}, "properties": {"dist": "永和區", "vil": "福和里", "leader": "王淑美", "siteaddress": "新北市永和區永貞路126號", "office_address": "新北市永和區永貞路115號", "worktime": "每月第2,4週六 08:30~10:00", "phone": "02-2921-5050"}}, {"type": "Feature", "geometry": {"type": "Point", "coordinates": [121.516567, 25.011066]}, "properties": {"dist": "永和區", "vil": "正興里", "leader": "江貴滿", "siteaddress": "新北市永和區中興街10巷29號", "office_address": "新北市永和區豫溪街57巷11弄2號", "worktime": "每月第1.3週六13:00~15:30", "phone": "02-29281463"}}, {"type": "Feature", "geometry": {"type": "Point", "coordinates": [121.51615, 25.012606]}, "properties": {"dist": "永和區", "vil": "中興里", "leader": "林東誼", "siteaddress": "新北市永和區復興街32巷14號", "office_address": "新北市永和區復興街88號", "worktime": "每週一 14:00~15:30", "phone": ""}}, {"type": "Feature", "geometry": {"type": "Point", "coordinates": [121.523301, 24.992455]}, "properties": {"dist": "中和區", "vil": "秀成里", "leader": "吳金松", "siteaddress": "新北市中和區大智街109巷16號", "office_address": "新北市中和區大智街109巷16號", "worktime": "每月第1、3週六 08:30~10:30", "phone": "02-29475348"}}, {"type": "Feature", "geometry": {"type": "Point", "coordinates": [121.656017, 25.064458]}, "properties": {"dist": "汐止區", "vil": "復興里", "leader": "蕭素真", "siteaddress": "新北市汐止區復興路1-1號(活動中心)", "office_address": "新北市汐止區龍安路38號7樓之6 (貨送資收點/先電里長)", "worktime": "每月第2, 4 週六 09:00-12:00", "phone": "(02)2642-6123"}}, {"type": "Feature", "geometry": {"type": "Point", "coordinates": [121.655156, 25.06652]}, "properties": {"dist": "汐止區", "vil": "大同里", "leader": "黃翠華", "siteaddress": "新北市汐止區大同路二段296巷5號", "office_address": "新北市汐止區大同路二段312巷2號2樓", "worktime": "每周四09:00~12:00", "phone": "02-26415209"}}, {"type": "Feature", "geometry": {"type": "Point", "coordinates": [121.656284, 25.068557]}, "properties": {"dist": "汐止區", "vil": "禮門里", "leader": "李朝發", "siteaddress": "新北市汐止區禮門里中正路285號(禮門里活動中心)", "office_address": "新北市汐止區大同路二段372巷12號( 送貨: 汐止中正路298號,活動中心, 請先連絡里長)", "worktime": "每週二 08:30~12:00", "phone": "86923954(里長太太半年報)"}}, {"type": "Feature", "geometry": {"type": "Point", "coordinates": [121.654689, 25.069804]}, "properties": {"dist": "汐止區", "vil": "江北里", "leader": "謝祚敏", "siteaddress": "新北市汐止區汐萬路1段81號", "office_address": "新北市汐止區長江街13巷5弄2號1樓(貨送汐萬路1段81號/先電聯里長)", "worktime": "每週一 08:30-12:00", "phone": "02-2641-3009"}}, {"type": "Feature", "geometry": {"type": "Point", "coordinates": [121.633834038691, 25.068632981306]}, "properties": {"dist": "汐止區", "vil": "湖光里", "leader": "杜金泉", "siteaddress": "新北市汐止區康寧街520號-1(活動中心)", "office_address": "新北市汐止區康寧街520號-1(活動中心)", "worktime": "每周五上午08:00-12:00", "phone": "02-26922789"}}, {"type": "Feature", "geometry": {"type": "Point", "coordinates": [121.631893, 25.069376]}, "properties": {"dist": "汐止區", "vil": "金龍里", "leader": "陳美麗", "siteaddress": "新北市汐止區湖前街31巷2弄2號", "office_address": "新北市汐止區湖前街31巷2弄2號", "worktime": "每週六 07:30~12:00", "phone": "02-26925688"}}, {"type": "Feature", "geometry": {"type": "Point", "coordinates": [121.62527, 25.067863]}, "properties": {"dist": "汐止區", "vil": "北山里", "leader": "林徵熊", "siteaddress": "新北市汐止區明峰街298巷1-2號(北山里活動中心)", "office_address": "新北市汐止區康寧街141巷5號 (貨送:汐止區明峰街298巷1-2號/先電聯里長)", "worktime": "每週六 08:00~13:00", "phone": "02-26926255"}}, {"type": "Feature", "geometry": {"type": "Point", "coordinates": [121.762061429295, 25.097064300547]}, "properties": {"dist": "瑞芳區", "vil": "上天里", "leader": "林瑞明", "siteaddress": "新北市瑞芳區粗坑口路1巷2-2號", "office_address": "新北市瑞芳區粗坑口路1巷2-2號", "worktime": "每月第1週二09:00-11:00", "phone": "02-24587046"}}, {"type": "Feature", "geometry": {"type": "Point", "coordinates": [121.787999, 25.106583]}, "properties": {"dist": "瑞芳區", "vil": "傑魚里", "leader": "周清標", "siteaddress": "新北市瑞芳區傑魚坑路245巷2號", "office_address": "新北市瑞芳區傑魚坑路195號", "worktime": "每月第3週一 08:30~11:00", "phone": "02-24973228"}}, {"type": "Feature", "geometry": {"type": "Point", "coordinates": [121.807653, 25.105215]}, "properties": {"dist": "瑞芳區", "vil": "爪峯里", "leader": "簡明慧", "siteaddress": "新北市瑞芳區三爪子坑路114號及旁邊空地", "office_address": "新北市瑞芳區三爪子坑路69巷 1號", "worktime": "每月第2、4週六 09:00~12:00", "phone": "02-24061505"}}, {"type": "Feature", "geometry": {"type": "Point", "coordinates": [121.804286, 25.106322]}, "properties": {"dist": "瑞芳區", "vil": "東和里", "leader": "周樹木", "siteaddress": "新北市瑞芳區中山路20號(東和里活動中心)", "office_address": "新北市瑞芳區中山路55號2樓", "worktime": "每月2、4週六 08:30~11:00", "phone": "02-24972704"}}, {"type": "Feature", "geometry": {"type": "Point", "coordinates": [121.807696, 25.106172]}, "properties": {"dist": "瑞芳區", "vil": "龍興里", "leader": "黃錫基", "siteaddress": "新北市瑞芳區民權街10號", "office_address": "新北市瑞芳區龍興里民權街鐵路巷5號", "worktime": "每月第4週日9:00-11:00", "phone": "02-24972408"}}, {"type": "Feature", "geometry": {"type": "Point", "coordinates": [121.803802, 25.108848]}, "properties": {"dist": "瑞芳區", "vil": "龍川里", "leader": "賴鴻春", "siteaddress": "新北市瑞芳區明燈路三段109號", "office_address": "新北市瑞芳區龍川里明燈路三段109號", "worktime": "每月第 3週六 10:00~11:30", "phone": "02-24966362"}}, {"type": "Feature", "geometry": {"type": "Point", "coordinates": [121.814248, 25.106395]}, "properties": {"dist": "瑞芳區", "vil": "新峰里", "leader": "黃茂峻", "siteaddress": "新北市瑞芳區三爪子坑13巷28號前", "office_address": "新北市瑞芳區三爪子坑29巷58號( 送貨:瑞芳區三爪子坑13巷75號, 胡班長 0911-908152)", "worktime": "每月第1週六 08:00~11:00", "phone": "02-24977059"}}, {"type": "Feature", "geometry": {"type": "Point", "coordinates": [121.806648, 25.109542]}, "properties": {"dist": "瑞芳區", "vil": "龍潭里", "leader": "陳淑霞", "siteaddress": "新北市瑞芳區瑞芳街23號", "office_address": "新北市瑞芳區中正路75號2樓(送件地址:瑞芳區瑞芳街23號,陳淑霞0932-071274)", "worktime": "每月第1、3週六 8:00~10:30", "phone": "02-24979587"}}, {"type": "Feature", "geometry": {"type": "Point", "coordinates": [121.819978, 25.10703]}, "properties": {"dist": "瑞芳區", "vil": "柑坪里", "leader": "許銘仁", "siteaddress": "新北市瑞芳區明燈路1段82號", "office_address": "新北市瑞芳區明燈路1段125號", "worktime": "每月單週五 09:00-11:00", "phone": "02-2497-4461"}}, {"type": "Feature", "geometry": {"type": "Point", "coordinates": [121.396654, 25.14575]}, "properties": {"dist": "八里區", "vil": "訊塘里", "leader": "張金貴", "siteaddress": "新北市八里區中山路二段445號對面", "office_address": "新北市八里區中山路二段472號4樓", "worktime": "每月第1週六 07:00~11:30", "phone": "02-26192178"}}, {"type": "Feature", "geometry": {"type": "Point", "coordinates": [121.368816, 25.069237]}, "properties": {"dist": "林口區", "vil": "麗林里", "leader": "薛純良", "siteaddress": "新北市林口區公園路46號旁(土地公廟廣場)", "office_address": "新北市林口區文化二路1段68巷8號6樓之6", "worktime": "每月第2、4週六 08:00~11:00", "phone": "02-26081356"}}, {"type": "Feature", "geometry": {"type": "Point", "coordinates": [121.374175, 25.07432]}, "properties": {"dist": "林口區", "vil": "仁愛里", "leader": "劉鴻橋", "siteaddress": "新北市林口區文化一路一段137號(仁愛里市民活動中心旁)", "office_address": "新北市林口區文化一路一段83巷14弄50號 (請先電話連絡里長)", "worktime": "每月第1、3週六 08:00~11:00", "phone": "2609-0428"}}, {"type": "Feature", "geometry": {"type": "Point", "coordinates": [121.373871, 25.068857]}, "properties": {"dist": "林口區", "vil": "麗園里", "leader": "黃添福", "siteaddress": "新北市林口區忠孝路569巷17號", "office_address": "新北市林口區忠孝路581巷7號之1", "worktime": "每月第2、4周六 08:30~11:00", "phone": "02-2600-1457"}}, {"type": "Feature", "geometry": {"type": "Point", "coordinates": [121.4143806, 25.159883]}, "properties": {"dist": "八里區", "vil": "埤頭里", "leader": "曾志國", "siteaddress": "新北市八里區中山路一段109號1樓", "office_address": "新北市八里區中山路一段109號1樓", "worktime": "每月第3周六08:30-11:00", "phone": "02-26102602"}}, {"type": "Feature", "geometry": {"type": "Point", "coordinates": [121.421982, 25.158984]}, "properties": {"dist": "八里區", "vil": "大崁里", "leader": "林秀真", "siteaddress": "新北市八里區中山路一段21號 (大崁老人活動中心)", "office_address": "新北市八里區中山路1段21號", "worktime": "每月最後1週週六 08:30~11:30", "phone": "02-8630-1926"}}, {"type": "Feature", "geometry": {"type": "Point", "coordinates": [121.420060780628, 25.185644695737]}, "properties": {"dist": "淡水區", "vil": "沙崙里", "leader": "彭瑀筑", "siteaddress": "新北市淡水區淡海路231巷6號1樓", "office_address": "新北市淡水區淡海路231巷6號1樓", "worktime": "每月第2.4週一17:30-19:30", "phone": ""}}, {"type": "Feature", "geometry": {"type": "Point", "coordinates": [121.424119, 25.179044]}, "properties": {"dist": "淡水區", "vil": "油車里", "leader": "唐儷樺", "siteaddress": "新北市淡水區淡海路32號(站牌:淡江新村)(淡江華城對面)", "office_address": "新北市淡水區沙崙路156巷18號3樓", "worktime": "每月第1.3週六0800-1100", "phone": "02-2805-9282"}}, {"type": "Feature", "geometry": {"type": "Point", "coordinates": [121.424279, 25.185593]}, "properties": {"dist": "淡水區", "vil": "大庄里", "leader": "林建仲", "siteaddress": "新北市淡水區沙崙路201巷26號", "office_address": "新北市淡水區沙崙路201巷26號", "worktime": "每週日 09:00~11:30", "phone": "02-28053356"}}, {"type": "Feature", "geometry": {"type": "Point", "coordinates": [121.4404435, 25.1694686]}, "properties": {"dist": "淡水區", "vil": "義山里", "leader": "楊永麗", "siteaddress": "新北市淡水區下圭柔山279-36地號(義山福德宮)", "office_address": "新北市淡水區下圭柔山279-36地號(義山福德宮)", "worktime": "每月最末周二上午09:00-11:00(遇雨暫停)", "phone": "02-26228812"}}, {"type": "Feature", "geometry": {"type": "Point", "coordinates": [121.438609, 25.178413]}, "properties": {"dist": "淡水區", "vil": "新民里", "leader": "林聖傑", "siteaddress": "新北市淡水區新民街120巷60號旁(新民公園旁)", "office_address": "新北市淡水區新民街120巷45弄6號", "worktime": "每月第2, 4週一 13:00~15:00", "phone": "02-8631-0077"}}, {"type": "Feature", "geometry": {"type": "Point", "coordinates": [121.442911, 25.171318]}, "properties": {"dist": "淡水區", "vil": "長庚里", "leader": "陳崇煌", "siteaddress": "新北市淡水區中山路72巷1弄10號1樓(長庚活動中心)", "office_address": "新北市淡水區中山路72巷1弄10號1樓", "worktime": "每週五 08:00~11:00", "phone": "0933-119320"}}, {"type": "Feature", "geometry": {"type": "Point", "coordinates": [121.442472, 25.175325]}, "properties": {"dist": "淡水區", "vil": "水碓里", "leader": "孫麗明", "siteaddress": "新北市淡水區大仁街23號", "office_address": "新北市淡水區大仁街23號", "worktime": "每月單週週六08:00-12:00", "phone": "(02)2621-3948"}}, {"type": "Feature", "geometry": {"type": "Point", "coordinates": [121.442585, 25.177643]}, "properties": {"dist": "淡水區", "vil": "新義里", "leader": "盧寶全", "siteaddress": "新北市淡水區中山北路一段149巷6-4號1樓", "office_address": "新北市淡水區中山北路一段149巷6-4號1樓", "worktime": "每週五 12:00~15:00", "phone": "02-26220282"}}, {"type": "Feature", "geometry": {"type": "Point", "coordinates": [121.441576, 25.181642]}, "properties": {"dist": "淡水區", "vil": "新興里", "leader": "吳錦泉", "siteaddress": "新北市淡水區新春街138號", "office_address": "新北市淡水區新春街138號", "worktime": "每月2,4週四 09:00~11:00", "phone": "02-26205051"}}, {"type": "Feature", "geometry": {"type": "Point", "coordinates": [121.433341, 25.07285]}, "properties": {"dist": "五股區", "vil": "水碓里", "leader": "邱江永", "siteaddress": "新北市五股區水碓路28號旁", "office_address": "新北市五股區水碓九路108號", "worktime": "每週二 19:00~21:00", "phone": "02-22933092"}}, {"type": "Feature", "geometry": {"type": "Point", "coordinates": [121.449223, 25.129866]}, "properties": {"dist": "八里區", "vil": "龍源里", "leader": "林俊德", "siteaddress": "新北市八里區龍米路一段223號龍米市民活動中心", "office_address": "新北市八里區龍米路1段235號(送貨：龍行一街底停車場(18號旁)先聯絡里長0925325615)", "worktime": "每月第2週六 08:30~11:00", "phone": "02-26183541"}}, {"type": "Feature", "geometry": {"type": "Point", "coordinates": [121.447114, 25.169414]}, "properties": {"dist": "淡水區", "vil": "幸福里", "leader": "李佳倩", "siteaddress": "新北市淡水區學府路51巷3弄10號", "office_address": "新北市淡水區學府路51巷3弄10號", "worktime": "每月第1、3週六13:00~15:00", "phone": "02-26251855"}}, {"type": "Feature", "geometry": {"type": "Point", "coordinates": [121.442022, 25.090513]}, "properties": {"dist": "五股區", "vil": "成泰里", "leader": "潘明宏", "siteaddress": "新北市五股區御史路1-5號", "office_address": "新北市五股區御史路1-5號", "worktime": "每週一 18:30~20:30", "phone": "02-22937615"}}, {"type": "Feature", "geometry": {"type": "Point", "coordinates": [121.460183, 25.13521]}, "properties": {"dist": "淡水區", "vil": "民權里", "leader": "江瑟媚", "siteaddress": "新北市淡水區民權路179巷12號", "office_address": "新北市淡水區民族路112巷32號", "worktime": "每月1.3週五08:30~10:30", "phone": "02-28087612"}}, {"type": "Feature", "geometry": {"type": "Point", "coordinates": [121.45398, 25.162922]}, "properties": {"dist": "淡水區", "vil": "竿蓁里", "leader": "王信崇", "siteaddress": "新北市淡水區竿蓁二街36巷2號1樓", "office_address": "新北市淡水區竿蓁二街36巷2號1樓", "worktime": "每週四 08:30~10:30(逢雨暫停)", "phone": "02-26221769"}}, {"type": "Feature", "geometry": {"type": "Point", "coordinates": [121.453376, 25.112178]}, "properties": {"dist": "五股區", "vil": "集福里", "leader": "葉玉芳", "siteaddress": "新北市五股區孝義路55巷10號(活動中心)", "office_address": "新北市五股區孝義路47巷1號(先電連里長)", "worktime": "每月第4週日13:00~15:00", "phone": "0952-055803"}}, {"type": "Feature", "geometry": {"type": "Point", "coordinates": [121.452596, 25.169782]}, "properties": {"dist": "淡水區", "vil": "鄧公里", "leader": "邱美津", "siteaddress": "新北市淡水區鄧公路30巷2號", "office_address": "新北市淡水區鄧公路35巷30號(配送地址：淡水區鄧公路30巷32弄25號/邱鎮光0935646347)", "worktime": "每月第1,3週六13:00~15:00", "phone": "02-26252100"}}, {"type": "Feature", "geometry": {"type": "Point", "coordinates": [121.4495846, 25.1731631]}, "properties": {"dist": "淡水區", "vil": "學府里", "leader": "林文成", "siteaddress": "新北市淡水區英專路212號", "office_address": "新北市淡水區英專路212號", "worktime": "每月2.4週一09:00~11:00", "phone": "02-2625-1680"}}, {"type": "Feature", "geometry": {"type": "Point", "coordinates": [121.461423, 25.156289]}, "properties": {"dist": "淡水區", "vil": "八勢里", "leader": "沈欽裕", "siteaddress": "新北市淡水區八勢一街21號", "office_address": "新北市淡水區中正東路2段41號", "worktime": "每月第1、3週六 08:00~10:00", "phone": "02-88096781"}}, {"type": "Feature", "geometry": {"type": "Point", "coordinates": [121.46495, 25.138763]}, "properties": {"dist": "淡水區", "vil": "民生里", "leader": "陳李明緣", "siteaddress": "新北市淡水區民生路27號旁", "office_address": "新北市淡水區民生路113巷1弄70號 ; 里長家:淡水區樹梅坑6號之3(寄件請寄里長家)", "worktime": "每月雙週週五 08:00~10:30", "phone": "02-28084569"}}, {"type": "Feature", "geometry": {"type": "Point", "coordinates": [121.463222997944, 25.127532992106]}, "properties": {"dist": "淡水區", "vil": "福德里", "leader": "吳穎綸", "siteaddress": "新北市淡水區自強路58號", "office_address": "新北市淡水區自強路58號", "worktime": "每周一上午10:00~12:00(1.3周里辦 2.4周活動中心)", "phone": "2809-1123"}}, {"type": "Feature", "geometry": {"type": "Point", "coordinates": [121.493413020621, 25.083767010404]}, "properties": {"dist": "三重區", "vil": "五華里", "leader": "楊志評", "siteaddress": "新北市三重區五華街75巷17號(五華公園)", "office_address": "新北市三重區五華街75巷17號(五華公園)", "worktime": "每月隔周六上午09:00-11:00", "phone": "02-29875481"}}, {"type": "Feature", "geometry": {"type": "Point", "coordinates": [121.493472, 25.082025]}, "properties": {"dist": "三重區", "vil": "五福里", "leader": "李福山", "siteaddress": "新北市三重區自強路五段66號(原碧華國中旁)", "office_address": "新北市三重區仁愛街377巷41號", "worktime": "每週六 09:00~11:00", "phone": "02-29886880"}}, {"type": "Feature", "geometry": {"type": "Point", "coordinates": [121.480884673763, 25.185609187552]}, "properties": {"dist": "淡水區", "vil": "水源里", "leader": "李貴鐘", "siteaddress": "新北市淡水區北新路二段77-7號", "office_address": "新北市淡水區北新路二段77-7號", "worktime": "每月第1、3周二上午09:00-11:00", "phone": "02-26224235"}}, {"type": "Feature", "geometry": {"type": "Point", "coordinates": [121.501016, 25.075868]}, "properties": {"dist": "三重區", "vil": "順德里", "leader": "李鴻志", "siteaddress": "新北市三重區河邊北街256巷28號對面", "office_address": "新北市三重區河邊北街256巷28號", "worktime": "每月第1、3週一 16:00~18:00", "phone": "02-29786144(月報王's)"}}, {"type": "Feature", "geometry": {"type": "Point", "coordinates": [121.470342, 25.168513]}, "properties": {"dist": "淡水區", "vil": "樹興里", "leader": "許秋芳", "siteaddress": "新北市淡水區樹林口42之3號", "office_address": "新北市淡水區樹林口42之3號(茶籽油產銷班) (學府路25號許太太)", "worktime": "每週一08:00~09:00樹林口點", "phone": "02-86260291"}}, {"type": "Feature", "geometry": {"type": "Point", "coordinates": [121.501154965489, 25.075111018994]}, "properties": {"dist": "三重區", "vil": "承德里", "leader": "吳政權", "siteaddress": "新北市三重區龍門路274巷36號", "office_address": "新北市三重區龍門路274巷36號", "worktime": "每月第1.3週五16:30~18:30", "phone": "02-29754164"}}, {"type": "Feature", "geometry": {"type": "Point", "coordinates": [121.497498, 25.075318]}, "properties": {"dist": "三重區", "vil": "崇德里", "leader": "吳芳明", "siteaddress": "新北市三重區仁福街62號對面", "office_address": "新北市三重區仁福街64巷22號", "worktime": "每週四 8:30~10:30", "phone": "02-89726351"}}, {"type": "Feature", "geometry": {"type": "Point", "coordinates": [121.497685, 25.074783]}, "properties": {"dist": "三重區", "vil": "瑞德里", "leader": "陳仕宏", "siteaddress": "新北市三重區仁福街62號對面廣場", "office_address": "新北市三重區仁昌街83號", "worktime": "每周一09:00~11:00", "phone": "02-29755360"}}, {"type": "Feature", "geometry": {"type": "Point", "coordinates": [121.492487, 25.077631]}, "properties": {"dist": "三重區", "vil": "溪美里", "leader": "葉仁德", "siteaddress": "新北市三重區仁政街82號", "office_address": "新北市三重區仁政街82號", "worktime": "每週四08：30~11：00", "phone": "02-89850578"}}, {"type": "Feature", "geometry": {"type": "Point", "coordinates": [121.485556, 25.081473]}, "properties": {"dist": "三重區", "vil": "慈惠里", "leader": "蔡清德", "siteaddress": "新北市三重區仁愛街580巷邊公園", "office_address": "新北市三重區溪尾街218巷40號", "worktime": "每週二、週五 09:00~11:00", "phone": "02-22862522"}}, {"type": "Feature", "geometry": {"type": "Point", "coordinates": [121.478324, 25.088101]}, "properties": {"dist": "蘆洲區", "vil": "信義里", "leader": "郭騰芳", "siteaddress": "新北市蘆洲區信義路292巷19號", "office_address": "新北市蘆洲區復興路176號", "worktime": "每週六 09:00-10:30", "phone": "02-22828721"}}, {"type": "Feature", "geometry": {"type": "Point", "coordinates": [121.493262321579, 25.072955301995]}, "properties": {"dist": "三重區", "vil": "尚德里", "leader": "許朝順", "siteaddress": "新北市三重區三和路三段99號(巡守亭對面)", "office_address": "新北市三重區三和路三段99號(巡守亭對面)", "worktime": "每周六上午09:00-10:50", "phone": "02-29830121"}}, {"type": "Feature", "geometry": {"type": "Point", "coordinates": [121.474969, 25.088301]}, "properties": {"dist": "蘆洲區", "vil": "仁愛里", "leader": "林宏典", "siteaddress": "新北市蘆洲區民權路82巷5弄6號", "office_address": "新北市蘆洲區民權路82巷5弄6號", "worktime": "每週六 08:00~10:00", "phone": "02-28477885"}}, {"type": "Feature", "geometry": {"type": "Point", "coordinates": [121.476848, 25.085753]}, "properties": {"dist": "蘆洲區", "vil": "鷺江里", "leader": "侯凱文", "siteaddress": "新北市蘆洲區民權路26號旁", "office_address": "新北市蘆洲區信義路349號", "worktime": "每月2、4週六 08:30~09:30", "phone": ""}}, {"type": "Feature", "geometry": {"type": "Point", "coordinates": [121.490801, 25.072711]}, "properties": {"dist": "三重區", "vil": "厚德里", "leader": "陳榮楠", "siteaddress": "新北市三重區三和路三段170巷49號", "office_address": "新北市三重區三和路三段170巷11號", "worktime": "每週六 09:00~11:00", "phone": "02-29822008"}}, {"type": "Feature", "geometry": {"type": "Point", "coordinates": [121.677571, 25.167856]}, "properties": {"dist": "萬里區", "vil": "中幅里", "leader": "謝嘉陽", "siteaddress": "新北市萬里區中福路112號", "office_address": "新北市萬里區中福路112號", "worktime": "每周六上午08:30-10:30", "phone": "02-24924806"}}, {"type": "Feature", "geometry": {"type": "Point", "coordinates": [121.684295, 25.177167]}, "properties": {"dist": "萬里區", "vil": "北基里", "leader": "鄧月嬌", "siteaddress": "新北市萬里區忠六街口", "office_address": "新北市萬里區孝五街4號B1", "worktime": "每隔週六 08:00~11:00", "phone": "02-24926225"}}, {"type": "Feature", "geometry": {"type": "Point", "coordinates": [121.688704, 25.177865]}, "properties": {"dist": "萬里區", "vil": "萬里里", "leader": "王傑倫", "siteaddress": "新北市萬里區瑪鋉路123號1樓", "office_address": "新北市萬里區萬里里瑪鋉路192號", "worktime": "每週六 08:30~10:30", "phone": "02-24928845"}}, {"type": "Feature", "geometry": {"type": "Point", "coordinates": [121.676268, 25.200711]}, "properties": {"dist": "萬里區", "vil": "龜吼里", "leader": "曾基成", "siteaddress": "新北市萬里區玉田路45號之3( 活動中心)", "office_address": "新北市萬里區龜吼里石角路39號(送貨: 玉田路45號之3 活動中心, 請先連絡里長)", "worktime": "每週六 09:00~11:00", "phone": "02-24926539"}}, {"type": "Feature", "geometry": {"type": "Point", "coordinates": [121.642452, 25.215759]}, "properties": {"dist": "萬里區", "vil": "大鵬里", "leader": "李建才", "siteaddress": "新北市萬里區加投路198號後方空地", "office_address": "新北市萬里區大鵬里萬里加投198號", "worktime": "每月2.4週五 08:30~10:30", "phone": "02-24983699"}}, {"type": "Feature", "geometry": {"type": "Point", "coordinates": [121.633661, 25.21662]}, "properties": {"dist": "金山區", "vil": "五湖里", "leader": "李進發", "siteaddress": "新北市金山區中山路73-6號", "office_address": "新北市金山區中山路73-6號  (找人請洽73-3)店面", "worktime": "每月第4週六 09:00~12:00", "phone": "02-24983247"}}, {"type": "Feature", "geometry": {"type": "Point", "coordinates": [121.646701, 25.222911]}, "properties": {"dist": "金山區", "vil": "豐漁里", "leader": "許吉興", "siteaddress": "新北市金山區民生路190號", "office_address": "新北市金山區民生路134號", "worktime": "每月第1週四 09:00~11:00", "phone": "02-24987836"}}, {"type": "Feature", "geometry": {"type": "Point", "coordinates": [121.640438, 25.222058]}, "properties": {"dist": "金山區", "vil": "大同里", "leader": "許振煌", "siteaddress": "新北市金山區溫泉路中山公園涼亭(公廁旁)", "office_address": "新北市金山區福德街16巷6號", "worktime": "每月第3週六 09:00~11:00", "phone": "02-24989008"}}, {"type": "Feature", "geometry": {"type": "Point", "coordinates": [121.635621, 25.221393]}, "properties": {"dist": "金山區", "vil": "金美里", "leader": "蔡龍豪", "siteaddress": "新北市金山區仁愛路19號對面空地", "office_address": "新北市金山區金美里中山路新市場7之1號", "worktime": "每月第3週一 13:00~15:00", "phone": "02-2498-8279"}}, {"type": "Feature", "geometry": {"type": "Point", "coordinates": [121.634894014166, 25.222745000023]}, "properties": {"dist": "金山區", "vil": "美田里", "leader": "何文發", "siteaddress": "新北市金山區四維路25號旁空地", "office_address": "新北市金山區四維路25號旁空地", "worktime": "每月第一周六08:30~10:30", "phone": ""}}, {"type": "Feature", "geometry": {"type": "Point", "coordinates": [121.64985, 25.229533]}, "properties": {"dist": "金山區", "vil": "磺港里", "leader": "許明熙", "siteaddress": "新北市金山區磺港路南屏公共浴室旁車庫", "office_address": "新北市金山區磺港路36號", "worktime": "每月最後1週週五09:00~11:00", "phone": "02-24081714"}}, {"type": "Feature", "geometry": {"type": "Point", "coordinates": [121.614507, 25.223296]}, "properties": {"dist": "金山區", "vil": "六股里", "leader": "鐘鼎平", "siteaddress": "新北市金山區頂六股3號(六股市民活動中心)", "office_address": "新北市金山區下六股18號", "worktime": "每月第2週一 09:00-11:00", "phone": "02-2498-5731"}}, {"type": "Feature", "geometry": {"type": "Point", "coordinates": [121.453551, 25.232535]}, "properties": {"dist": "淡水區", "vil": "賢孝里", "leader": "葉振昌", "siteaddress": "新北市淡水區淡金路五段26號", "office_address": "新北市淡水區淡金路五段26號", "worktime": "每週六 08:00~11:00", "phone": "02-28010288"}}, {"type": "Feature", "geometry": {"type": "Point", "coordinates": [121.451516, 25.218642]}, "properties": {"dist": "淡水區", "vil": "興仁里", "leader": "盧仁澤", "siteaddress": "新北市淡水區興仁路95號(活動中心)", "office_address": "新北市淡水區興仁路125號", "worktime": "每月第2, 4 週六09:00-11:00", "phone": "02-2621-2461"}}, {"type": "Feature", "geometry": {"type": "Point", "coordinates": [121.460658, 25.237656]}, "properties": {"dist": "淡水區", "vil": "屯山里", "leader": "謝炳坤", "siteaddress": "新北市淡水區淡石頭厝9-3號", "office_address": "新北市淡水區淡石頭厝9-3號", "worktime": "每月第2、4周六07:00-11:00", "phone": "02-28013636"}}, {"type": "Feature", "geometry": {"type": "Point", "coordinates": [121.468406, 25.250105]}, "properties": {"dist": "三芝區", "vil": "後厝里", "leader": "楊秀彥", "siteaddress": "新北市三芝區北勢子20-6號", "office_address": "新北市三芝區大片頭99號(送貨: 新北市三芝區中山路一段32號, 後厝里幹事收)", "worktime": "每週六14:00~17:00", "phone": "02-26362536"}}, {"type": "Feature", "geometry": {"type": "Point", "coordinates": [121.454458, 25.198976]}, "properties": {"dist": "淡水區", "vil": "埤島里", "leader": "蔡正忠", "siteaddress": "新北市淡水區行忠路146號", "office_address": "新北市淡水區行忠路146號", "worktime": "每月1.3週日 09:00~11:00", "phone": "02-2621-3086"}}, {"type": "Feature", "geometry": {"type": "Point", "coordinates": [121.448544, 25.179485]}, "properties": {"dist": "淡水區", "vil": "正德里", "leader": "黃俊雄", "siteaddress": "新北市淡水區北新路141巷27號", "office_address": "新北市淡水區北新路141巷27號", "worktime": "每週一19:00-21:00, 每週二09:00-11:00", "phone": "02-2625-0849"}}, {"type": "Feature", "geometry": {"type": "Point", "coordinates": [121.463751, 25.204782]}, "properties": {"dist": "淡水區", "vil": "忠山里", "leader": "潘炳丁", "siteaddress": "新北市淡水區奎柔山路413號", "office_address": "新北市淡水區相公山1號", "worktime": "每月第1、3週六8:00~11:00", "phone": "02-26210658"}}, {"type": "Feature", "geometry": {"type": "Point", "coordinates": [121.484924, 25.229482]}, "properties": {"dist": "淡水區", "vil": "中和里", "leader": "王文輝", "siteaddress": "新北市淡水區小中寮19-7號", "office_address": "新北市淡水區小中寮12-1號", "worktime": "每月第2, 4週六 09:00-12:00", "phone": "02-2801-3232"}}, {"type": "Feature", "geometry": {"type": "Point", "coordinates": [121.47163, 25.197896]}, "properties": {"dist": "淡水區", "vil": "忠寮里", "leader": "蔣耿南", "siteaddress": "新北市淡水區破瓦厝子3號", "office_address": "新北市淡水區破瓦厝子3號", "worktime": "每月第2、4週六08:30~10:30", "phone": "02-26223585"}}, {"type": "Feature", "geometry": {"type": "Point", "coordinates": [121.451836, 25.18009]}, "properties": {"dist": "淡水區", "vil": "北投里", "leader": "張麗卿", "siteaddress": "新北市淡水區北新路223號旁土地公廟", "office_address": "新北市淡水區北新路一段163號", "worktime": "每月第2、4週六09:00~11:00", "phone": "02-26205789"}}, {"type": "Feature", "geometry": {"type": "Point", "coordinates": [121.591317, 25.237665]}, "properties": {"dist": "金山區", "vil": "兩湖里", "leader": "張金火", "siteaddress": "新北市金山區倒照湖33之2號", "office_address": "新北市金山區倒照湖33之2號", "worktime": "每月第4週六 09:00~11:00", "phone": "02-24986452"}}, {"type": "Feature", "geometry": {"type": "Point", "coordinates": [121.602082, 25.219916]}, "properties": {"dist": "金山區", "vil": "重和里", "leader": "賴蔡標", "siteaddress": "新北市金山區六股林口29號(重和里辦公處)", "office_address": "新北市金山區六股林口29號", "worktime": "每月第2週六 09:00~11:00", "phone": "02-24080640"}}, {"type": "Feature", "geometry": {"type": "Point", "coordinates": [121.619902, 25.230899]}, "properties": {"dist": "金山區", "vil": "三界里", "leader": "許添坤", "siteaddress": "新北市金山區三界壇路三福宮前廣場", "office_address": "新北市金山區三界壇路101-1號", "worktime": "每月第2週四 08:00~10:00", "phone": "02-24982206"}}, {"type": "Feature", "geometry": {"type": "Point", "coordinates": [121.630623, 25.258251]}, "properties": {"dist": "金山區", "vil": "永興里", "leader": "許瑞林", "siteaddress": "新北市金山區跳石17號", "office_address": "新北市金山區跳石17號金山區中正路33號(通訊)", "worktime": "每月第1週六 9:00~11:00", "phone": "02-24987518"}}, {"type": "Feature", "geometry": {"type": "Point", "coordinates": [121.625369, 25.228497]}, "properties": {"dist": "金山區", "vil": "清泉里", "leader": "陳麗蘭", "siteaddress": "新北市金山區三界壇路83號後面空地", "office_address": "新北市金山區三界壇路30號", "worktime": "每月第1週一 09:00~11:00", "phone": "02-24982619"}}, {"type": "Feature", "geometry": {"type": "Point", "coordinates": [121.631936040536, 25.238242007437]}, "properties": {"dist": "金山區", "vil": "萬壽里", "leader": "劉正行", "siteaddress": "新北市金山區海興路116號", "office_address": "新北市金山區海興路116號", "worktime": "每月第三週六9:00~11:00", "phone": "02-24984126"}}]}