{"type": "FeatureCollection", "features": [{"type": "Feature", "geometry": {"type": "Point", "coordinates": [121.43959, 25.033468]}, "properties": {"point_sid": 659, "dist": "新莊區", "vil": "營盤里", "point_name": "中正路462號", "point_type_primary": "臨停清運點", "point_type_summary": "臨停清運點、臨停清運點", "schedule_summary": "08:02；17:31", "source_type_codes": "9,9"}}, {"type": "Feature", "geometry": {"type": "Point", "coordinates": [121.439194, 25.033405]}, "properties": {"point_sid": 11108, "dist": "新莊區", "vil": "營盤里", "point_name": "中正路470號", "point_type_primary": "臨停清運點", "point_type_summary": "臨停清運點、臨停清運點", "schedule_summary": "08:02；17:31", "source_type_codes": "9,9"}}, {"type": "Feature", "geometry": {"type": "Point", "coordinates": [121.438759, 25.033325]}, "properties": {"point_sid": 7354, "dist": "新莊區", "vil": "營盤里", "point_name": "中正路480號", "point_type_primary": "臨停清運點", "point_type_summary": "臨停清運點、臨停清運點", "schedule_summary": "08:02；17:31", "source_type_codes": "9,9"}}, {"type": "Feature", "geometry": {"type": "Point", "coordinates": [121.43576, 25.032824]}, "properties": {"point_sid": 10401, "dist": "新莊區", "vil": "營盤里", "point_name": "中正路506號", "point_type_primary": "臨停清運點", "point_type_summary": "臨停清運點、循線清運點", "schedule_summary": "08:04；17:32", "source_type_codes": "9,0"}}, {"type": "Feature", "geometry": {"type": "Point", "coordinates": [121.433087, 25.03227077]}, "properties": {"point_sid": 11261, "dist": "新莊區", "vil": "營盤里", "point_name": "中正路516-4號", "point_type_primary": "臨停清運點", "point_type_summary": "臨停清運點、循線清運點", "schedule_summary": "08:04；17:34", "source_type_codes": "9,0"}}, {"type": "Feature", "geometry": {"type": "Point", "coordinates": [121.4328439, 25.03219743]}, "properties": {"point_sid": 4687, "dist": "新莊區", "vil": "營盤里", "point_name": "中正路516-31號", "point_type_primary": "臨停清運點", "point_type_summary": "臨停清運點、循線清運點", "schedule_summary": "08:04；17:34", "source_type_codes": "9,0"}}, {"type": "Feature", "geometry": {"type": "Point", "coordinates": [121.4322344, 25.03200152]}, "properties": {"point_sid": 9186, "dist": "新莊區", "vil": "營盤里", "point_name": "中正路516-41號", "point_type_primary": "臨停清運點", "point_type_summary": "臨停清運點、循線清運點", "schedule_summary": "08:05；17:36", "source_type_codes": "9,0"}}, {"type": "Feature", "geometry": {"type": "Point", "coordinates": [121.426834, 25.030273]}, "properties": {"point_sid": 5793, "dist": "新莊區", "vil": "營盤里", "point_name": "中正路600號", "point_type_primary": "臨停清運點", "point_type_summary": "臨停清運點、循線清運點", "schedule_summary": "08:08；17:40", "source_type_codes": "9,0"}}, {"type": "Feature", "geometry": {"type": "Point", "coordinates": [121.4219725, 25.02879808]}, "properties": {"point_sid": 21434, "dist": "新莊區", "vil": "丹鳳里", "point_name": "中正路632號", "point_type_primary": "臨停清運點", "point_type_summary": "臨停清運點、循線清運點", "schedule_summary": "08:10；17:43", "source_type_codes": "9,0"}}, {"type": "Feature", "geometry": {"type": "Point", "coordinates": [121.4212526, 25.02857934]}, "properties": {"point_sid": 21435, "dist": "新莊區", "vil": "丹鳳里", "point_name": "中正路656號", "point_type_primary": "臨停清運點", "point_type_summary": "臨停清運點、臨停清運點", "schedule_summary": "08:10；17:43", "source_type_codes": "9,9"}}, {"type": "Feature", "geometry": {"type": "Point", "coordinates": [121.421272, 25.02853]}, "properties": {"point_sid": 14916, "dist": "新莊區", "vil": "丹鳳里", "point_name": "中正路662號", "point_type_primary": "臨停清運點", "point_type_summary": "臨停清運點、臨停清運點", "schedule_summary": "08:10；17:43", "source_type_codes": "9,9"}}, {"type": "Feature", "geometry": {"type": "Point", "coordinates": [121.4181068, 25.02727192]}, "properties": {"point_sid": 21437, "dist": "新莊區", "vil": "合鳳里", "point_name": "中正路700之22號", "point_type_primary": "臨停清運點", "point_type_summary": "臨停清運點、循線清運點", "schedule_summary": "08:14；17:47", "source_type_codes": "9,0"}}, {"type": "Feature", "geometry": {"type": "Point", "coordinates": [121.4174755, 25.02604077]}, "properties": {"point_sid": 21439, "dist": "新莊區", "vil": "雙鳳里", "point_name": "中正路力行巷口", "point_type_primary": "臨停清運點", "point_type_summary": "臨停清運點、臨停清運點", "schedule_summary": "08:15；17:49", "source_type_codes": "9,9"}}, {"type": "Feature", "geometry": {"type": "Point", "coordinates": [121.414604, 25.023468]}, "properties": {"point_sid": 21443, "dist": "新莊區", "vil": "雙鳳里", "point_name": "中正路730之10號", "point_type_primary": "臨停清運點", "point_type_summary": "臨停清運點、臨停清運點", "schedule_summary": "08:18；17:54", "source_type_codes": "9,9"}}, {"type": "Feature", "geometry": {"type": "Point", "coordinates": [121.414024, 25.023485]}, "properties": {"point_sid": 21444, "dist": "新莊區", "vil": "雙鳳里", "point_name": "新北大道七段441號", "point_type_primary": "臨停清運點", "point_type_summary": "臨停清運點、臨停清運點", "schedule_summary": "08:20；17:56", "source_type_codes": "9,9"}}, {"type": "Feature", "geometry": {"type": "Point", "coordinates": [121.4128827, 25.02551009]}, "properties": {"point_sid": 21445, "dist": "新莊區", "vil": "雙鳳里", "point_name": "新北大道七段431號", "point_type_primary": "臨停清運點", "point_type_summary": "臨停清運點、臨停清運點", "schedule_summary": "08:22；17:57", "source_type_codes": "9,9"}}, {"type": "Feature", "geometry": {"type": "Point", "coordinates": [121.4124009, 25.02872959]}, "properties": {"point_sid": 21448, "dist": "新莊區", "vil": "雙鳳里", "point_name": "新北大道七段255號", "point_type_primary": "臨停清運點", "point_type_summary": "臨停清運點、循線清運點", "schedule_summary": "08:28；18:06", "source_type_codes": "9,0"}}, {"type": "Feature", "geometry": {"type": "Point", "coordinates": [121.4128515, 25.02946598]}, "properties": {"point_sid": 21449, "dist": "新莊區", "vil": "雙鳳里", "point_name": "新北大道七段247之號", "point_type_primary": "臨停清運點", "point_type_summary": "臨停清運點、臨停清運點", "schedule_summary": "08:28；18:06", "source_type_codes": "9,9"}}, {"type": "Feature", "geometry": {"type": "Point", "coordinates": [121.4144393, 25.0306422]}, "properties": {"point_sid": 21451, "dist": "新莊區", "vil": "丹鳳里", "point_name": "新北大道七段橋頭快炒店", "point_type_primary": "臨停清運點", "point_type_summary": "臨停清運點、臨停清運點", "schedule_summary": "08:34；18:12", "source_type_codes": "9,9"}}, {"type": "Feature", "geometry": {"type": "Point", "coordinates": [121.4148679, 25.03090985]}, "properties": {"point_sid": 21452, "dist": "新莊區", "vil": "丹鳳里", "point_name": "壽山路160巷21號", "point_type_primary": "臨停清運點", "point_type_summary": "臨停清運點、臨停清運點", "schedule_summary": "08:34；18:12", "source_type_codes": "9,9"}}, {"type": "Feature", "geometry": {"type": "Point", "coordinates": [121.4166887, 25.03197925]}, "properties": {"point_sid": 21454, "dist": "新莊區", "vil": "丹鳳里", "point_name": "新北大道七段126號", "point_type_primary": "臨停清運點", "point_type_summary": "臨停清運點、臨停清運點", "schedule_summary": "08:36；18:15", "source_type_codes": "9,9"}}, {"type": "Feature", "geometry": {"type": "Point", "coordinates": [121.4145057, 25.03095576]}, "properties": {"point_sid": 21456, "dist": "新莊區", "vil": "丹鳳里", "point_name": "壽山路49號(新北大道上七段上)", "point_type_primary": "臨停清運點", "point_type_summary": "臨停清運點、循線清運點", "schedule_summary": "08:36；18:18", "source_type_codes": "9,0"}}, {"type": "Feature", "geometry": {"type": "Point", "coordinates": [121.412505, 25.02605739]}, "properties": {"point_sid": 21457, "dist": "新莊區", "vil": "雙鳳里", "point_name": "新北大道七段720號", "point_type_primary": "臨停清運點", "point_type_summary": "臨停清運點、循線清運點", "schedule_summary": "08:41；18:22", "source_type_codes": "9,0"}}, {"type": "Feature", "geometry": {"type": "Point", "coordinates": [121.4129396, 25.02475848]}, "properties": {"point_sid": 21459, "dist": "新莊區", "vil": "雙鳳里", "point_name": "新北大道七段782號", "point_type_primary": "臨停清運點", "point_type_summary": "臨停清運點、循線清運點", "schedule_summary": "08:43；18:24", "source_type_codes": "9,0"}}, {"type": "Feature", "geometry": {"type": "Point", "coordinates": [121.412537, 25.021587]}, "properties": {"point_sid": 21461, "dist": "新莊區", "vil": "龍鳳里", "point_name": "中正路895之50號", "point_type_primary": "臨停清運點", "point_type_summary": "臨停清運點、循線清運點", "schedule_summary": "08:55；18:32", "source_type_codes": "9,0"}}, {"type": "Feature", "geometry": {"type": "Point", "coordinates": [121.4122798, 25.02203577]}, "properties": {"point_sid": 21462, "dist": "新莊區", "vil": "龍鳳里", "point_name": "中正路895之26號", "point_type_primary": "臨停清運點", "point_type_summary": "臨停清運點、循線清運點", "schedule_summary": "08:56；18:33", "source_type_codes": "9,0"}}, {"type": "Feature", "geometry": {"type": "Point", "coordinates": [121.415596, 25.023834]}, "properties": {"point_sid": 21469, "dist": "新莊區", "vil": "龍鳳里", "point_name": "中正路889之4號", "point_type_primary": "臨停清運點", "point_type_summary": "臨停清運點、循線清運點", "schedule_summary": "09:00；18:39", "source_type_codes": "9,0"}}, {"type": "Feature", "geometry": {"type": "Point", "coordinates": [121.416496, 25.024361]}, "properties": {"point_sid": 21471, "dist": "新莊區", "vil": "裕民里", "point_name": "中正路887之18號", "point_type_primary": "臨停清運點", "point_type_summary": "臨停清運點、臨停清運點", "schedule_summary": "09:01；18:46", "source_type_codes": "9,9"}}, {"type": "Feature", "geometry": {"type": "Point", "coordinates": [121.4255343, 25.02278546]}, "properties": {"point_sid": 26933, "dist": "新莊區", "vil": "八德里", "point_name": "八德街4號", "point_type_primary": "臨停清運點", "point_type_summary": "臨停清運點、循線清運點", "schedule_summary": "09:08；19:53", "source_type_codes": "9,0"}}, {"type": "Feature", "geometry": {"type": "Point", "coordinates": [121.422028, 25.018627]}, "properties": {"point_sid": 6622, "dist": "新莊區", "vil": "成德里", "point_name": "龍安路278巷21號", "point_type_primary": "臨停清運點", "point_type_summary": "臨停清運點、循線清運點", "schedule_summary": "09:32；20:26", "source_type_codes": "9,0"}}, {"type": "Feature", "geometry": {"type": "Point", "coordinates": [121.501945, 25.190832]}, "properties": {"point_sid": 10512, "dist": "淡水區", "vil": "水源里", "point_name": "楓樹湖19號(迴轉)", "point_type_primary": "臨停清運點", "point_type_summary": "臨停清運點", "schedule_summary": "16:40", "source_type_codes": "9"}}, {"type": "Feature", "geometry": {"type": "Point", "coordinates": [121.496025, 25.190321]}, "properties": {"point_sid": 2186, "dist": "淡水區", "vil": "水源里", "point_name": "大溪7-1號(迴轉)", "point_type_primary": "臨停清運點", "point_type_summary": "臨停清運點", "schedule_summary": "16:41", "source_type_codes": "9"}}, {"type": "Feature", "geometry": {"type": "Point", "coordinates": [121.494621, 25.191507]}, "properties": {"point_sid": 15683, "dist": "淡水區", "vil": "水源里", "point_name": "大溪6號", "point_type_primary": "臨停清運點", "point_type_summary": "臨停清運點", "schedule_summary": "16:43", "source_type_codes": "9"}}, {"type": "Feature", "geometry": {"type": "Point", "coordinates": [121.487114, 25.192715]}, "properties": {"point_sid": 3552, "dist": "淡水區", "vil": "忠寮里", "point_name": "泉州厝23號", "point_type_primary": "臨停清運點", "point_type_summary": "臨停清運點", "schedule_summary": "17:00", "source_type_codes": "9"}}, {"type": "Feature", "geometry": {"type": "Point", "coordinates": [121.486351, 25.195992]}, "properties": {"point_sid": 4313, "dist": "淡水區", "vil": "忠寮里", "point_name": "大埤頭3號-6號(迴轉)", "point_type_primary": "臨停清運點", "point_type_summary": "臨停清運點", "schedule_summary": "17:09", "source_type_codes": "9"}}, {"type": "Feature", "geometry": {"type": "Point", "coordinates": [121.482613, 25.196424]}, "properties": {"point_sid": 8431, "dist": "淡水區", "vil": "忠寮里", "point_name": "桂花樹1-3號", "point_type_primary": "臨停清運點", "point_type_summary": "臨停清運點", "schedule_summary": "17:10", "source_type_codes": "9"}}, {"type": "Feature", "geometry": {"type": "Point", "coordinates": [121.483536, 25.192703]}, "properties": {"point_sid": 12030, "dist": "淡水區", "vil": "忠寮里", "point_name": "竹圍子5-2號", "point_type_primary": "臨停清運點", "point_type_summary": "臨停清運點", "schedule_summary": "17:15", "source_type_codes": "9"}}, {"type": "Feature", "geometry": {"type": "Point", "coordinates": [121.478638, 25.193163]}, "properties": {"point_sid": 13103, "dist": "淡水區", "vil": "忠寮里", "point_name": "竹圍子8-5號", "point_type_primary": "臨停清運點", "point_type_summary": "臨停清運點", "schedule_summary": "17:17", "source_type_codes": "9"}}, {"type": "Feature", "geometry": {"type": "Point", "coordinates": [121.466599, 25.195276]}, "properties": {"point_sid": 2993, "dist": "淡水區", "vil": "忠寮里", "point_name": "大王廟", "point_type_primary": "臨停清運點", "point_type_summary": "臨停清運點", "schedule_summary": "17:23", "source_type_codes": "9"}}, {"type": "Feature", "geometry": {"type": "Point", "coordinates": [121.464775, 25.195087]}, "properties": {"point_sid": 14859, "dist": "淡水區", "vil": "忠寮里", "point_name": "水尾3號-2號-5號(迴轉)", "point_type_primary": "臨停清運點", "point_type_summary": "臨停清運點", "schedule_summary": "17:24", "source_type_codes": "9"}}, {"type": "Feature", "geometry": {"type": "Point", "coordinates": [121.469917, 25.194681]}, "properties": {"point_sid": 13302, "dist": "淡水區", "vil": "忠寮里", "point_name": "演戲腳埔12-1號(迴轉)", "point_type_primary": "臨停清運點", "point_type_summary": "臨停清運點", "schedule_summary": "17:35", "source_type_codes": "9"}}, {"type": "Feature", "geometry": {"type": "Point", "coordinates": [121.47341364, 25.192387144]}, "properties": {"point_sid": 7821, "dist": "淡水區", "vil": "忠寮里", "point_name": "演戲腳埔3-2號", "point_type_primary": "臨停清運點", "point_type_summary": "臨停清運點", "schedule_summary": "17:39", "source_type_codes": "9"}}, {"type": "Feature", "geometry": {"type": "Point", "coordinates": [121.453728, 25.180977]}, "properties": {"point_sid": 5427, "dist": "淡水區", "vil": "北投里", "point_name": "北新路一段10-22號", "point_type_primary": "臨停清運點", "point_type_summary": "臨停清運點", "schedule_summary": "17:45", "source_type_codes": "9"}}, {"type": "Feature", "geometry": {"type": "Point", "coordinates": [121.471405, 25.184422]}, "properties": {"point_sid": 11558, "dist": "淡水區", "vil": "北投里", "point_name": "北新路(北投子7鄰33號)鄰口(紅柿腳)", "point_type_primary": "臨停清運點", "point_type_summary": "臨停清運點", "schedule_summary": "17:50", "source_type_codes": "9"}}, {"type": "Feature", "geometry": {"type": "Point", "coordinates": [121.478065, 25.185669]}, "properties": {"point_sid": 11967, "dist": "淡水區", "vil": "水源里", "point_name": "北新路二段60-150號", "point_type_primary": "臨停清運點", "point_type_summary": "臨停清運點", "schedule_summary": "17:56", "source_type_codes": "9"}}, {"type": "Feature", "geometry": {"type": "Point", "coordinates": [121.489928895839, 25.1625821340854]}, "properties": {"point_sid": 6932, "dist": "淡水區", "vil": "坪頂里", "point_name": "海誓山盟", "point_type_primary": "臨停清運點", "point_type_summary": "臨停清運點", "schedule_summary": "17:59", "source_type_codes": "9"}}, {"type": "Feature", "geometry": {"type": "Point", "coordinates": [121.48815026, 25.16392875]}, "properties": {"point_sid": 12999, "dist": "淡水區", "vil": "樹興里", "point_name": "興福寮1-6號-興音寺", "point_type_primary": "臨停清運點", "point_type_summary": "臨停清運點", "schedule_summary": "18:00", "source_type_codes": "9"}}, {"type": "Feature", "geometry": {"type": "Point", "coordinates": [121.486305, 25.188137]}, "properties": {"point_sid": 10674, "dist": "淡水區", "vil": "水源里", "point_name": "北新路三段112-120號", "point_type_primary": "臨停清運點", "point_type_summary": "臨停清運點", "schedule_summary": "18:03", "source_type_codes": "9"}}, {"type": "Feature", "geometry": {"type": "Point", "coordinates": [121.492439, 25.192076]}, "properties": {"point_sid": 7602, "dist": "淡水區", "vil": "水源里", "point_name": "北新路三段173-23號", "point_type_primary": "臨停清運點", "point_type_summary": "臨停清運點", "schedule_summary": "18:11", "source_type_codes": "9"}}, {"type": "Feature", "geometry": {"type": "Point", "coordinates": [121.477371, 25.200066]}, "properties": {"point_sid": 9258, "dist": "淡水區", "vil": "忠寮里", "point_name": "後寮4-2號", "point_type_primary": "臨停清運點", "point_type_summary": "臨停清運點", "schedule_summary": "18:21", "source_type_codes": "9"}}, {"type": "Feature", "geometry": {"type": "Point", "coordinates": [121.479843, 25.200216]}, "properties": {"point_sid": 1731, "dist": "淡水區", "vil": "忠山里", "point_name": "忠山國小", "point_type_primary": "臨停清運點", "point_type_summary": "臨停清運點", "schedule_summary": "18:24", "source_type_codes": "9"}}, {"type": "Feature", "geometry": {"type": "Point", "coordinates": [121.479668, 25.200834]}, "properties": {"point_sid": 14414, "dist": "淡水區", "vil": "忠山里", "point_name": "行忠社區沿線", "point_type_primary": "臨停清運點", "point_type_summary": "臨停清運點", "schedule_summary": "18:25", "source_type_codes": "9"}}, {"type": "Feature", "geometry": {"type": "Point", "coordinates": [121.459229, 25.182238]}, "properties": {"point_sid": 8106, "dist": "淡水區", "vil": "北投里", "point_name": "北新路一段159-7號", "point_type_primary": "臨停清運點", "point_type_summary": "臨停清運點", "schedule_summary": "18:30", "source_type_codes": "9"}}, {"type": "Feature", "geometry": {"type": "Point", "coordinates": [121.450836, 25.179598]}, "properties": {"point_sid": 7290, "dist": "淡水區", "vil": "正德里", "point_name": "北新路175-129號(孟子)", "point_type_primary": "臨停清運點", "point_type_summary": "臨停清運點", "schedule_summary": "18:35", "source_type_codes": "9"}}, {"type": "Feature", "geometry": {"type": "Point", "coordinates": [121.474442, 25.213057]}, "properties": {"point_sid": 10579, "dist": "淡水區", "vil": "蕃薯里", "point_name": "雲廣坑5號", "point_type_primary": "臨停清運點", "point_type_summary": "臨停清運點", "schedule_summary": "18:43", "source_type_codes": "9"}}, {"type": "Feature", "geometry": {"type": "Point", "coordinates": [121.484062, 25.214706]}, "properties": {"point_sid": 1830, "dist": "淡水區", "vil": "蕃薯里", "point_name": "安子內5-1號、3-2號(迴轉)", "point_type_primary": "臨停清運點", "point_type_summary": "臨停清運點", "schedule_summary": "18:46", "source_type_codes": "9"}}, {"type": "Feature", "geometry": {"type": "Point", "coordinates": [121.481583, 25.2136]}, "properties": {"point_sid": 15112, "dist": "淡水區", "vil": "蕃薯里", "point_name": "蕃薯里9、10鄰", "point_type_primary": "臨停清運點", "point_type_summary": "臨停清運點", "schedule_summary": "18:51", "source_type_codes": "9"}}, {"type": "Feature", "geometry": {"type": "Point", "coordinates": [121.443871, 25.180132]}, "properties": {"point_sid": 4551, "dist": "淡水區", "vil": "新興里", "point_name": "新興街1-9號(摩天31後門)", "point_type_primary": "臨停清運點", "point_type_summary": "臨停清運點", "schedule_summary": "18:52", "source_type_codes": "9"}}, {"type": "Feature", "geometry": {"type": "Point", "coordinates": [121.443085, 25.180376]}, "properties": {"point_sid": 2812, "dist": "淡水區", "vil": "新興里", "point_name": "新興街30-62號(莊園)(書香大第)", "point_type_primary": "臨停清運點", "point_type_summary": "臨停清運點", "schedule_summary": "18:56", "source_type_codes": "9"}}, {"type": "Feature", "geometry": {"type": "Point", "coordinates": [121.485435, 25.213461]}, "properties": {"point_sid": 12775, "dist": "淡水區", "vil": "蕃薯里", "point_name": "安子內3-1號", "point_type_primary": "臨停清運點", "point_type_summary": "臨停清運點", "schedule_summary": "18:57", "source_type_codes": "9"}}, {"type": "Feature", "geometry": {"type": "Point", "coordinates": [121.439865, 25.180925]}, "properties": {"point_sid": 15619, "dist": "淡水區", "vil": "新興里", "point_name": "新興街106-118號", "point_type_primary": "臨停清運點", "point_type_summary": "臨停清運點", "schedule_summary": "19:05", "source_type_codes": "9"}}, {"type": "Feature", "geometry": {"type": "Point", "coordinates": [121.464012, 25.138332]}, "properties": {"point_sid": 104, "dist": "淡水區", "vil": "民生里", "point_name": "民生路128號", "point_type_primary": "臨停清運點", "point_type_summary": "臨停清運點", "schedule_summary": "19:20", "source_type_codes": "9"}}, {"type": "Feature", "geometry": {"type": "Point", "coordinates": [121.479294, 25.219055]}, "properties": {"point_sid": 10900, "dist": "淡水區", "vil": "蕃薯里", "point_name": "安子內13號", "point_type_primary": "臨停清運點", "point_type_summary": "臨停清運點", "schedule_summary": "19:27", "source_type_codes": "9"}}, {"type": "Feature", "geometry": {"type": "Point", "coordinates": [121.461327, 25.216162]}, "properties": {"point_sid": 9911, "dist": "淡水區", "vil": "興仁里", "point_name": "店子後9號-11號", "point_type_primary": "臨停清運點", "point_type_summary": "臨停清運點", "schedule_summary": "19:38", "source_type_codes": "9"}}, {"type": "Feature", "geometry": {"type": "Point", "coordinates": [121.446503, 25.192936]}, "properties": {"point_sid": 8891, "dist": "淡水區", "vil": "埤島里", "point_name": "淡金路二段600號(紙器)", "point_type_primary": "臨停清運點", "point_type_summary": "臨停清運點", "schedule_summary": "19:45", "source_type_codes": "9"}}, {"type": "Feature", "geometry": {"type": "Point", "coordinates": [121.460045, 25.213579]}, "properties": {"point_sid": 13039, "dist": "淡水區", "vil": "興仁里", "point_name": "頂田寮2-3號(迴轉)", "point_type_primary": "臨停清運點", "point_type_summary": "臨停清運點", "schedule_summary": "19:52", "source_type_codes": "9"}}, {"type": "Feature", "geometry": {"type": "Point", "coordinates": [121.446365, 25.207802]}, "properties": {"point_sid": 11012, "dist": "淡水區", "vil": "義山里", "point_name": "下圭柔山70巷口", "point_type_primary": "臨停清運點", "point_type_summary": "臨停清運點", "schedule_summary": "20:05", "source_type_codes": "9"}}, {"type": "Feature", "geometry": {"type": "Point", "coordinates": [121.468102, 25.205076]}, "properties": {"point_sid": 7200, "dist": "淡水區", "vil": "忠山里", "point_name": "康華社區", "point_type_primary": "臨停清運點", "point_type_summary": "臨停清運點", "schedule_summary": "20:08", "source_type_codes": "9"}}, {"type": "Feature", "geometry": {"type": "Point", "coordinates": [121.471336, 25.205465]}, "properties": {"point_sid": 9509, "dist": "淡水區", "vil": "忠山里", "point_name": "萊茵城堡-迴轉", "point_type_primary": "臨停清運點", "point_type_summary": "臨停清運點", "schedule_summary": "20:10", "source_type_codes": "9"}}, {"type": "Feature", "geometry": {"type": "Point", "coordinates": [121.474297, 25.203945]}, "properties": {"point_sid": 3081, "dist": "淡水區", "vil": "忠山里", "point_name": "水汴頭5號", "point_type_primary": "臨停清運點", "point_type_summary": "臨停清運點", "schedule_summary": "20:23", "source_type_codes": "9"}}, {"type": "Feature", "geometry": {"type": "Point", "coordinates": [121.450951, 25.215189]}, "properties": {"point_sid": 3175, "dist": "淡水區", "vil": "興仁里", "point_name": "興仁路2-28號", "point_type_primary": "臨停清運點", "point_type_summary": "臨停清運點", "schedule_summary": "20:26", "source_type_codes": "9"}}, {"type": "Feature", "geometry": {"type": "Point", "coordinates": [121.457848, 25.216103]}, "properties": {"point_sid": 14340, "dist": "淡水區", "vil": "興仁里", "point_name": "頂田寮(迴轉)", "point_type_primary": "臨停清運點", "point_type_summary": "臨停清運點", "schedule_summary": "20:30", "source_type_codes": "9"}}, {"type": "Feature", "geometry": {"type": "Point", "coordinates": [121.460648, 25.204758]}, "properties": {"point_sid": 14798, "dist": "淡水區", "vil": "忠山里", "point_name": "番子厝14-1號", "point_type_primary": "臨停清運點", "point_type_summary": "臨停清運點", "schedule_summary": "20:35", "source_type_codes": "9"}}, {"type": "Feature", "geometry": {"type": "Point", "coordinates": [121.457336, 25.204573]}, "properties": {"point_sid": 4295, "dist": "淡水區", "vil": "義山里", "point_name": "下圭柔山28巷沿線", "point_type_primary": "臨停清運點", "point_type_summary": "臨停清運點", "schedule_summary": "20:38", "source_type_codes": "9"}}, {"type": "Feature", "geometry": {"type": "Point", "coordinates": [121.45163, 25.228518]}, "properties": {"point_sid": 13998, "dist": "淡水區", "vil": "興仁里", "point_name": "淡金路四段596-618號(玄聖宮)", "point_type_primary": "臨停清運點", "point_type_summary": "臨停清運點", "schedule_summary": "20:53", "source_type_codes": "9"}}, {"type": "Feature", "geometry": {"type": "Point", "coordinates": [121.45639, 25.236385]}, "properties": {"point_sid": 12542, "dist": "淡水區", "vil": "屯山里", "point_name": "淡金路五段98-172號(迴轉)", "point_type_primary": "臨停清運點", "point_type_summary": "臨停清運點", "schedule_summary": "21:05", "source_type_codes": "9"}}, {"type": "Feature", "geometry": {"type": "Point", "coordinates": [121.453171, 25.233974]}, "properties": {"point_sid": 29375, "dist": "淡水區", "vil": "賢孝里", "point_name": "淡金路5段35巷口", "point_type_primary": "臨停清運點", "point_type_summary": "臨停清運點", "schedule_summary": "21:13", "source_type_codes": "9"}}, {"type": "Feature", "geometry": {"type": "Point", "coordinates": [121.45974, 25.198528]}, "properties": {"point_sid": 9704, "dist": "淡水區", "vil": "埤島里", "point_name": "工研醋-埤島49號", "point_type_primary": "臨停清運點", "point_type_summary": "臨停清運點", "schedule_summary": "21:24", "source_type_codes": "9"}}, {"type": "Feature", "geometry": {"type": "Point", "coordinates": [121.461357, 25.196503]}, "properties": {"point_sid": 6585, "dist": "淡水區", "vil": "埤島里", "point_name": "埤島57號", "point_type_primary": "臨停清運點", "point_type_summary": "臨停清運點", "schedule_summary": "21:27", "source_type_codes": "9"}}, {"type": "Feature", "geometry": {"type": "Point", "coordinates": [121.4477008, 25.19852237]}, "properties": {"point_sid": 5084, "dist": "淡水區", "vil": "埤島里", "point_name": "埤島40-2號", "point_type_primary": "臨停清運點", "point_type_summary": "臨停清運點", "schedule_summary": "21:35", "source_type_codes": "9"}}, {"type": "Feature", "geometry": {"type": "Point", "coordinates": [121.451628, 25.223669]}, "properties": {"point_sid": 29377, "dist": "淡水區", "vil": "義山里", "point_name": "淡金路4段467-181號", "point_type_primary": "臨停清運點", "point_type_summary": "臨停清運點", "schedule_summary": "21:37", "source_type_codes": "9"}}, {"type": "Feature", "geometry": {"type": "Point", "coordinates": [121.448799, 25.203412]}, "properties": {"point_sid": 29379, "dist": "淡水區", "vil": "義山里", "point_name": "淡金路3段169-165號", "point_type_primary": "臨停清運點", "point_type_summary": "臨停清運點", "schedule_summary": "21:52", "source_type_codes": "9"}}, {"type": "Feature", "geometry": {"type": "Point", "coordinates": [121.428087, 24.964282]}, "properties": {"point_sid": 4314, "dist": "土城區", "vil": "永寧里", "point_name": "中央路3段244巷口", "point_type_primary": "臨停清運點", "point_type_summary": "臨停清運點、循線清運點", "schedule_summary": "13:59；17:59", "source_type_codes": "9,0"}}, {"type": "Feature", "geometry": {"type": "Point", "coordinates": [121.454193, 24.978586]}, "properties": {"point_sid": 16945, "dist": "土城區", "vil": "柑林里", "point_name": "明德路1段375A3號", "point_type_primary": "臨停清運點", "point_type_summary": "臨停清運點、臨停清運點", "schedule_summary": "14:18；18:19", "source_type_codes": "9,9"}}, {"type": "Feature", "geometry": {"type": "Point", "coordinates": [121.409955, 24.950986]}, "properties": {"point_sid": 30440, "dist": "土城區", "vil": "祖田里", "point_name": "中央路4段460號-{迴轉}", "point_type_primary": "臨停清運點", "point_type_summary": "臨停清運點、循線清運點", "schedule_summary": "14:19；18:18", "source_type_codes": "9,0"}}, {"type": "Feature", "geometry": {"type": "Point", "coordinates": [121.455818, 24.977901]}, "properties": {"point_sid": 16946, "dist": "土城區", "vil": "清溪里", "point_name": "明德路1段355號", "point_type_primary": "臨停清運點", "point_type_summary": "臨停清運點、臨停清運點", "schedule_summary": "14:20；18:20", "source_type_codes": "9,9"}}, {"type": "Feature", "geometry": {"type": "Point", "coordinates": [121.458725, 24.973995]}, "properties": {"point_sid": 16947, "dist": "土城區", "vil": "清溪里", "point_name": "青雲路362巷口", "point_type_primary": "臨停清運點", "point_type_summary": "臨停清運點、臨停清運點", "schedule_summary": "14:22；18:23", "source_type_codes": "9,9"}}, {"type": "Feature", "geometry": {"type": "Point", "coordinates": [121.4120394, 24.95313828]}, "properties": {"point_sid": 26490, "dist": "土城區", "vil": "祖田里", "point_name": "中央路4段281-11號", "point_type_primary": "臨停清運點", "point_type_summary": "臨停清運點、循線清運點", "schedule_summary": "14:23；18:22", "source_type_codes": "9,0"}}, {"type": "Feature", "geometry": {"type": "Point", "coordinates": [121.459326, 24.970367]}, "properties": {"point_sid": 26551, "dist": "土城區", "vil": "清化里", "point_name": "青雲路452號", "point_type_primary": "臨停清運點", "point_type_summary": "臨停清運點、臨停清運點", "schedule_summary": "14:24；18:25", "source_type_codes": "9,9"}}, {"type": "Feature", "geometry": {"type": "Point", "coordinates": [121.458764, 24.974112]}, "properties": {"point_sid": 26553, "dist": "土城區", "vil": "清化里", "point_name": "青雲路473號", "point_type_primary": "臨停清運點", "point_type_summary": "臨停清運點、循線清運點", "schedule_summary": "14:27；18:27", "source_type_codes": "9,0"}}, {"type": "Feature", "geometry": {"type": "Point", "coordinates": [121.422907, 24.9618584]}, "properties": {"point_sid": 26493, "dist": "土城區", "vil": "頂埔里", "point_name": "中央路4段35號", "point_type_primary": "臨停清運點", "point_type_summary": "臨停清運點、循線清運點", "schedule_summary": "14:31；18:30", "source_type_codes": "9,0"}}, {"type": "Feature", "geometry": {"type": "Point", "coordinates": [121.4239134, 24.96216919]}, "properties": {"point_sid": 16795, "dist": "土城區", "vil": "沛陂里", "point_name": "中央路4段23號", "point_type_primary": "臨停清運點", "point_type_summary": "臨停清運點、循線清運點", "schedule_summary": "14:32；18:30", "source_type_codes": "9,0"}}, {"type": "Feature", "geometry": {"type": "Point", "coordinates": [121.460678, 24.977428]}, "properties": {"point_sid": 26557, "dist": "土城區", "vil": "清和里", "point_name": "明德路1段283號", "point_type_primary": "臨停清運點", "point_type_summary": "臨停清運點、臨停清運點", "schedule_summary": "14:33；18:33", "source_type_codes": "9,9"}}, {"type": "Feature", "geometry": {"type": "Point", "coordinates": [121.460922, 24.977446]}, "properties": {"point_sid": 26558, "dist": "土城區", "vil": "清和里", "point_name": "明德路1段279號", "point_type_primary": "臨停清運點", "point_type_summary": "臨停清運點、臨停清運點", "schedule_summary": "14:33；18:33", "source_type_codes": "9,9"}}, {"type": "Feature", "geometry": {"type": "Point", "coordinates": [121.463776, 24.978931]}, "properties": {"point_sid": 26562, "dist": "土城區", "vil": "青山里", "point_name": "明德路1段195巷口", "point_type_primary": "臨停清運點", "point_type_summary": "臨停清運點、循線清運點", "schedule_summary": "14:35；18:35", "source_type_codes": "9,0"}}, {"type": "Feature", "geometry": {"type": "Point", "coordinates": [121.465553, 24.982483]}, "properties": {"point_sid": 26564, "dist": "土城區", "vil": "青山里", "point_name": "明德路1段103號", "point_type_primary": "臨停清運點", "point_type_summary": "臨停清運點、臨停清運點", "schedule_summary": "14:37；18:37", "source_type_codes": "9,9"}}, {"type": "Feature", "geometry": {"type": "Point", "coordinates": [121.465593, 24.983089]}, "properties": {"point_sid": 26565, "dist": "土城區", "vil": "青山里", "point_name": "明德路1段93巷口", "point_type_primary": "臨停清運點", "point_type_summary": "臨停清運點、臨停清運點", "schedule_summary": "14:37；18:37", "source_type_codes": "9,9"}}, {"type": "Feature", "geometry": {"type": "Point", "coordinates": [121.465256, 24.984463]}, "properties": {"point_sid": 26566, "dist": "土城區", "vil": "金城里", "point_name": "明德路1段63號", "point_type_primary": "臨停清運點", "point_type_summary": "臨停清運點、臨停清運點", "schedule_summary": "14:39；18:39", "source_type_codes": "9,9"}}, {"type": "Feature", "geometry": {"type": "Point", "coordinates": [121.45949, 24.986852]}, "properties": {"point_sid": 26571, "dist": "土城區", "vil": "清溪里", "point_name": "青雲路49巷口", "point_type_primary": "臨停清運點", "point_type_summary": "臨停清運點、循線清運點", "schedule_summary": "14:44；18:44", "source_type_codes": "9,0"}}, {"type": "Feature", "geometry": {"type": "Point", "coordinates": [121.437529, 24.967652]}, "properties": {"point_sid": 26494, "dist": "土城區", "vil": "大安里", "point_name": "中央路3段93號", "point_type_primary": "臨停清運點", "point_type_summary": "臨停清運點、循線清運點", "schedule_summary": "14:45；18:44", "source_type_codes": "9,0"}}, {"type": "Feature", "geometry": {"type": "Point", "coordinates": [121.459755, 24.990515]}, "properties": {"point_sid": 16960, "dist": "土城區", "vil": "復興里", "point_name": "廣福街68巷18弄2之3號", "point_type_primary": "臨停清運點", "point_type_summary": "臨停清運點、臨停清運點", "schedule_summary": "14:47；18:47", "source_type_codes": "9,9"}}, {"type": "Feature", "geometry": {"type": "Point", "coordinates": [121.439352, 24.968688]}, "properties": {"point_sid": 16801, "dist": "土城區", "vil": "大安里", "point_name": "金城路1段2之2號", "point_type_primary": "臨停清運點", "point_type_summary": "臨停清運點、循線清運點", "schedule_summary": "14:47；18:47", "source_type_codes": "9,0"}}, {"type": "Feature", "geometry": {"type": "Point", "coordinates": [121.460373, 24.990055]}, "properties": {"point_sid": 26573, "dist": "土城區", "vil": "青雲里", "point_name": "青雲路2-1號", "point_type_primary": "臨停清運點", "point_type_summary": "臨停清運點、循線清運點", "schedule_summary": "14:48；18:48", "source_type_codes": "9,0"}}, {"type": "Feature", "geometry": {"type": "Point", "coordinates": [121.460465, 24.989394]}, "properties": {"point_sid": 26574, "dist": "土城區", "vil": "青雲里", "point_name": "青雲路8號", "point_type_primary": "臨停清運點", "point_type_summary": "臨停清運點、臨停清運點", "schedule_summary": "14:48；18:48", "source_type_codes": "9,9"}}, {"type": "Feature", "geometry": {"type": "Point", "coordinates": [121.460007, 24.988726]}, "properties": {"point_sid": 26575, "dist": "土城區", "vil": "青雲里", "point_name": "青雲路24號", "point_type_primary": "臨停清運點", "point_type_summary": "臨停清運點、循線清運點", "schedule_summary": "14:49；18:49", "source_type_codes": "9,0"}}, {"type": "Feature", "geometry": {"type": "Point", "coordinates": [121.459743, 24.987914]}, "properties": {"point_sid": 26576, "dist": "土城區", "vil": "青雲里", "point_name": "青雲路54號", "point_type_primary": "臨停清運點", "point_type_summary": "臨停清運點、循線清運點", "schedule_summary": "14:49；18:49", "source_type_codes": "9,0"}}, {"type": "Feature", "geometry": {"type": "Point", "coordinates": [121.444252, 24.97284116]}, "properties": {"point_sid": 26495, "dist": "土城區", "vil": "埤塘里", "point_name": "金城路1段78號", "point_type_primary": "臨停清運點", "point_type_summary": "臨停清運點、循線清運點", "schedule_summary": "14:49；18:50", "source_type_codes": "9,0"}}, {"type": "Feature", "geometry": {"type": "Point", "coordinates": [121.459076, 24.985477]}, "properties": {"point_sid": 26579, "dist": "土城區", "vil": "青雲里", "point_name": "青雲路130巷口", "point_type_primary": "臨停清運點", "point_type_summary": "臨停清運點、臨停清運點", "schedule_summary": "14:51；18:51", "source_type_codes": "9,9"}}, {"type": "Feature", "geometry": {"type": "Point", "coordinates": [121.459145, 24.982656]}, "properties": {"point_sid": 26580, "dist": "土城區", "vil": "青雲里", "point_name": "青雲路172巷口", "point_type_primary": "臨停清運點", "point_type_summary": "臨停清運點、臨停清運點", "schedule_summary": "14:51；18:51", "source_type_codes": "9,9"}}, {"type": "Feature", "geometry": {"type": "Point", "coordinates": [121.448773, 24.976945]}, "properties": {"point_sid": 26496, "dist": "土城區", "vil": "柑林里", "point_name": "金城路2段10號", "point_type_primary": "臨停清運點", "point_type_summary": "臨停清運點、循線清運點", "schedule_summary": "14:51；18:55", "source_type_codes": "9,0"}}, {"type": "Feature", "geometry": {"type": "Point", "coordinates": [121.451667, 24.979178]}, "properties": {"point_sid": 26497, "dist": "土城區", "vil": "柑林里", "point_name": "金城路2段50號", "point_type_primary": "臨停清運點", "point_type_summary": "臨停清運點、循線清運點", "schedule_summary": "14:54；18:57", "source_type_codes": "9,0"}}, {"type": "Feature", "geometry": {"type": "Point", "coordinates": [121.459183, 24.982391]}, "properties": {"point_sid": 26581, "dist": "土城區", "vil": "青雲里", "point_name": "青雲路184號", "point_type_primary": "臨停清運點", "point_type_summary": "臨停清運點、循線清運點", "schedule_summary": "14:55；18:54", "source_type_codes": "9,0"}}, {"type": "Feature", "geometry": {"type": "Point", "coordinates": [121.458321, 24.977228]}, "properties": {"point_sid": 26585, "dist": "土城區", "vil": "青雲里", "point_name": "明德路1段318-1號", "point_type_primary": "臨停清運點", "point_type_summary": "臨停清運點、臨停清運點", "schedule_summary": "14:59；18:59", "source_type_codes": "9,9"}}, {"type": "Feature", "geometry": {"type": "Point", "coordinates": [121.457271, 24.977515]}, "properties": {"point_sid": 26586, "dist": "土城區", "vil": "青雲里", "point_name": "明德路1段280-1號", "point_type_primary": "臨停清運點", "point_type_summary": "臨停清運點、臨停清運點", "schedule_summary": "14:59；18:59", "source_type_codes": "9,9"}}, {"type": "Feature", "geometry": {"type": "Point", "coordinates": [121.455231, 24.981769]}, "properties": {"point_sid": 26498, "dist": "土城區", "vil": "柑林里", "point_name": "金城路2段206號", "point_type_primary": "臨停清運點", "point_type_summary": "臨停清運點、循線清運點", "schedule_summary": "14:59；19:02", "source_type_codes": "9,0"}}, {"type": "Feature", "geometry": {"type": "Point", "coordinates": [121.457469, 24.981656]}, "properties": {"point_sid": 26589, "dist": "土城區", "vil": "柑林里", "point_name": "清水路94號", "point_type_primary": "臨停清運點", "point_type_summary": "臨停清運點、臨停清運點", "schedule_summary": "15:04；19:24", "source_type_codes": "9,9"}}, {"type": "Feature", "geometry": {"type": "Point", "coordinates": [121.457939, 24.981628]}, "properties": {"point_sid": 26590, "dist": "土城區", "vil": "青雲里", "point_name": "清水路108號", "point_type_primary": "臨停清運點", "point_type_summary": "臨停清運點、循線清運點", "schedule_summary": "15:06；19:26", "source_type_codes": "9,0"}}, {"type": "Feature", "geometry": {"type": "Point", "coordinates": [121.458266, 24.981555]}, "properties": {"point_sid": 26591, "dist": "土城區", "vil": "青雲里", "point_name": "清水路122號", "point_type_primary": "臨停清運點", "point_type_summary": "臨停清運點、循線清運點", "schedule_summary": "15:06；19:26", "source_type_codes": "9,0"}}, {"type": "Feature", "geometry": {"type": "Point", "coordinates": [121.459152, 24.981508]}, "properties": {"point_sid": 26593, "dist": "土城區", "vil": "永豐里", "point_name": "清水路152號", "point_type_primary": "臨停清運點", "point_type_summary": "臨停清運點、循線清運點", "schedule_summary": "15:08；19:28", "source_type_codes": "9,0"}}, {"type": "Feature", "geometry": {"type": "Point", "coordinates": [121.445942, 24.97487449]}, "properties": {"point_sid": 16808, "dist": "土城區", "vil": "員信里", "point_name": "金城路1段137號", "point_type_primary": "臨停清運點", "point_type_summary": "臨停清運點、循線清運點", "schedule_summary": "15:10；19:11", "source_type_codes": "9,0"}}, {"type": "Feature", "geometry": {"type": "Point", "coordinates": [121.461945, 24.983463]}, "properties": {"point_sid": 26598, "dist": "土城區", "vil": "永豐里", "point_name": "清水路274號", "point_type_primary": "臨停清運點", "point_type_summary": "臨停清運點、循線清運點", "schedule_summary": "15:11；19:31", "source_type_codes": "9,0"}}, {"type": "Feature", "geometry": {"type": "Point", "coordinates": [121.462233, 24.983645]}, "properties": {"point_sid": 26599, "dist": "土城區", "vil": "永豐里", "point_name": "清水路286巷口", "point_type_primary": "臨停清運點", "point_type_summary": "臨停清運點、臨停清運點", "schedule_summary": "15:11；19:31", "source_type_codes": "9,9"}}, {"type": "Feature", "geometry": {"type": "Point", "coordinates": [121.440328, 24.969505]}, "properties": {"point_sid": 16809, "dist": "土城區", "vil": "員信里", "point_name": "金城路1段45號", "point_type_primary": "臨停清運點", "point_type_summary": "臨停清運點、循線清運點", "schedule_summary": "15:13；19:14", "source_type_codes": "9,0"}}, {"type": "Feature", "geometry": {"type": "Point", "coordinates": [121.438987, 24.969262]}, "properties": {"point_sid": 26500, "dist": "土城區", "vil": "大安里", "point_name": "中央路3段65號", "point_type_primary": "臨停清運點", "point_type_summary": "臨停清運點、循線清運點", "schedule_summary": "15:16；19:14", "source_type_codes": "9,0"}}, {"type": "Feature", "geometry": {"type": "Point", "coordinates": [121.4402268, 24.9722149]}, "properties": {"point_sid": 26501, "dist": "土城區", "vil": "員仁里", "point_name": "中央路2段237號", "point_type_primary": "臨停清運點", "point_type_summary": "臨停清運點、循線清運點", "schedule_summary": "15:19；19:19", "source_type_codes": "9,0"}}, {"type": "Feature", "geometry": {"type": "Point", "coordinates": [121.465523, 24.983124]}, "properties": {"point_sid": 26606, "dist": "土城區", "vil": "永富里", "point_name": "明德路1段70巷口", "point_type_primary": "臨停清運點", "point_type_summary": "臨停清運點、循線清運點", "schedule_summary": "15:20；19:40", "source_type_codes": "9,0"}}, {"type": "Feature", "geometry": {"type": "Point", "coordinates": [121.46376, 24.978962]}, "properties": {"point_sid": 26608, "dist": "土城區", "vil": "青山里", "point_name": "明德路1段128巷口", "point_type_primary": "臨停清運點", "point_type_summary": "臨停清運點、臨停清運點", "schedule_summary": "15:22；19:44", "source_type_codes": "9,9"}}, {"type": "Feature", "geometry": {"type": "Point", "coordinates": [121.461739, 24.977859]}, "properties": {"point_sid": 26610, "dist": "土城區", "vil": "清水里", "point_name": "明德路1段202號", "point_type_primary": "臨停清運點", "point_type_summary": "臨停清運點、循線清運點", "schedule_summary": "15:23；19:45", "source_type_codes": "9,0"}}, {"type": "Feature", "geometry": {"type": "Point", "coordinates": [121.460587, 24.977433]}, "properties": {"point_sid": 26611, "dist": "土城區", "vil": "清水里", "point_name": "明德路1段234巷口", "point_type_primary": "臨停清運點", "point_type_summary": "臨停清運點、臨停清運點", "schedule_summary": "15:23；19:45", "source_type_codes": "9,9"}}, {"type": "Feature", "geometry": {"type": "Point", "coordinates": [121.45903, 24.978912]}, "properties": {"point_sid": 26612, "dist": "土城區", "vil": "清水里", "point_name": "青雲路331號", "point_type_primary": "臨停清運點", "point_type_summary": "臨停清運點、臨停清運點", "schedule_summary": "15:25；19:48", "source_type_codes": "9,9"}}, {"type": "Feature", "geometry": {"type": "Point", "coordinates": [121.459042, 24.978981]}, "properties": {"point_sid": 26613, "dist": "土城區", "vil": "清水里", "point_name": "青雲路313巷口", "point_type_primary": "臨停清運點", "point_type_summary": "臨停清運點、臨停清運點", "schedule_summary": "15:25；19:48", "source_type_codes": "9,9"}}, {"type": "Feature", "geometry": {"type": "Point", "coordinates": [121.459038, 24.979182]}, "properties": {"point_sid": 26614, "dist": "土城區", "vil": "清水里", "point_name": "青雲路307號", "point_type_primary": "臨停清運點", "point_type_summary": "臨停清運點、臨停清運點", "schedule_summary": "15:25；19:48", "source_type_codes": "9,9"}}, {"type": "Feature", "geometry": {"type": "Point", "coordinates": [121.459076, 24.979736]}, "properties": {"point_sid": 26615, "dist": "土城區", "vil": "清溪里", "point_name": "青雲路295巷口", "point_type_primary": "臨停清運點", "point_type_summary": "臨停清運點、臨停清運點", "schedule_summary": "15:26；19:50", "source_type_codes": "9,9"}}, {"type": "Feature", "geometry": {"type": "Point", "coordinates": [121.459074, 24.980437]}, "properties": {"point_sid": 26616, "dist": "土城區", "vil": "清溪里", "point_name": "青雲路269巷口", "point_type_primary": "臨停清運點", "point_type_summary": "臨停清運點、循線清運點", "schedule_summary": "15:26；19:50", "source_type_codes": "9,0"}}, {"type": "Feature", "geometry": {"type": "Point", "coordinates": [121.459159, 24.98198]}, "properties": {"point_sid": 26618, "dist": "土城區", "vil": "清溪里", "point_name": "青雲路213號", "point_type_primary": "臨停清運點", "point_type_summary": "臨停清運點、臨停清運點", "schedule_summary": "15:27；19:51", "source_type_codes": "9,9"}}, {"type": "Feature", "geometry": {"type": "Point", "coordinates": [121.442614, 24.979085]}, "properties": {"point_sid": 16815, "dist": "土城區", "vil": "員林里", "point_name": "中央路2段61巷口", "point_type_primary": "臨停清運點", "point_type_summary": "臨停清運點、循線清運點", "schedule_summary": "15:27；19:42", "source_type_codes": "9,0"}}, {"type": "Feature", "geometry": {"type": "Point", "coordinates": [121.459213, 24.982485]}, "properties": {"point_sid": 26619, "dist": "土城區", "vil": "清溪里", "point_name": "青雲路191號", "point_type_primary": "臨停清運點", "point_type_summary": "臨停清運點、循線清運點", "schedule_summary": "15:28；19:52", "source_type_codes": "9,0"}}, {"type": "Feature", "geometry": {"type": "Point", "coordinates": [121.459188, 24.982969]}, "properties": {"point_sid": 26620, "dist": "土城區", "vil": "清溪里", "point_name": "青雲路179號", "point_type_primary": "臨停清運點", "point_type_summary": "臨停清運點、臨停清運點", "schedule_summary": "15:28；19:52", "source_type_codes": "9,9"}}, {"type": "Feature", "geometry": {"type": "Point", "coordinates": [121.442903, 24.979698]}, "properties": {"point_sid": 16816, "dist": "土城區", "vil": "員林里", "point_name": "中央路2段45號", "point_type_primary": "臨停清運點", "point_type_summary": "臨停清運點、循線清運點", "schedule_summary": "15:28；19:43", "source_type_codes": "9,0"}}, {"type": "Feature", "geometry": {"type": "Point", "coordinates": [121.45887, 24.984402]}, "properties": {"point_sid": 26622, "dist": "土城區", "vil": "清溪里", "point_name": "金城路2段310號", "point_type_primary": "臨停清運點", "point_type_summary": "臨停清運點、臨停清運點", "schedule_summary": "15:29；19:54", "source_type_codes": "9,9"}}, {"type": "Feature", "geometry": {"type": "Point", "coordinates": [121.46268, 24.985333]}, "properties": {"point_sid": 26623, "dist": "土城區", "vil": "清溪里", "point_name": "金城路2段376號", "point_type_primary": "臨停清運點", "point_type_summary": "臨停清運點、臨停清運點", "schedule_summary": "15:29；19:54", "source_type_codes": "9,9"}}, {"type": "Feature", "geometry": {"type": "Point", "coordinates": [121.443397, 24.981234]}, "properties": {"point_sid": 16818, "dist": "土城區", "vil": "日和里", "point_name": "中央路1段345號", "point_type_primary": "臨停清運點", "point_type_summary": "臨停清運點、循線清運點", "schedule_summary": "15:29；19:44", "source_type_codes": "9,0"}}, {"type": "Feature", "geometry": {"type": "Point", "coordinates": [121.466957, 24.987347]}, "properties": {"point_sid": 26624, "dist": "土城區", "vil": "延吉里", "point_name": "金城路3段152號", "point_type_primary": "臨停清運點", "point_type_summary": "臨停清運點、臨停清運點", "schedule_summary": "15:33；19:58", "source_type_codes": "9,9"}}, {"type": "Feature", "geometry": {"type": "Point", "coordinates": [121.469241, 24.988399]}, "properties": {"point_sid": 26625, "dist": "土城區", "vil": "延吉里", "point_name": "金城路3段202號", "point_type_primary": "臨停清運點", "point_type_summary": "臨停清運點、臨停清運點", "schedule_summary": "15:33；19:58", "source_type_codes": "9,9"}}, {"type": "Feature", "geometry": {"type": "Point", "coordinates": [121.472336, 24.990135]}, "properties": {"point_sid": 16986, "dist": "土城區", "vil": "延吉里", "point_name": "金城路3段220號", "point_type_primary": "臨停清運點", "point_type_summary": "臨停清運點、臨停清運點", "schedule_summary": "15:36；20:01", "source_type_codes": "9,9"}}, {"type": "Feature", "geometry": {"type": "Point", "coordinates": [121.474106, 24.99081]}, "properties": {"point_sid": 26626, "dist": "土城區", "vil": "延吉里", "point_name": "金城路3段260號", "point_type_primary": "臨停清運點", "point_type_summary": "臨停清運點、臨停清運點", "schedule_summary": "15:37；20:02", "source_type_codes": "9,9"}}, {"type": "Feature", "geometry": {"type": "Point", "coordinates": [121.4741866, 24.9910505]}, "properties": {"point_sid": 26627, "dist": "土城區", "vil": "延吉里", "point_name": "金城路3段313-1號", "point_type_primary": "臨停清運點", "point_type_summary": "臨停清運點、臨停清運點", "schedule_summary": "15:37；20:02", "source_type_codes": "9,9"}}, {"type": "Feature", "geometry": {"type": "Point", "coordinates": [121.446251, 24.987157]}, "properties": {"point_sid": 26505, "dist": "土城區", "vil": "裕生里", "point_name": "中央路1段151號", "point_type_primary": "臨停清運點", "point_type_summary": "臨停清運點、循線清運點", "schedule_summary": "15:38；19:49", "source_type_codes": "9,0"}}, {"type": "Feature", "geometry": {"type": "Point", "coordinates": [121.446031, 24.987149]}, "properties": {"point_sid": 26506, "dist": "土城區", "vil": "裕生里", "point_name": "中央路1段158號", "point_type_primary": "臨停清運點", "point_type_summary": "臨停清運點、循線清運點", "schedule_summary": "15:38；19:50", "source_type_codes": "9,0"}}, {"type": "Feature", "geometry": {"type": "Point", "coordinates": [121.473373, 24.990547]}, "properties": {"point_sid": 26628, "dist": "土城區", "vil": "延壽里", "point_name": "金城路3段281號", "point_type_primary": "臨停清運點", "point_type_summary": "臨停清運點、臨停清運點", "schedule_summary": "15:40；20:05", "source_type_codes": "9,9"}}, {"type": "Feature", "geometry": {"type": "Point", "coordinates": [121.470938, 24.989578]}, "properties": {"point_sid": 26629, "dist": "土城區", "vil": "延壽里", "point_name": "金城路3段223號", "point_type_primary": "臨停清運點", "point_type_summary": "臨停清運點、臨停清運點", "schedule_summary": "15:40；20:05", "source_type_codes": "9,9"}}, {"type": "Feature", "geometry": {"type": "Point", "coordinates": [121.469521, 24.988779]}, "properties": {"point_sid": 26631, "dist": "土城區", "vil": "延祿里", "point_name": "金城路3段181巷口", "point_type_primary": "臨停清運點", "point_type_summary": "臨停清運點、臨停清運點", "schedule_summary": "15:41；20:06", "source_type_codes": "9,9"}}, {"type": "Feature", "geometry": {"type": "Point", "coordinates": [121.469016, 24.988523]}, "properties": {"point_sid": 26632, "dist": "土城區", "vil": "延祿里", "point_name": "金城路3段163巷口", "point_type_primary": "臨停清運點", "point_type_summary": "臨停清運點、循線清運點", "schedule_summary": "15:41；20:06", "source_type_codes": "9,0"}}, {"type": "Feature", "geometry": {"type": "Point", "coordinates": [121.445588, 24.986396]}, "properties": {"point_sid": 16825, "dist": "土城區", "vil": "日新里", "point_name": "中央路1段188巷口", "point_type_primary": "臨停清運點", "point_type_summary": "臨停清運點、循線清運點", "schedule_summary": "15:42；19:55", "source_type_codes": "9,0"}}, {"type": "Feature", "geometry": {"type": "Point", "coordinates": [121.468315, 24.988094]}, "properties": {"point_sid": 26633, "dist": "土城區", "vil": "平和里", "point_name": "金城路3段131巷口", "point_type_primary": "臨停清運點", "point_type_summary": "臨停清運點、臨停清運點", "schedule_summary": "15:43；20:09", "source_type_codes": "9,9"}}, {"type": "Feature", "geometry": {"type": "Point", "coordinates": [121.46642, 24.987098]}, "properties": {"point_sid": 26634, "dist": "土城區", "vil": "平和里", "point_name": "金城路3段73巷口", "point_type_primary": "臨停清運點", "point_type_summary": "臨停清運點、循線清運點", "schedule_summary": "15:43；20:09", "source_type_codes": "9,0"}}, {"type": "Feature", "geometry": {"type": "Point", "coordinates": [121.443665, 24.982771]}, "properties": {"point_sid": 26507, "dist": "土城區", "vil": "日和里", "point_name": "中央路1段296號", "point_type_primary": "臨停清運點", "point_type_summary": "臨停清運點、循線清運點", "schedule_summary": "15:46；20:01", "source_type_codes": "9,0"}}, {"type": "Feature", "geometry": {"type": "Point", "coordinates": [121.461181, 24.982766]}, "properties": {"point_sid": 26636, "dist": "土城區", "vil": "清溪里", "point_name": "清水路231號", "point_type_primary": "臨停清運點", "point_type_summary": "臨停清運點、循線清運點", "schedule_summary": "15:47；20:12", "source_type_codes": "9,0"}}, {"type": "Feature", "geometry": {"type": "Point", "coordinates": [121.457878, 24.981644]}, "properties": {"point_sid": 26637, "dist": "土城區", "vil": "柑林里", "point_name": "清水路125號", "point_type_primary": "臨停清運點", "point_type_summary": "臨停清運點、臨停清運點", "schedule_summary": "15:48；20:14", "source_type_codes": "9,9"}}, {"type": "Feature", "geometry": {"type": "Point", "coordinates": [121.456383, 24.981763]}, "properties": {"point_sid": 26638, "dist": "土城區", "vil": "柑林里", "point_name": "清水路89號", "point_type_primary": "臨停清運點", "point_type_summary": "臨停清運點、循線清運點", "schedule_summary": "15:48；20:14", "source_type_codes": "9,0"}}, {"type": "Feature", "geometry": {"type": "Point", "coordinates": [121.442807, 24.980777]}, "properties": {"point_sid": 26508, "dist": "土城區", "vil": "員福里", "point_name": "中央路2段20號", "point_type_primary": "臨停清運點", "point_type_summary": "臨停清運點、循線清運點", "schedule_summary": "15:48；20:05", "source_type_codes": "9,0"}}, {"type": "Feature", "geometry": {"type": "Point", "coordinates": [121.4423155, 24.97872033]}, "properties": {"point_sid": 26509, "dist": "土城區", "vil": "員福里", "point_name": "中央路2段134號", "point_type_primary": "臨停清運點", "point_type_summary": "臨停清運點、循線清運點", "schedule_summary": "15:49；20:05", "source_type_codes": "9,0"}}, {"type": "Feature", "geometry": {"type": "Point", "coordinates": [121.439159, 24.970274]}, "properties": {"point_sid": 16830, "dist": "土城區", "vil": "大安里", "point_name": "中央路3段4-7號", "point_type_primary": "臨停清運點", "point_type_summary": "臨停清運點、循線清運點", "schedule_summary": "15:57；20:14", "source_type_codes": "9,0"}}, {"type": "Feature", "geometry": {"type": "Point", "coordinates": [121.4374569, 24.96791325]}, "properties": {"point_sid": 16831, "dist": "土城區", "vil": "大安里", "point_name": "中央路3段64號", "point_type_primary": "臨停清運點", "point_type_summary": "臨停清運點、循線清運點", "schedule_summary": "16:00；20:16", "source_type_codes": "9,0"}}, {"type": "Feature", "geometry": {"type": "Point", "coordinates": [121.434139, 24.96571]}, "properties": {"point_sid": 26511, "dist": "土城區", "vil": "永寧里", "point_name": "中央路3段136號", "point_type_primary": "臨停清運點", "point_type_summary": "臨停清運點、循線清運點", "schedule_summary": "16:03；20:20", "source_type_codes": "9,0"}}, {"type": "Feature", "geometry": {"type": "Point", "coordinates": [121.63015, 25.227608]}, "properties": {"point_sid": 2129, "dist": "金山區", "vil": "清泉里", "point_name": "清水路4號", "point_type_primary": "臨停清運點", "point_type_summary": "臨停清運點", "schedule_summary": "17:55", "source_type_codes": "9"}}, {"type": "Feature", "geometry": {"type": "Point", "coordinates": [121.63871, 25.227715]}, "properties": {"point_sid": 2787, "dist": "金山區", "vil": "磺港里", "point_name": "社寮17號", "point_type_primary": "臨停清運點", "point_type_summary": "臨停清運點", "schedule_summary": "17:57", "source_type_codes": "9"}}, {"type": "Feature", "geometry": {"type": "Point", "coordinates": [121.623505, 25.229004]}, "properties": {"point_sid": 10866, "dist": "金山區", "vil": "清泉里", "point_name": "三界壇路95巷口", "point_type_primary": "臨停清運點", "point_type_summary": "臨停清運點", "schedule_summary": "18:01", "source_type_codes": "9"}}, {"type": "Feature", "geometry": {"type": "Point", "coordinates": [121.622818, 25.229219]}, "properties": {"point_sid": 8360, "dist": "金山區", "vil": "三界里", "point_name": "三界壇路97巷口", "point_type_primary": "臨停清運點", "point_type_summary": "臨停清運點", "schedule_summary": "18:01", "source_type_codes": "9"}}, {"type": "Feature", "geometry": {"type": "Point", "coordinates": [121.617271, 25.230259]}, "properties": {"point_sid": 1441, "dist": "金山區", "vil": "三界里", "point_name": "三界壇路109巷4號", "point_type_primary": "臨停清運點", "point_type_summary": "臨停清運點", "schedule_summary": "18:03", "source_type_codes": "9"}}, {"type": "Feature", "geometry": {"type": "Point", "coordinates": [121.649635, 25.229586]}, "properties": {"point_sid": 14687, "dist": "金山區", "vil": "磺港里", "point_name": "磺港路25號之3號路口(漁會油庫)", "point_type_primary": "臨停清運點", "point_type_summary": "臨停清運點", "schedule_summary": "18:04", "source_type_codes": "9"}}, {"type": "Feature", "geometry": {"type": "Point", "coordinates": [121.616211, 25.229315]}, "properties": {"point_sid": 9959, "dist": "金山區", "vil": "三界里", "point_name": "三界壇路109巷22號", "point_type_primary": "臨停清運點", "point_type_summary": "臨停清運點", "schedule_summary": "18:04", "source_type_codes": "9"}}, {"type": "Feature", "geometry": {"type": "Point", "coordinates": [121.614273, 25.227972]}, "properties": {"point_sid": 13254, "dist": "金山區", "vil": "六股里", "point_name": "潭子內9號巷口", "point_type_primary": "臨停清運點", "point_type_summary": "臨停清運點", "schedule_summary": "18:04", "source_type_codes": "9"}}, {"type": "Feature", "geometry": {"type": "Point", "coordinates": [121.614349, 25.227772]}, "properties": {"point_sid": 600, "dist": "金山區", "vil": "六股里", "point_name": "潭子內10號", "point_type_primary": "臨停清運點", "point_type_summary": "臨停清運點", "schedule_summary": "18:05", "source_type_codes": "9"}}, {"type": "Feature", "geometry": {"type": "Point", "coordinates": [121.613724, 25.22691]}, "properties": {"point_sid": 7898, "dist": "金山區", "vil": "六股里", "point_name": "潭子內6號", "point_type_primary": "臨停清運點", "point_type_summary": "臨停清運點", "schedule_summary": "18:05", "source_type_codes": "9"}}, {"type": "Feature", "geometry": {"type": "Point", "coordinates": [121.617294, 25.227055]}, "properties": {"point_sid": 9824, "dist": "金山區", "vil": "三界里", "point_name": "三界壇路99巷25號", "point_type_primary": "臨停清運點", "point_type_summary": "臨停清運點", "schedule_summary": "18:06", "source_type_codes": "9"}}, {"type": "Feature", "geometry": {"type": "Point", "coordinates": [121.619049, 25.227415]}, "properties": {"point_sid": 15871, "dist": "金山區", "vil": "三界里", "point_name": "三界壇路99巷22號(巷口)", "point_type_primary": "臨停清運點", "point_type_summary": "臨停清運點", "schedule_summary": "18:06", "source_type_codes": "9"}}, {"type": "Feature", "geometry": {"type": "Point", "coordinates": [121.620148, 25.227552]}, "properties": {"point_sid": 1805, "dist": "金山區", "vil": "三界里", "point_name": "三界壇路99巷19號", "point_type_primary": "臨停清運點", "point_type_summary": "臨停清運點", "schedule_summary": "18:07", "source_type_codes": "9"}}, {"type": "Feature", "geometry": {"type": "Point", "coordinates": [121.620499, 25.227705]}, "properties": {"point_sid": 814, "dist": "金山區", "vil": "三界里", "point_name": "三界壇路99巷15號", "point_type_primary": "臨停清運點", "point_type_summary": "臨停清運點", "schedule_summary": "18:08", "source_type_codes": "9"}}, {"type": "Feature", "geometry": {"type": "Point", "coordinates": [121.620819, 25.227943]}, "properties": {"point_sid": 4601, "dist": "金山區", "vil": "三界里", "point_name": "三界壇路99巷9號", "point_type_primary": "臨停清運點", "point_type_summary": "臨停清運點", "schedule_summary": "18:08", "source_type_codes": "9"}}, {"type": "Feature", "geometry": {"type": "Point", "coordinates": [121.643646, 25.221445]}, "properties": {"point_sid": 1450, "dist": "金山區", "vil": "豐漁里", "point_name": "民生路23號", "point_type_primary": "臨停清運點", "point_type_summary": "臨停清運點", "schedule_summary": "18:09", "source_type_codes": "9"}}, {"type": "Feature", "geometry": {"type": "Point", "coordinates": [121.621307, 25.228302]}, "properties": {"point_sid": 3365, "dist": "金山區", "vil": "三界里", "point_name": "三界壇路99巷5號(巷口)", "point_type_primary": "臨停清運點", "point_type_summary": "臨停清運點", "schedule_summary": "18:09", "source_type_codes": "9"}}, {"type": "Feature", "geometry": {"type": "Point", "coordinates": [121.644691, 25.221928]}, "properties": {"point_sid": 7678, "dist": "金山區", "vil": "豐漁里", "point_name": "民生路200號對面", "point_type_primary": "臨停清運點", "point_type_summary": "臨停清運點", "schedule_summary": "18:10", "source_type_codes": "9"}}, {"type": "Feature", "geometry": {"type": "Point", "coordinates": [121.622154, 25.228951]}, "properties": {"point_sid": 11559, "dist": "金山區", "vil": "三界里", "point_name": "三界壇路99巷1號", "point_type_primary": "臨停清運點", "point_type_summary": "臨停清運點", "schedule_summary": "18:11", "source_type_codes": "9"}}, {"type": "Feature", "geometry": {"type": "Point", "coordinates": [121.621941, 25.232937]}, "properties": {"point_sid": 22780, "dist": "金山區", "vil": "清泉里", "point_name": "西勢三橋(法鼓路)", "point_type_primary": "臨停清運點", "point_type_summary": "臨停清運點", "schedule_summary": "18:12", "source_type_codes": "9"}}, {"type": "Feature", "geometry": {"type": "Point", "coordinates": [121.627571, 25.235924]}, "properties": {"point_sid": 22783, "dist": "金山區", "vil": "清泉里", "point_name": "西勢2之5號(法鼓路)", "point_type_primary": "臨停清運點", "point_type_summary": "臨停清運點", "schedule_summary": "18:14", "source_type_codes": "9"}}, {"type": "Feature", "geometry": {"type": "Point", "coordinates": [121.629395, 25.236212]}, "properties": {"point_sid": 22784, "dist": "金山區", "vil": "清泉里", "point_name": "法鼓路與淡金公路口", "point_type_primary": "臨停清運點", "point_type_summary": "臨停清運點", "schedule_summary": "18:15", "source_type_codes": "9"}}, {"type": "Feature", "geometry": {"type": "Point", "coordinates": [121.629524, 25.235838]}, "properties": {"point_sid": 14159, "dist": "金山區", "vil": "清泉里", "point_name": "清水路60巷1號", "point_type_primary": "臨停清運點", "point_type_summary": "臨停清運點", "schedule_summary": "18:16", "source_type_codes": "9"}}, {"type": "Feature", "geometry": {"type": "Point", "coordinates": [121.632767, 25.2348]}, "properties": {"point_sid": 1004, "dist": "金山區", "vil": "清泉里", "point_name": "清水路60巷6號", "point_type_primary": "臨停清運點", "point_type_summary": "臨停清運點", "schedule_summary": "18:17", "source_type_codes": "9"}}, {"type": "Feature", "geometry": {"type": "Point", "coordinates": [121.641949626983, 25.2202485877493]}, "properties": {"point_sid": 22796, "dist": "金山區", "vil": "豐漁里", "point_name": "民生路51巷1號對面(中興路褔華海鮮)", "point_type_primary": "臨停清運點", "point_type_summary": "臨停清運點", "schedule_summary": "18:19", "source_type_codes": "9"}}, {"type": "Feature", "geometry": {"type": "Point", "coordinates": [121.639771, 25.219374]}, "properties": {"point_sid": 15806, "dist": "金山區", "vil": "和平里", "point_name": "中山路與民生路口(85℃)", "point_type_primary": "臨停清運點", "point_type_summary": "臨停清運點", "schedule_summary": "18:22", "source_type_codes": "9"}}, {"type": "Feature", "geometry": {"type": "Point", "coordinates": [121.636283798776, 25.2230719706576]}, "properties": {"point_sid": 12585, "dist": "金山區", "vil": "美田里", "point_name": "金山國小(中山路)", "point_type_primary": "臨停清運點", "point_type_summary": "臨停清運點", "schedule_summary": "18:30", "source_type_codes": "9"}}, {"type": "Feature", "geometry": {"type": "Point", "coordinates": [121.63913, 25.218616]}, "properties": {"point_sid": 3086, "dist": "金山區", "vil": "五湖里", "point_name": "龜子山8號(市立圖書館金山分館)", "point_type_primary": "臨停清運點", "point_type_summary": "臨停清運點", "schedule_summary": "18:33", "source_type_codes": "9"}}, {"type": "Feature", "geometry": {"type": "Point", "coordinates": [121.634462588954, 25.2245623901009]}, "properties": {"point_sid": 708, "dist": "金山區", "vil": "美田里", "point_name": "翡翠屋公寓", "point_type_primary": "臨停清運點", "point_type_summary": "臨停清運點", "schedule_summary": "18:50", "source_type_codes": "9"}}, {"type": "Feature", "geometry": {"type": "Point", "coordinates": [121.641647, 25.220898]}, "properties": {"point_sid": 106, "dist": "金山區", "vil": "和平里", "point_name": "民生路45號", "point_type_primary": "臨停清運點", "point_type_summary": "臨停清運點", "schedule_summary": "19:02", "source_type_codes": "9"}}, {"type": "Feature", "geometry": {"type": "Point", "coordinates": [121.633189976686, 25.2216708385303]}, "properties": {"point_sid": 15814, "dist": "金山區", "vil": "金美里", "point_name": "中正路95號", "point_type_primary": "臨停清運點", "point_type_summary": "臨停清運點", "schedule_summary": "19:08", "source_type_codes": "9"}}, {"type": "Feature", "geometry": {"type": "Point", "coordinates": [121.633537, 25.221739]}, "properties": {"point_sid": 2725, "dist": "金山區", "vil": "金美里", "point_name": "中正路77號", "point_type_primary": "臨停清運點", "point_type_summary": "臨停清運點", "schedule_summary": "19:08", "source_type_codes": "9"}}, {"type": "Feature", "geometry": {"type": "Point", "coordinates": [121.635627678573, 25.2221223231131]}, "properties": {"point_sid": 2587, "dist": "金山區", "vil": "金美里", "point_name": "天主堂(中正路)", "point_type_primary": "臨停清運點", "point_type_summary": "臨停清運點", "schedule_summary": "19:10", "source_type_codes": "9"}}, {"type": "Feature", "geometry": {"type": "Point", "coordinates": [121.638863542327, 25.2203070857675]}, "properties": {"point_sid": 2998, "dist": "金山區", "vil": "金美里", "point_name": "中山路與仁愛路口", "point_type_primary": "臨停清運點", "point_type_summary": "臨停清運點", "schedule_summary": "19:17", "source_type_codes": "9"}}, {"type": "Feature", "geometry": {"type": "Point", "coordinates": [121.631721, 25.222288]}, "properties": {"point_sid": 11100, "dist": "金山區", "vil": "美田里", "point_name": "中正路108巷20號", "point_type_primary": "臨停清運點", "point_type_summary": "臨停清運點", "schedule_summary": "19:17", "source_type_codes": "9"}}, {"type": "Feature", "geometry": {"type": "Point", "coordinates": [121.625261796295, 25.2202051797498]}, "properties": {"point_sid": 15289, "dist": "金山區", "vil": "五湖里", "point_name": "基隆客運(陽金公路)", "point_type_primary": "臨停清運點", "point_type_summary": "臨停清運點", "schedule_summary": "19:33", "source_type_codes": "9"}}, {"type": "Feature", "geometry": {"type": "Point", "coordinates": [121.619865, 25.221422]}, "properties": {"point_sid": 10785, "dist": "金山區", "vil": "六股里", "point_name": "下六股39號(六股中橋旁)", "point_type_primary": "臨停清運點", "point_type_summary": "臨停清運點", "schedule_summary": "19:36", "source_type_codes": "9"}}, {"type": "Feature", "geometry": {"type": "Point", "coordinates": [121.617661, 25.221807]}, "properties": {"point_sid": 15690, "dist": "金山區", "vil": "六股里", "point_name": "下六股49號", "point_type_primary": "臨停清運點", "point_type_summary": "臨停清運點", "schedule_summary": "19:37", "source_type_codes": "9"}}, {"type": "Feature", "geometry": {"type": "Point", "coordinates": [121.617119, 25.221603]}, "properties": {"point_sid": 15277, "dist": "金山區", "vil": "六股里", "point_name": "下六股52號", "point_type_primary": "臨停清運點", "point_type_summary": "臨停清運點", "schedule_summary": "19:38", "source_type_codes": "9"}}, {"type": "Feature", "geometry": {"type": "Point", "coordinates": [121.616539, 25.221651]}, "properties": {"point_sid": 7510, "dist": "金山區", "vil": "六股里", "point_name": "下六股52之1號路口", "point_type_primary": "臨停清運點", "point_type_summary": "臨停清運點", "schedule_summary": "19:38", "source_type_codes": "9"}}, {"type": "Feature", "geometry": {"type": "Point", "coordinates": [121.615257, 25.222166]}, "properties": {"point_sid": 9163, "dist": "金山區", "vil": "六股里", "point_name": "下六股59號", "point_type_primary": "臨停清運點", "point_type_summary": "臨停清運點", "schedule_summary": "19:38", "source_type_codes": "9"}}, {"type": "Feature", "geometry": {"type": "Point", "coordinates": [121.614548, 25.22319]}, "properties": {"point_sid": 11711, "dist": "金山區", "vil": "六股里", "point_name": "六股活動中心", "point_type_primary": "臨停清運點", "point_type_summary": "臨停清運點", "schedule_summary": "19:39", "source_type_codes": "9"}}, {"type": "Feature", "geometry": {"type": "Point", "coordinates": [121.611687, 25.221943]}, "properties": {"point_sid": 14020, "dist": "金山區", "vil": "六股里", "point_name": "頂六股6鄰6號路口", "point_type_primary": "臨停清運點", "point_type_summary": "臨停清運點", "schedule_summary": "19:41", "source_type_codes": "9"}}, {"type": "Feature", "geometry": {"type": "Point", "coordinates": [121.610313, 25.22226]}, "properties": {"point_sid": 5794, "dist": "金山區", "vil": "六股里", "point_name": "六股林口2號", "point_type_primary": "臨停清運點", "point_type_summary": "臨停清運點", "schedule_summary": "19:42", "source_type_codes": "9"}}, {"type": "Feature", "geometry": {"type": "Point", "coordinates": [121.609619, 25.222105]}, "properties": {"point_sid": 74, "dist": "金山區", "vil": "六股里", "point_name": "六股林口6號", "point_type_primary": "臨停清運點", "point_type_summary": "臨停清運點", "schedule_summary": "19:42", "source_type_codes": "9"}}, {"type": "Feature", "geometry": {"type": "Point", "coordinates": [121.609184, 25.221968]}, "properties": {"point_sid": 15498, "dist": "金山區", "vil": "六股里", "point_name": "六股林口4號路口", "point_type_primary": "臨停清運點", "point_type_summary": "臨停清運點", "schedule_summary": "19:42", "source_type_codes": "9"}}, {"type": "Feature", "geometry": {"type": "Point", "coordinates": [121.60778, 25.223078]}, "properties": {"point_sid": 2985, "dist": "金山區", "vil": "重和里", "point_name": "六股林口5之5號(三叉路口)", "point_type_primary": "臨停清運點", "point_type_summary": "臨停清運點", "schedule_summary": "19:43", "source_type_codes": "9"}}, {"type": "Feature", "geometry": {"type": "Point", "coordinates": [121.605705, 25.222267]}, "properties": {"point_sid": 11659, "dist": "金山區", "vil": "重和里", "point_name": "六股林口15號", "point_type_primary": "臨停清運點", "point_type_summary": "臨停清運點", "schedule_summary": "19:43", "source_type_codes": "9"}}, {"type": "Feature", "geometry": {"type": "Point", "coordinates": [121.604897, 25.221678]}, "properties": {"point_sid": 5863, "dist": "金山區", "vil": "重和里", "point_name": "六股林口17號", "point_type_primary": "臨停清運點", "point_type_summary": "臨停清運點", "schedule_summary": "19:43", "source_type_codes": "9"}}, {"type": "Feature", "geometry": {"type": "Point", "coordinates": [121.602463, 25.21941]}, "properties": {"point_sid": 5037, "dist": "金山區", "vil": "重和里", "point_name": "六股林口39號(美利商店)", "point_type_primary": "臨停清運點", "point_type_summary": "臨停清運點", "schedule_summary": "19:47", "source_type_codes": "9"}}, {"type": "Feature", "geometry": {"type": "Point", "coordinates": [121.630129474868, 25.2370577235469]}, "properties": {"point_sid": 13552, "dist": "金山區", "vil": "萬壽里", "point_name": "海興路10號(淡金公路)", "point_type_primary": "臨停清運點", "point_type_summary": "臨停清運點", "schedule_summary": "19:48", "source_type_codes": "9"}}, {"type": "Feature", "geometry": {"type": "Point", "coordinates": [121.630376847885, 25.2374374762387]}, "properties": {"point_sid": 7854, "dist": "金山區", "vil": "萬壽里", "point_name": "海興路18號(淡金公路)", "point_type_primary": "臨停清運點", "point_type_summary": "臨停清運點", "schedule_summary": "19:48", "source_type_codes": "9"}}, {"type": "Feature", "geometry": {"type": "Point", "coordinates": [121.631358119049, 25.23868924885]}, "properties": {"point_sid": 8786, "dist": "金山區", "vil": "萬壽里", "point_name": "海興路112號(淡金公路)", "point_type_primary": "臨停清運點", "point_type_summary": "臨停清運點", "schedule_summary": "19:49", "source_type_codes": "9"}}, {"type": "Feature", "geometry": {"type": "Point", "coordinates": [121.632379474868, 25.2394591357769]}, "properties": {"point_sid": 5090, "dist": "金山區", "vil": "萬壽里", "point_name": "海興路132號(淡金公路)", "point_type_primary": "臨停清運點", "point_type_summary": "臨停清運點", "schedule_summary": "19:50", "source_type_codes": "9"}}, {"type": "Feature", "geometry": {"type": "Point", "coordinates": [121.633361322753, 25.2404710451585]}, "properties": {"point_sid": 2890, "dist": "金山區", "vil": "萬壽里", "point_name": "北海岸咖啡(淡金公路)", "point_type_primary": "臨停清運點", "point_type_summary": "臨停清運點", "schedule_summary": "19:51", "source_type_codes": "9"}}, {"type": "Feature", "geometry": {"type": "Point", "coordinates": [121.596649, 25.210043]}, "properties": {"point_sid": 886, "dist": "金山區", "vil": "重和里", "point_name": "林口27號", "point_type_primary": "臨停清運點", "point_type_summary": "臨停清運點", "schedule_summary": "19:51", "source_type_codes": "9"}}, {"type": "Feature", "geometry": {"type": "Point", "coordinates": [121.597122, 25.210455]}, "properties": {"point_sid": 6221, "dist": "金山區", "vil": "重和里", "point_name": "林口15號", "point_type_primary": "臨停清運點", "point_type_summary": "臨停清運點", "schedule_summary": "19:51", "source_type_codes": "9"}}, {"type": "Feature", "geometry": {"type": "Point", "coordinates": [121.598877, 25.211552]}, "properties": {"point_sid": 4227, "dist": "金山區", "vil": "重和里", "point_name": "林口11號(華豐鐵工廠)", "point_type_primary": "臨停清運點", "point_type_summary": "臨停清運點", "schedule_summary": "19:52", "source_type_codes": "9"}}, {"type": "Feature", "geometry": {"type": "Point", "coordinates": [121.599541, 25.211962]}, "properties": {"point_sid": 13871, "dist": "金山區", "vil": "重和里", "point_name": "林口7號", "point_type_primary": "臨停清運點", "point_type_summary": "臨停清運點", "schedule_summary": "19:53", "source_type_codes": "9"}}, {"type": "Feature", "geometry": {"type": "Point", "coordinates": [121.601505017196, 25.2132044665693]}, "properties": {"point_sid": 2257, "dist": "金山區", "vil": "重和里", "point_name": "茅埔頭22之1號檳榔攤(陽金公路)", "point_type_primary": "臨停清運點", "point_type_summary": "臨停清運點", "schedule_summary": "19:53", "source_type_codes": "9"}}, {"type": "Feature", "geometry": {"type": "Point", "coordinates": [121.630646, 25.263542]}, "properties": {"point_sid": 13425, "dist": "金山區", "vil": "永興里", "point_name": "忠義路39之1號(洋荳子)", "point_type_primary": "臨停清運點", "point_type_summary": "臨停清運點", "schedule_summary": "19:54", "source_type_codes": "9"}}, {"type": "Feature", "geometry": {"type": "Point", "coordinates": [121.633232, 25.218901]}, "properties": {"point_sid": 22786, "dist": "金山區", "vil": "五湖里", "point_name": "環金路201號(勝峰輪胎)", "point_type_primary": "臨停清運點", "point_type_summary": "臨停清運點", "schedule_summary": "19:54", "source_type_codes": "9"}}, {"type": "Feature", "geometry": {"type": "Point", "coordinates": [121.604116203704, 25.2167088807779]}, "properties": {"point_sid": 6556, "dist": "金山區", "vil": "重和里", "point_name": "茅埔頭8號(陽金公路)", "point_type_primary": "臨停清運點", "point_type_summary": "臨停清運點", "schedule_summary": "19:54", "source_type_codes": "9"}}, {"type": "Feature", "geometry": {"type": "Point", "coordinates": [121.629395, 25.265261]}, "properties": {"point_sid": 21, "dist": "金山區", "vil": "永興里", "point_name": "中角派出所(淡金公路)", "point_type_primary": "臨停清運點", "point_type_summary": "臨停清運點", "schedule_summary": "19:56", "source_type_codes": "9"}}, {"type": "Feature", "geometry": {"type": "Point", "coordinates": [121.623740262565, 25.271199022301]}, "properties": {"point_sid": 7704, "dist": "金山區", "vil": "永興里", "point_name": "濆水8號(淡金公路)", "point_type_primary": "臨停清運點", "point_type_summary": "臨停清運點", "schedule_summary": "19:56", "source_type_codes": "9"}}, {"type": "Feature", "geometry": {"type": "Point", "coordinates": [121.638031, 25.2174]}, "properties": {"point_sid": 22788, "dist": "金山區", "vil": "五湖里", "point_name": "環金路69號", "point_type_primary": "臨停清運點", "point_type_summary": "臨停清運點", "schedule_summary": "19:56", "source_type_codes": "9"}}, {"type": "Feature", "geometry": {"type": "Point", "coordinates": [121.616051, 25.218147]}, "properties": {"point_sid": 11302, "dist": "金山區", "vil": "五湖里", "point_name": "南勢湖36號(陽金公路)", "point_type_primary": "臨停清運點", "point_type_summary": "臨停清運點", "schedule_summary": "19:57", "source_type_codes": "9"}}, {"type": "Feature", "geometry": {"type": "Point", "coordinates": [121.621124, 25.219208]}, "properties": {"point_sid": 3325, "dist": "金山區", "vil": "五湖里", "point_name": "南勢湖14號(陽金公路)", "point_type_primary": "臨停清運點", "point_type_summary": "臨停清運點", "schedule_summary": "19:57", "source_type_codes": "9"}}, {"type": "Feature", "geometry": {"type": "Point", "coordinates": [121.621735, 25.219349]}, "properties": {"point_sid": 1760, "dist": "金山區", "vil": "五湖里", "point_name": "南勢湖4號(陽金公路)", "point_type_primary": "臨停清運點", "point_type_summary": "臨停清運點", "schedule_summary": "19:58", "source_type_codes": "9"}}, {"type": "Feature", "geometry": {"type": "Point", "coordinates": [121.623161, 25.219589]}, "properties": {"point_sid": 6761, "dist": "金山區", "vil": "五湖里", "point_name": "南勢101號(陽金公路)", "point_type_primary": "臨停清運點", "point_type_summary": "臨停清運點", "schedule_summary": "19:58", "source_type_codes": "9"}}, {"type": "Feature", "geometry": {"type": "Point", "coordinates": [121.631548440475, 25.2613351886247]}, "properties": {"point_sid": 22797, "dist": "金山區", "vil": "永興里", "point_name": "忠義路30號(淡金公路)", "point_type_primary": "臨停清運點", "point_type_summary": "臨停清運點", "schedule_summary": "19:59", "source_type_codes": "9"}}, {"type": "Feature", "geometry": {"type": "Point", "coordinates": [121.625359, 25.220024]}, "properties": {"point_sid": 14073, "dist": "金山區", "vil": "五湖里", "point_name": "南勢81號(陽金公路)", "point_type_primary": "臨停清運點", "point_type_summary": "臨停清運點", "schedule_summary": "19:59", "source_type_codes": "9"}}, {"type": "Feature", "geometry": {"type": "Point", "coordinates": [121.627958167983, 25.2205208781594]}, "properties": {"point_sid": 14827, "dist": "金山區", "vil": "五湖里", "point_name": "南勢40號巷口(陽金公路)", "point_type_primary": "臨停清運點", "point_type_summary": "臨停清運點", "schedule_summary": "19:59", "source_type_codes": "9"}}, {"type": "Feature", "geometry": {"type": "Point", "coordinates": [121.632329813491, 25.2600552676227]}, "properties": {"point_sid": 2497, "dist": "金山區", "vil": "永興里", "point_name": "忠義路2號(阿秀海鮮)", "point_type_primary": "臨停清運點", "point_type_summary": "臨停清運點", "schedule_summary": "20:00", "source_type_codes": "9"}}, {"type": "Feature", "geometry": {"type": "Point", "coordinates": [121.638741, 25.217405]}, "properties": {"point_sid": 22790, "dist": "金山區", "vil": "五湖里", "point_name": "環金路76號", "point_type_primary": "臨停清運點", "point_type_summary": "臨停清運點", "schedule_summary": "20:00", "source_type_codes": "9"}}, {"type": "Feature", "geometry": {"type": "Point", "coordinates": [121.628709543655, 25.2206736487623]}, "properties": {"point_sid": 3271, "dist": "金山區", "vil": "五湖里", "point_name": "南勢46號(陽金公路)", "point_type_primary": "臨停清運點", "point_type_summary": "臨停清運點", "schedule_summary": "20:00", "source_type_codes": "9"}}, {"type": "Feature", "geometry": {"type": "Point", "coordinates": [121.634392, 25.247791]}, "properties": {"point_sid": 17448, "dist": "金山區", "vil": "萬壽里", "point_name": "香?園1號(我的太陽)", "point_type_primary": "臨停清運點", "point_type_summary": "臨停清運點", "schedule_summary": "20:01", "source_type_codes": "9"}}, {"type": "Feature", "geometry": {"type": "Point", "coordinates": [121.637497, 25.217545]}, "properties": {"point_sid": 22791, "dist": "金山區", "vil": "五湖里", "point_name": "環金路108號", "point_type_primary": "臨停清運點", "point_type_summary": "臨停清運點", "schedule_summary": "20:01", "source_type_codes": "9"}}, {"type": "Feature", "geometry": {"type": "Point", "coordinates": [121.63308793254, 25.2194477912299]}, "properties": {"point_sid": 22792, "dist": "金山區", "vil": "金美里", "point_name": "環金路286號(藝軒)", "point_type_primary": "臨停清運點", "point_type_summary": "臨停清運點", "schedule_summary": "20:01", "source_type_codes": "9"}}, {"type": "Feature", "geometry": {"type": "Point", "coordinates": [121.63208446627, 25.2210325303275]}, "properties": {"point_sid": 22793, "dist": "金山區", "vil": "金美里", "point_name": "環金路336號", "point_type_primary": "臨停清運點", "point_type_summary": "臨停清運點", "schedule_summary": "20:01", "source_type_codes": "9"}}, {"type": "Feature", "geometry": {"type": "Point", "coordinates": [121.62899, 25.219597]}, "properties": {"point_sid": 2322, "dist": "金山區", "vil": "五湖里", "point_name": "金山醫院大門前", "point_type_primary": "臨停清運點", "point_type_summary": "臨停清運點", "schedule_summary": "20:01", "source_type_codes": "9"}}, {"type": "Feature", "geometry": {"type": "Point", "coordinates": [121.631621746032, 25.2225084556802]}, "properties": {"point_sid": 22794, "dist": "金山區", "vil": "美田里", "point_name": "環金路378號", "point_type_primary": "臨停清運點", "point_type_summary": "臨停清運點", "schedule_summary": "20:02", "source_type_codes": "9"}}, {"type": "Feature", "geometry": {"type": "Point", "coordinates": [121.631605652778, 25.2225327205423]}, "properties": {"point_sid": 22795, "dist": "金山區", "vil": "美田里", "point_name": "環金路462號(農會加油站)", "point_type_primary": "臨停清運點", "point_type_summary": "臨停清運點", "schedule_summary": "20:02", "source_type_codes": "9"}}, {"type": "Feature", "geometry": {"type": "Point", "coordinates": [121.633095, 25.24053]}, "properties": {"point_sid": 12888, "dist": "金山區", "vil": "萬壽里", "point_name": "海興路85之3號(淡金公路)", "point_type_primary": "臨停清運點", "point_type_summary": "臨停清運點", "schedule_summary": "20:03", "source_type_codes": "9"}}, {"type": "Feature", "geometry": {"type": "Point", "coordinates": [121.630981, 25.238594]}, "properties": {"point_sid": 12975, "dist": "金山區", "vil": "萬壽里", "point_name": "海興路41之1號(檳榔攤)", "point_type_primary": "臨停清運點", "point_type_summary": "臨停清運點", "schedule_summary": "20:05", "source_type_codes": "9"}}, {"type": "Feature", "geometry": {"type": "Point", "coordinates": [121.630692, 25.238239]}, "properties": {"point_sid": 1945, "dist": "金山區", "vil": "萬壽里", "point_name": "海興路41號(淡金公路)", "point_type_primary": "臨停清運點", "point_type_summary": "臨停清運點", "schedule_summary": "20:05", "source_type_codes": "9"}}, {"type": "Feature", "geometry": {"type": "Point", "coordinates": [121.630089, 25.237387]}, "properties": {"point_sid": 8836, "dist": "金山區", "vil": "萬壽里", "point_name": "海興路29號(回收場)", "point_type_primary": "臨停清運點", "point_type_summary": "臨停清運點", "schedule_summary": "20:06", "source_type_codes": "9"}}, {"type": "Feature", "geometry": {"type": "Point", "coordinates": [121.629562, 25.236595]}, "properties": {"point_sid": 3721, "dist": "金山區", "vil": "萬壽里", "point_name": "法鼓山路口(淡金公路)", "point_type_primary": "臨停清運點", "point_type_summary": "臨停清運點", "schedule_summary": "20:07", "source_type_codes": "9"}}, {"type": "Feature", "geometry": {"type": "Point", "coordinates": [121.641579, 25.166664]}, "properties": {"point_sid": 8299, "dist": "萬里區", "vil": "雙興里", "point_name": "二坪37號(車站牌)", "point_type_primary": "臨停清運點", "point_type_summary": "臨停清運點", "schedule_summary": "12:53", "source_type_codes": "9"}}, {"type": "Feature", "geometry": {"type": "Point", "coordinates": [121.6312137, 25.16876676]}, "properties": {"point_sid": 6239, "dist": "萬里區", "vil": "雙興里", "point_name": "大坪路50號(涼心公園)", "point_type_primary": "臨停清運點", "point_type_summary": "臨停清運點", "schedule_summary": "13:00", "source_type_codes": "9"}}, {"type": "Feature", "geometry": {"type": "Point", "coordinates": [121.636063, 25.160976]}, "properties": {"point_sid": 342, "dist": "萬里區", "vil": "溪底里", "point_name": "香員林17號", "point_type_primary": "臨停清運點", "point_type_summary": "臨停清運點", "schedule_summary": "13:10", "source_type_codes": "9"}}, {"type": "Feature", "geometry": {"type": "Point", "coordinates": [121.640427, 25.159794]}, "properties": {"point_sid": 9682, "dist": "萬里區", "vil": "溪底里", "point_name": "內崁2-1號", "point_type_primary": "臨停清運點", "point_type_summary": "臨停清運點", "schedule_summary": "13:12", "source_type_codes": "9"}}, {"type": "Feature", "geometry": {"type": "Point", "coordinates": [121.679815, 25.190149]}, "properties": {"point_sid": 7350, "dist": "萬里區", "vil": "龜吼里", "point_name": "海景路42號", "point_type_primary": "臨停清運點", "point_type_summary": "臨停清運點", "schedule_summary": "13:20", "source_type_codes": "9"}}, {"type": "Feature", "geometry": {"type": "Point", "coordinates": [121.6394274, 25.21371775]}, "properties": {"point_sid": 14663, "dist": "萬里區", "vil": "磺潭里", "point_name": "公館崙25號(土地公)", "point_type_primary": "臨停清運點", "point_type_summary": "臨停清運點", "schedule_summary": "13:51", "source_type_codes": "9"}}, {"type": "Feature", "geometry": {"type": "Point", "coordinates": [121.644989, 25.154715]}, "properties": {"point_sid": 15685, "dist": "萬里區", "vil": "崁腳里", "point_name": "崁腳173號", "point_type_primary": "臨停清運點", "point_type_summary": "臨停清運點", "schedule_summary": "13:52", "source_type_codes": "9"}}, {"type": "Feature", "geometry": {"type": "Point", "coordinates": [121.628983, 25.206506]}, "properties": {"point_sid": 8795, "dist": "萬里區", "vil": "磺潭里", "point_name": "公館崙49號", "point_type_primary": "臨停清運點", "point_type_summary": "臨停清運點", "schedule_summary": "13:57", "source_type_codes": "9"}}, {"type": "Feature", "geometry": {"type": "Point", "coordinates": [121.632538, 25.15056]}, "properties": {"point_sid": 7314, "dist": "萬里區", "vil": "溪底里", "point_name": "烏塗炭10號", "point_type_primary": "臨停清運點", "point_type_summary": "臨停清運點", "schedule_summary": "14:00", "source_type_codes": "9"}}, {"type": "Feature", "geometry": {"type": "Point", "coordinates": [121.621223, 25.148592]}, "properties": {"point_sid": 12186, "dist": "萬里區", "vil": "溪底里", "point_name": "溪底8號口", "point_type_primary": "臨停清運點", "point_type_summary": "臨停清運點", "schedule_summary": "14:06", "source_type_codes": "9"}}, {"type": "Feature", "geometry": {"type": "Point", "coordinates": [121.603718, 25.144993]}, "properties": {"point_sid": 10553, "dist": "萬里區", "vil": "溪底里", "point_name": "瑞泉21號", "point_type_primary": "臨停清運點", "point_type_summary": "臨停清運點", "schedule_summary": "14:10", "source_type_codes": "9"}}, {"type": "Feature", "geometry": {"type": "Point", "coordinates": [121.6236297, 25.156078]}, "properties": {"point_sid": 10271, "dist": "萬里區", "vil": "溪底里", "point_name": "富士坪7號路口(溪底分校)", "point_type_primary": "臨停清運點", "point_type_summary": "臨停清運點", "schedule_summary": "14:28", "source_type_codes": "9"}}, {"type": "Feature", "geometry": {"type": "Point", "coordinates": [121.645424, 25.200806]}, "properties": {"point_sid": 14811, "dist": "萬里區", "vil": "磺潭里", "point_name": "清水路8號", "point_type_primary": "臨停清運點", "point_type_summary": "臨停清運點", "schedule_summary": "14:30", "source_type_codes": "9"}}, {"type": "Feature", "geometry": {"type": "Point", "coordinates": [121.646652, 25.198009]}, "properties": {"point_sid": 4952, "dist": "萬里區", "vil": "磺潭里", "point_name": "員潭路16號", "point_type_primary": "臨停清運點", "point_type_summary": "臨停清運點", "schedule_summary": "14:36", "source_type_codes": "9"}}, {"type": "Feature", "geometry": {"type": "Point", "coordinates": [121.641076, 25.188538]}, "properties": {"point_sid": 4992, "dist": "萬里區", "vil": "雙興里", "point_name": "豐廩路26號", "point_type_primary": "臨停清運點", "point_type_summary": "臨停清運點", "schedule_summary": "14:43", "source_type_codes": "9"}}, {"type": "Feature", "geometry": {"type": "Point", "coordinates": [121.642183, 25.182214]}, "properties": {"point_sid": 632, "dist": "萬里區", "vil": "雙興里", "point_name": "達天路19-1號", "point_type_primary": "臨停清運點", "point_type_summary": "臨停清運點", "schedule_summary": "14:46", "source_type_codes": "9"}}, {"type": "Feature", "geometry": {"type": "Point", "coordinates": [121.645966, 25.180185]}, "properties": {"point_sid": 3101, "dist": "萬里區", "vil": "雙興里", "point_name": "豐廩路32-2號", "point_type_primary": "臨停清運點", "point_type_summary": "臨停清運點", "schedule_summary": "14:52", "source_type_codes": "9"}}, {"type": "Feature", "geometry": {"type": "Point", "coordinates": [121.653092, 25.175059]}, "properties": {"point_sid": 13253, "dist": "萬里區", "vil": "雙興里", "point_name": "二坪路9號", "point_type_primary": "臨停清運點", "point_type_summary": "臨停清運點", "schedule_summary": "14:56", "source_type_codes": "9"}}, {"type": "Feature", "geometry": {"type": "Point", "coordinates": [121.650623, 25.186068]}, "properties": {"point_sid": 4360, "dist": "萬里區", "vil": "雙興里", "point_name": "豐廩路6-3號", "point_type_primary": "臨停清運點", "point_type_summary": "臨停清運點", "schedule_summary": "15:06", "source_type_codes": "9"}}, {"type": "Feature", "geometry": {"type": "Point", "coordinates": [121.649404, 25.187795]}, "properties": {"point_sid": 10126, "dist": "萬里區", "vil": "雙興里", "point_name": "麗水路8-1號", "point_type_primary": "臨停清運點", "point_type_summary": "臨停清運點", "schedule_summary": "15:10", "source_type_codes": "9"}}, {"type": "Feature", "geometry": {"type": "Point", "coordinates": [121.645325, 25.193243]}, "properties": {"point_sid": 4838, "dist": "萬里區", "vil": "磺潭里", "point_name": "員潭路48-1號", "point_type_primary": "臨停清運點", "point_type_summary": "臨停清運點", "schedule_summary": "15:12", "source_type_codes": "9"}}, {"type": "Feature", "geometry": {"type": "Point", "coordinates": [121.649719, 25.160086]}, "properties": {"point_sid": 120, "dist": "萬里區", "vil": "崁腳里", "point_name": "崁腳55-1號(崁腳活動中心)", "point_type_primary": "臨停清運點", "point_type_summary": "臨停清運點", "schedule_summary": "15:13", "source_type_codes": "9"}}, {"type": "Feature", "geometry": {"type": "Point", "coordinates": [121.651489, 25.160454]}, "properties": {"point_sid": 14726, "dist": "萬里區", "vil": "崁腳里", "point_name": "崁腳24號", "point_type_primary": "臨停清運點", "point_type_summary": "臨停清運點", "schedule_summary": "15:14", "source_type_codes": "9"}}, {"type": "Feature", "geometry": {"type": "Point", "coordinates": [121.6692846, 25.16547398]}, "properties": {"point_sid": 10780, "dist": "萬里區", "vil": "崁腳里", "point_name": "內中幅路22號(大樹下)", "point_type_primary": "臨停清運點", "point_type_summary": "臨停清運點", "schedule_summary": "15:25", "source_type_codes": "9"}}, {"type": "Feature", "geometry": {"type": "Point", "coordinates": [121.683151, 25.189337]}, "properties": {"point_sid": 3492, "dist": "萬里區", "vil": "龜吼里", "point_name": "古亭3號路口(保安宮)", "point_type_primary": "臨停清運點", "point_type_summary": "臨停清運點", "schedule_summary": "17:30", "source_type_codes": "9"}}, {"type": "Feature", "geometry": {"type": "Point", "coordinates": [121.684097, 25.191641]}, "properties": {"point_sid": 14940, "dist": "萬里區", "vil": "龜吼里", "point_name": "石角路18號", "point_type_primary": "臨停清運點", "point_type_summary": "臨停清運點", "schedule_summary": "17:35", "source_type_codes": "9"}}, {"type": "Feature", "geometry": {"type": "Point", "coordinates": [121.684158, 25.191725]}, "properties": {"point_sid": 12236, "dist": "萬里區", "vil": "龜吼里", "point_name": "石角路21號", "point_type_primary": "臨停清運點", "point_type_summary": "臨停清運點", "schedule_summary": "17:36", "source_type_codes": "9"}}, {"type": "Feature", "geometry": {"type": "Point", "coordinates": [121.686371, 25.194204]}, "properties": {"point_sid": 9992, "dist": "萬里區", "vil": "龜吼里", "point_name": "漁澳路2號(餐廳)", "point_type_primary": "臨停清運點", "point_type_summary": "臨停清運點", "schedule_summary": "17:37", "source_type_codes": "9"}}, {"type": "Feature", "geometry": {"type": "Point", "coordinates": [121.68615, 25.195]}, "properties": {"point_sid": 6972, "dist": "萬里區", "vil": "龜吼里", "point_name": "漁澳路26號", "point_type_primary": "臨停清運點", "point_type_summary": "臨停清運點", "schedule_summary": "17:45", "source_type_codes": "9"}}, {"type": "Feature", "geometry": {"type": "Point", "coordinates": [121.686302, 25.194355]}, "properties": {"point_sid": 1236, "dist": "萬里區", "vil": "龜吼里", "point_name": "漁澳路5-1號(順天宮)", "point_type_primary": "臨停清運點", "point_type_summary": "臨停清運點", "schedule_summary": "17:47", "source_type_codes": "9"}}, {"type": "Feature", "geometry": {"type": "Point", "coordinates": [121.690346, 25.204252]}, "properties": {"point_sid": 7265, "dist": "萬里區", "vil": "野柳里", "point_name": "港東路167-3號(攤販街口)", "point_type_primary": "臨停清運點", "point_type_summary": "臨停清運點", "schedule_summary": "18:10", "source_type_codes": "9"}}, {"type": "Feature", "geometry": {"type": "Point", "coordinates": [121.689827, 25.205151]}, "properties": {"point_sid": 10130, "dist": "萬里區", "vil": "野柳里", "point_name": "港東路167(野柳國小)", "point_type_primary": "臨停清運點", "point_type_summary": "臨停清運點", "schedule_summary": "18:11", "source_type_codes": "9"}}, {"type": "Feature", "geometry": {"type": "Point", "coordinates": [121.68541, 25.203114]}, "properties": {"point_sid": 6024, "dist": "萬里區", "vil": "野柳里", "point_name": "港東新村1-2號", "point_type_primary": "臨停清運點", "point_type_summary": "臨停清運點", "schedule_summary": "18:25", "source_type_codes": "9"}}, {"type": "Feature", "geometry": {"type": "Point", "coordinates": [121.657181, 25.209717]}, "properties": {"point_sid": 7172, "dist": "萬里區", "vil": "大鵬里", "point_name": "頂社1號(便利商店)", "point_type_primary": "臨停清運點", "point_type_summary": "臨停清運點", "schedule_summary": "19:00", "source_type_codes": "9"}}, {"type": "Feature", "geometry": {"type": "Point", "coordinates": [121.654968, 25.209208]}, "properties": {"point_sid": 9291, "dist": "萬里區", "vil": "大鵬里", "point_name": "頂社71-1號", "point_type_primary": "臨停清運點", "point_type_summary": "臨停清運點", "schedule_summary": "19:10", "source_type_codes": "9"}}, {"type": "Feature", "geometry": {"type": "Point", "coordinates": [121.646004, 25.211309]}, "properties": {"point_sid": 10376, "dist": "萬里區", "vil": "大鵬里", "point_name": "加投路78-1號", "point_type_primary": "臨停清運點", "point_type_summary": "臨停清運點", "schedule_summary": "19:15", "source_type_codes": "9"}}, {"type": "Feature", "geometry": {"type": "Point", "coordinates": [121.646545, 25.210279]}, "properties": {"point_sid": 10827, "dist": "萬里區", "vil": "大鵬里", "point_name": "加投路32-3號", "point_type_primary": "臨停清運點", "point_type_summary": "臨停清運點", "schedule_summary": "19:16", "source_type_codes": "9"}}, {"type": "Feature", "geometry": {"type": "Point", "coordinates": [121.646777, 25.208713]}, "properties": {"point_sid": 14914, "dist": "萬里區", "vil": "大鵬里", "point_name": "加投路29-3號", "point_type_primary": "臨停清運點", "point_type_summary": "臨停清運點", "schedule_summary": "19:18", "source_type_codes": "9"}}, {"type": "Feature", "geometry": {"type": "Point", "coordinates": [121.646978, 25.208131]}, "properties": {"point_sid": 13544, "dist": "萬里區", "vil": "大鵬里", "point_name": "加投路28-1號", "point_type_primary": "臨停清運點", "point_type_summary": "臨停清運點", "schedule_summary": "19:20", "source_type_codes": "9"}}, {"type": "Feature", "geometry": {"type": "Point", "coordinates": [121.6461766, 25.21283028]}, "properties": {"point_sid": 4104, "dist": "萬里區", "vil": "大鵬里", "point_name": "加投路95號", "point_type_primary": "臨停清運點", "point_type_summary": "臨停清運點", "schedule_summary": "19:25", "source_type_codes": "9"}}, {"type": "Feature", "geometry": {"type": "Point", "coordinates": [121.645552, 25.22071]}, "properties": {"point_sid": 1107, "dist": "萬里區", "vil": "大鵬里", "point_name": "加投路205-5號", "point_type_primary": "臨停清運點", "point_type_summary": "臨停清運點", "schedule_summary": "19:43", "source_type_codes": "9"}}, {"type": "Feature", "geometry": {"type": "Point", "coordinates": [121.646292, 25.221162]}, "properties": {"point_sid": 5881, "dist": "萬里區", "vil": "大鵬里", "point_name": "下社路10號", "point_type_primary": "臨停清運點", "point_type_summary": "臨停清運點", "schedule_summary": "19:45", "source_type_codes": "9"}}, {"type": "Feature", "geometry": {"type": "Point", "coordinates": [121.647213, 25.21971]}, "properties": {"point_sid": 15722, "dist": "萬里區", "vil": "大鵬里", "point_name": "下社路3-3號(電台)", "point_type_primary": "臨停清運點", "point_type_summary": "臨停清運點", "schedule_summary": "19:47", "source_type_codes": "9"}}, {"type": "Feature", "geometry": {"type": "Point", "coordinates": [121.648376, 25.215731]}, "properties": {"point_sid": 10564, "dist": "萬里區", "vil": "大鵬里", "point_name": "下社路15-6號", "point_type_primary": "臨停清運點", "point_type_summary": "臨停清運點", "schedule_summary": "19:51", "source_type_codes": "9"}}, {"type": "Feature", "geometry": {"type": "Point", "coordinates": [121.646796, 25.21709]}, "properties": {"point_sid": 14662, "dist": "萬里區", "vil": "大鵬里", "point_name": "加投路300號", "point_type_primary": "臨停清運點", "point_type_summary": "臨停清運點", "schedule_summary": "19:53", "source_type_codes": "9"}}, {"type": "Feature", "geometry": {"type": "Point", "coordinates": [121.642408, 25.212959]}, "properties": {"point_sid": 3846, "dist": "萬里區", "vil": "大鵬里", "point_name": "加投路45-1號(水田園)", "point_type_primary": "臨停清運點", "point_type_summary": "臨停清運點", "schedule_summary": "19:59", "source_type_codes": "9"}}, {"type": "Feature", "geometry": {"type": "Point", "coordinates": [121.640761, 25.209642]}, "properties": {"point_sid": 6254, "dist": "萬里區", "vil": "大鵬里", "point_name": "加投路41-2號", "point_type_primary": "臨停清運點", "point_type_summary": "臨停清運點", "schedule_summary": "20:01", "source_type_codes": "9"}}, {"type": "Feature", "geometry": {"type": "Point", "coordinates": [121.643544, 25.215343]}, "properties": {"point_sid": 15381, "dist": "萬里區", "vil": "大鵬里", "point_name": "加投路63-5號", "point_type_primary": "臨停清運點", "point_type_summary": "臨停清運點", "schedule_summary": "20:04", "source_type_codes": "9"}}, {"type": "Feature", "geometry": {"type": "Point", "coordinates": [121.6443752, 25.21447297]}, "properties": {"point_sid": 96, "dist": "萬里區", "vil": "大鵬里", "point_name": "加投路132-1號", "point_type_primary": "臨停清運點", "point_type_summary": "臨停清運點", "schedule_summary": "20:11", "source_type_codes": "9"}}, {"type": "Feature", "geometry": {"type": "Point", "coordinates": [121.644599, 25.214183]}, "properties": {"point_sid": 15085, "dist": "萬里區", "vil": "大鵬里", "point_name": "加投路82-1號", "point_type_primary": "臨停清運點", "point_type_summary": "臨停清運點", "schedule_summary": "20:13", "source_type_codes": "9"}}, {"type": "Feature", "geometry": {"type": "Point", "coordinates": [121.649118, 25.210038]}, "properties": {"point_sid": 1105, "dist": "萬里區", "vil": "大鵬里", "point_name": "加投路21-9號", "point_type_primary": "臨停清運點", "point_type_summary": "臨停清運點", "schedule_summary": "20:14", "source_type_codes": "9"}}, {"type": "Feature", "geometry": {"type": "Point", "coordinates": [121.650068, 25.209347]}, "properties": {"point_sid": 14806, "dist": "萬里區", "vil": "大鵬里", "point_name": "加投路14號(大鵬國小)", "point_type_primary": "臨停清運點", "point_type_summary": "臨停清運點", "schedule_summary": "20:17", "source_type_codes": "9"}}, {"type": "Feature", "geometry": {"type": "Point", "coordinates": [121.6522952, 25.20873301]}, "properties": {"point_sid": 13697, "dist": "萬里區", "vil": "大鵬里", "point_name": "頂社路5號", "point_type_primary": "臨停清運點", "point_type_summary": "臨停清運點", "schedule_summary": "20:20", "source_type_codes": "9"}}, {"type": "Feature", "geometry": {"type": "Point", "coordinates": [121.68379365641408, 25.191547094449618]}, "properties": {"point_sid": 10008, "dist": "萬里區", "vil": "龜吼里", "point_name": "玉田路14-3號", "point_type_primary": "臨停清運點", "point_type_summary": "臨停清運點", "schedule_summary": "20:25", "source_type_codes": "9"}}, {"type": "Feature", "geometry": {"type": "Point", "coordinates": [121.68367472023772, 25.19133698971964]}, "properties": {"point_sid": 7871, "dist": "萬里區", "vil": "龜吼里", "point_name": "石角路13號", "point_type_primary": "臨停清運點", "point_type_summary": "臨停清運點", "schedule_summary": "20:26", "source_type_codes": "9"}}]}