{
  "type": "FeatureCollection",
  "features": [
    {
      "type": "Feature",
      "properties": {
        "name": "北投垃圾焚化廠",
        "district": "北投區",
        "city": "臺北市",
        "capacity_ratio": 0.6884,
        "capacity_ratio_pct": "68.84%",
        "total_volume": 1800
      },
      "geometry": {
        "type": "Point",
        "coordinates": [121.499214, 25.107388]
      }
    },
    {
      "type": "Feature",
      "properties": {
        "name": "木柵垃圾焚化廠",
        "district": "文山區",
        "city": "臺北市",
        "capacity_ratio": 0.5839,
        "capacity_ratio_pct": "58.39%",
        "total_volume": 1500
      },
      "geometry": {
        "type": "Point",
        "coordinates": [121.586380, 25.005156]
      }
    },
    {
      "type": "Feature",
      "properties": {
        "name": "內湖垃圾焚化廠",
        "district": "內湖區",
        "city": "臺北市",
        "capacity_ratio": 0.5286,
        "capacity_ratio_pct": "52.86%",
        "total_volume": 900
      },
      "geometry": {
        "type": "Point",
        "coordinates": [121.603439, 25.062841]
      }
    },
    {
      "type": "Feature",
      "properties": {
        "name": "八里垃圾焚化廠",
        "district": "八里區",
        "city": "新北市",
        "capacity_ratio": 0.8997,
        "capacity_ratio_pct": "89.97%",
        "total_volume": 1350
      },
      "geometry": {
        "type": "Point",
        "coordinates": [121.367720, 25.134500]
      }
    },
    {
      "type": "Feature",
      "properties": {
        "name": "新店垃圾焚化廠",
        "district": "新店區",
        "city": "新北市",
        "capacity_ratio": 0.6956,
        "capacity_ratio_pct": "69.56%",
        "total_volume": 900
      },
      "geometry": {
        "type": "Point",
        "coordinates": [121.496719, 24.958290]
      }
    },
    {
      "type": "Feature",
      "properties": {
        "name": "樹林垃圾焚化廠",
        "district": "樹林區",
        "city": "新北市",
        "capacity_ratio": 0.6204,
        "capacity_ratio_pct": "62.04%",
        "total_volume": 1350
      },
      "geometry": {
        "type": "Point",
        "coordinates": [121.380646, 24.966640]
      }
    }
  ]
}
