{"type":"FeatureCollection","features":[{"type":"Feature","geometry":{"type":"Point","coordinates":[121.5988884,25.0536674]},"properties":{"no":"679","county_code":"63000","site_name":"MISS名牌二手衣包收購","tel":"0979-365-000","postal_code":"115","address":"南港路二段B2 (倉庫20巷5號","service_type":"買賣","item":"生活用品類","resolved_county":"臺北市","resolved_district":"南港區","full_address":"臺北市南港區南港路二段B2 (倉庫20巷5號","address_resolve_note":null,"geocode_ok":true,"geocode_provider":"google","geocode_tier":"street","geocode_query":"臺北市南港區南港路二段B2 (倉庫20巷5號"}},{"type":"Feature","geometry":{"type":"Point","coordinates":[121.5534664,24.9878341]},"properties":{"no":"686","county_code":"63000","site_name":"尋寶趣","tel":"無","postal_code":"116","address":"木柵路一段220號","service_type":"捐送,買賣","item":"生活用品類","resolved_county":"臺北市","resolved_district":"文山區","full_address":"臺北市文山區木柵路一段220號","address_resolve_note":null,"geocode_ok":true,"geocode_provider":"google","geocode_tier":"street","geocode_query":"臺北市文山區木柵路一段220號"}},{"type":"Feature","geometry":{"type":"Point","coordinates":[121.5693651,24.9876934]},"properties":{"no":"688","county_code":"63000","site_name":"鼎順專業收購","tel":"0966-607-111","postal_code":"116","address":"集英街2-1號","service_type":"買賣","item":"生活用品類","resolved_county":"臺北市","resolved_district":"文山區","full_address":"臺北市文山區集英街2-1號","address_resolve_note":null,"geocode_ok":true,"geocode_provider":"google","geocode_tier":"street","geocode_query":"臺北市文山區集英街2-1號"}},{"type":"Feature","geometry":{"type":"Point","coordinates":[121.5754639,24.9880316]},"properties":{"no":"689","county_code":"63000","site_name":"潛水鳥","tel":"無","postal_code":"116","address":"指南路二段77巷24號","service_type":"買賣","item":"生活用品類","resolved_county":"臺北市","resolved_district":"文山區","full_address":"臺北市文山區指南路二段77巷24號","address_resolve_note":null,"geocode_ok":true,"geocode_provider":"google","geocode_tier":"street","geocode_query":"臺北市文山區指南路二段77巷24號"}},{"type":"Feature","geometry":{"type":"Point","coordinates":[121.5436616,25.0457293]},"properties":{"no":"693","county_code":"63000","site_name":"RECOVER","tel":"(02)8772-3188","postal_code":"104","address":"復興南路一段36之5號","service_type":"買賣","item":"生活用品類","resolved_county":"臺北市","resolved_district":"中山區","full_address":"臺北市中山區復興南路一段36之5號","address_resolve_note":null,"geocode_ok":true,"geocode_provider":"google","geocode_tier":"street","geocode_query":"臺北市中山區復興南路一段36之5號"}},{"type":"Feature","geometry":{"type":"Point","coordinates":[121.5436058,25.0461161]},"properties":{"no":"705","county_code":"63000","site_name":"優買二手精品名牌店-微風復興店","tel":"(02)8772-2455","postal_code":"104","address":"復興南路一段36-1號","service_type":"買賣","item":"生活用品類","resolved_county":"臺北市","resolved_district":"中山區","full_address":"臺北市中山區復興南路一段36-1號","address_resolve_note":null,"geocode_ok":true,"geocode_provider":"google","geocode_tier":"street","geocode_query":"臺北市中山區復興南路一段36-1號"}},{"type":"Feature","geometry":{"type":"Point","coordinates":[121.5059039,25.0435485]},"properties":{"no":"708","county_code":"63000","site_name":"當肯二手名品","tel":"0953-708-520","postal_code":"108","address":"西寧南路70號1樓29室","service_type":"買賣","item":"生活用品類","resolved_county":"臺北市","resolved_district":"萬華區","full_address":"臺北市萬華區西寧南路70號1樓29室","address_resolve_note":null,"geocode_ok":true,"geocode_provider":"google","geocode_tier":"street","geocode_query":"臺北市萬華區西寧南路70號1樓29室"}},{"type":"Feature","geometry":{"type":"Point","coordinates":[121.5060657,25.0436428]},"properties":{"no":"709","county_code":"63000","site_name":"愛麗絲二手名牌","tel":"(02)2389-3724","postal_code":"103","address":"西寧南路70號1樓21室","service_type":"買賣","item":"生活用品類","resolved_county":"臺北市","resolved_district":"大同區","full_address":"臺北市大同區西寧南路70號1樓21室","address_resolve_note":null,"geocode_ok":true,"geocode_provider":"google","geocode_tier":"street","geocode_query":"臺北市大同區西寧南路70號1樓21室"}},{"type":"Feature","geometry":{"type":"Point","coordinates":[121.5174333,25.0571083]},"properties":{"no":"712","county_code":"63000","site_name":"WATCH180二手錶交流中心","tel":"(02)2558-8418","postal_code":"103","address":"民生西路180號","service_type":"買賣,維修","item":"生活用品類","resolved_county":"臺北市","resolved_district":"大同區","full_address":"臺北市大同區民生西路180號","address_resolve_note":null,"geocode_ok":true,"geocode_provider":"google","geocode_tier":"street","geocode_query":"臺北市大同區民生西路180號"}},{"type":"Feature","geometry":{"type":"Point","coordinates":[121.5129393,25.072968]},"properties":{"no":"715","county_code":"63000","site_name":"唐青古物商行","tel":"(02)2341-8799","postal_code":"103","address":"哈密街155號","service_type":"買賣","item":"生活用品類","resolved_county":"臺北市","resolved_district":"大同區","full_address":"臺北市大同區哈密街155號","address_resolve_note":null,"geocode_ok":true,"geocode_provider":"google","geocode_tier":"street","geocode_query":"臺北市大同區哈密街155號"}},{"type":"Feature","geometry":{"type":"Point","coordinates":[121.565571,25.041356]},"properties":{"no":"739","county_code":"63000","site_name":"最愛二手精品店","tel":"(02)2768-7685","postal_code":"110","address":"忠孝東路五段17號","service_type":"買賣","item":"生活用品類","resolved_county":"臺北市","resolved_district":"信義區","full_address":"臺北市信義區忠孝東路五段17號","address_resolve_note":null,"geocode_ok":true,"geocode_provider":"google","geocode_tier":"street","geocode_query":"臺北市信義區忠孝東路五段17號"}},{"type":"Feature","geometry":{"type":"Point","coordinates":[121.5652888,25.0419728]},"properties":{"no":"740","county_code":"63000","site_name":"優買二手名牌店","tel":"(02)2748-9917","postal_code":"110","address":"基隆路一段159號","service_type":"買賣","item":"生活用品類","resolved_county":"臺北市","resolved_district":"信義區","full_address":"臺北市信義區基隆路一段159號","address_resolve_note":null,"geocode_ok":true,"geocode_provider":"google","geocode_tier":"street","geocode_query":"臺北市信義區基隆路一段159號"}},{"type":"Feature","geometry":{"type":"Point","coordinates":[121.578066,25.044175]},"properties":{"no":"741","county_code":"63000","site_name":"老胡單車精品","tel":"(02)2761-7864","postal_code":"110","address":"松山路251號","service_type":"買賣","item":"生活用品類","resolved_county":"臺北市","resolved_district":"信義區","full_address":"臺北市信義區松山路251號","address_resolve_note":null,"geocode_ok":true,"geocode_provider":"google","geocode_tier":"street","geocode_query":"臺北市信義區松山路251號"}},{"type":"Feature","geometry":{"type":"Point","coordinates":[121.5683178,25.0436322]},"properties":{"no":"742","county_code":"63000","site_name":"鍾愛國際精品","tel":"(02)2765-4088","postal_code":"110","address":"永吉路30巷102弄10號","service_type":"買賣","item":"生活用品類","resolved_county":"臺北市","resolved_district":"信義區","full_address":"臺北市信義區永吉路30巷102弄10號","address_resolve_note":null,"geocode_ok":true,"geocode_provider":"google","geocode_tier":"street","geocode_query":"臺北市信義區永吉路30巷102弄10號"}},{"type":"Feature","geometry":{"type":"Point","coordinates":[121.57592,25.0473578]},"properties":{"no":"745","county_code":"63000","site_name":"金橋二手錶","tel":"0955-789-943","postal_code":"110","address":"虎林街30巷28號1樓","service_type":"買賣","item":"生活用品類","resolved_county":"臺北市","resolved_district":"信義區","full_address":"臺北市信義區虎林街30巷28號1樓","address_resolve_note":null,"geocode_ok":true,"geocode_provider":"google","geocode_tier":"street","geocode_query":"臺北市信義區虎林街30巷28號1樓"}},{"type":"Feature","geometry":{"type":"Point","coordinates":[121.5245607,25.103368]},"properties":{"no":"790","county_code":"63000","site_name":"文森珠寶精品","tel":"(02)2831-8699","postal_code":"111","address":"中山北路六段35巷6號","service_type":"買賣","item":"生活用品類","resolved_county":"臺北市","resolved_district":"士林區","full_address":"臺北市士林區中山北路六段35巷6號","address_resolve_note":null,"geocode_ok":true,"geocode_provider":"google","geocode_tier":"street","geocode_query":"臺北市士林區中山北路六段35巷6號"}},{"type":"Feature","geometry":{"type":"Point","coordinates":[121.574766,25.0641021]},"properties":{"no":"801","county_code":"63000","site_name":"BRAND OFF","tel":"(02)8791-6710","postal_code":"114","address":"民善街205號","service_type":"買賣","item":"生活用品類","resolved_county":"臺北市","resolved_district":"內湖區","full_address":"臺北市內湖區民善街205號","address_resolve_note":null,"geocode_ok":true,"geocode_provider":"google","geocode_tier":"street","geocode_query":"臺北市內湖區民善街205號"}},{"type":"Feature","geometry":{"type":"Point","coordinates":[121.5043684,25.0294886]},"properties":{"no":"820","county_code":"63000","site_name":"萬華大水溝二手屋","tel":"0958 130 142","postal_code":"108","address":"中華路二段334號B1","service_type":"買賣","item":"生活用品類","resolved_county":"臺北市","resolved_district":"萬華區","full_address":"臺北市萬華區中華路二段334號B1","address_resolve_note":null,"geocode_ok":true,"geocode_provider":"google","geocode_tier":"street","geocode_query":"臺北市萬華區中華路二段334號B1"}},{"type":"Feature","geometry":{"type":"Point","coordinates":[121.5421011,25.0441098]},"properties":{"no":"825","county_code":"63000","site_name":"伴Ban 古著 二手 買取 選品工作室","tel":"0","postal_code":"106","address":"安東街40巷3號一樓","service_type":"買賣","item":"生活用品類","resolved_county":"臺北市","resolved_district":"大安區","full_address":"臺北市大安區安東街40巷3號一樓","address_resolve_note":null,"geocode_ok":true,"geocode_provider":"google","geocode_tier":"street","geocode_query":"臺北市大安區安東街40巷3號一樓"}},{"type":"Feature","geometry":{"type":"Point","coordinates":[121.5041734,25.0460472]},"properties":{"no":"826","county_code":"63000","site_name":"OPMM.SHOP","tel":"070 9589 7088","postal_code":"108","address":"漢口街二段90巷4號","service_type":"買賣","item":"生活用品類","resolved_county":"臺北市","resolved_district":"萬華區","full_address":"臺北市萬華區漢口街二段90巷4號","address_resolve_note":null,"geocode_ok":true,"geocode_provider":"google","geocode_tier":"street","geocode_query":"臺北市萬華區漢口街二段90巷4號"}},{"type":"Feature","geometry":{"type":"Point","coordinates":[121.5010267,25.0212701]},"properties":{"no":"827","county_code":"63000","site_name":"萬大庇護工場","tel":"2305-0025","postal_code":"108","address":"萬大路423巷38號","service_type":"買賣","item":"生活用品類","resolved_county":"臺北市","resolved_district":"萬華區","full_address":"臺北市萬華區萬大路423巷38號","address_resolve_note":null,"geocode_ok":true,"geocode_provider":"google","geocode_tier":"street","geocode_query":"臺北市萬華區萬大路423巷38號"}},{"type":"Feature","geometry":{"type":"Point","coordinates":[121.5190596,25.0291766]},"properties":{"no":"828","county_code":"63000","site_name":"光仁綠時尚-古亭選品店","tel":"2356-0112","postal_code":"100","address":"福州街11之1號","service_type":"買賣","item":"生活用品類","resolved_county":"臺北市","resolved_district":"中正區","full_address":"臺北市中正區福州街11之1號","address_resolve_note":null,"geocode_ok":true,"geocode_provider":"google","geocode_tier":"street","geocode_query":"臺北市中正區福州街11之1號"}},{"type":"Feature","geometry":{"type":"Point","coordinates":[121.5265998,25.113554]},"properties":{"no":"829","county_code":"63000","site_name":"光仁綠時尚-天母選品店","tel":"2871-0608","postal_code":"111","address":"中山北路六段419巷1號","service_type":"捐送,買賣","item":"生活用品類","resolved_county":"臺北市","resolved_district":"士林區","full_address":"臺北市士林區中山北路六段419巷1號","address_resolve_note":null,"geocode_ok":true,"geocode_provider":"google","geocode_tier":"street","geocode_query":"臺北市士林區中山北路六段419巷1號"}}]}