{"type":"FeatureCollection","features":[{"type":"Feature","geometry":{"type":"Point","coordinates":[121.6085371,25.054556]},"properties":{"no":"678","county_code":"63000","site_name":"劃時代電玩漫畫","tel":"(02)2651-2596","postal_code":"115","address":"南港路一段281號","service_type":"買賣,維修","item":"玩具類","resolved_county":"臺北市","resolved_district":"南港區","full_address":"臺北市南港區南港路一段281號","address_resolve_note":null,"geocode_ok":true,"geocode_provider":"google","geocode_tier":"street","geocode_query":"臺北市南港區南港路一段281號"}},{"type":"Feature","geometry":{"type":"Point","coordinates":[121.54138,24.995639]},"properties":{"no":"685","county_code":"63000","site_name":"GE 電玩達人","tel":"(02)2933-8345","postal_code":"116","address":"羅斯福路六段227號","service_type":"買賣,維修","item":"玩具類","resolved_county":"臺北市","resolved_district":"文山區","full_address":"臺北市文山區羅斯福路六段227號","address_resolve_note":null,"geocode_ok":true,"geocode_provider":"google","geocode_tier":"street","geocode_query":"臺北市文山區羅斯福路六段227號"}},{"type":"Feature","geometry":{"type":"Point","coordinates":[121.5620191,24.9841843]},"properties":{"no":"687","county_code":"63000","site_name":"侍 電玩","tel":"0965-350-469","postal_code":"116","address":"興隆路四段163之2號","service_type":"買賣,維修","item":"玩具類","resolved_county":"臺北市","resolved_district":"文山區","full_address":"臺北市文山區興隆路四段163之2號","address_resolve_note":null,"geocode_ok":true,"geocode_provider":"google","geocode_tier":"street","geocode_query":"臺北市文山區興隆路四段163之2號"}},{"type":"Feature","geometry":{"type":"Point","coordinates":[121.5262175,25.0893842]},"properties":{"no":"788","county_code":"63000","site_name":"融合製造","tel":"無","postal_code":"111","address":"小東街33號","service_type":"買賣","item":"玩具類","resolved_county":"臺北市","resolved_district":"士林區","full_address":"臺北市士林區小東街33號","address_resolve_note":null,"geocode_ok":true,"geocode_provider":"google","geocode_tier":"street","geocode_query":"臺北市士林區小東街33號"}},{"type":"Feature","geometry":{"type":"Point","coordinates":[121.5195478,25.093391]},"properties":{"no":"789","county_code":"63000","site_name":"尋寶","tel":"無","postal_code":"111","address":"中正路422號","service_type":"買賣","item":"玩具類","resolved_county":"臺北市","resolved_district":"士林區","full_address":"臺北市士林區中正路422號","address_resolve_note":null,"geocode_ok":true,"geocode_provider":"google","geocode_tier":"street","geocode_query":"臺北市士林區中正路422號"}},{"type":"Feature","geometry":{"type":"Point","coordinates":[121.5195559,25.0934765]},"properties":{"no":"800","county_code":"63000","site_name":"創世基金會二手拍","tel":"(02)2835-7700#128","postal_code":"111","address":"中正路420號B1","service_type":"捐送,買賣","item":"玩具類","resolved_county":"臺北市","resolved_district":"士林區","full_address":"臺北市士林區中正路420號B1","address_resolve_note":null,"geocode_ok":true,"geocode_provider":"google","geocode_tier":"street","geocode_query":"臺北市士林區中正路420號B1"}}]}