{
  "type": "FeatureCollection",
  "features": [
    {
      "type": "Feature",
      "geometry": {
        "type": "Point",
        "coordinates": [
          121.5660647,
          25.0537168
        ]
      },
      "properties": {
        "no": "207",
        "county_code": "63000",
        "site_name": "福克萊",
        "tel": "0937917146",
        "postal_code": "105",
        "address": "南京東路五段291巷50號",
        "service_type": "買賣",
        "item": "其他類",
        "resolved_county": "臺北市",
        "resolved_district": "松山區",
        "full_address": "臺北市松山區南京東路五段291巷50號",
        "address_resolve_note": null,
        "geocode_ok": true,
        "geocode_provider": "google",
        "geocode_tier": "street",
        "geocode_query": "臺北市松山區南京東路五段291巷50號"
      }
    },
    {
      "type": "Feature",
      "geometry": {
        "type": "Point",
        "coordinates": [
          121.4689655,
          25.0787604
        ]
      },
      "properties": {
        "no": "346",
        "county_code": "65000",
        "site_name": "村榮自行車行",
        "tel": "0977-318-628",
        "postal_code": "247",
        "address": "九芎街2號",
        "service_type": "維修,維護",
        "item": "其他類",
        "resolved_county": "新北市",
        "resolved_district": "蘆洲區",
        "full_address": "新北市蘆洲區九芎街2號",
        "address_resolve_note": null,
        "geocode_ok": true,
        "geocode_provider": "google",
        "geocode_tier": "street",
        "geocode_query": "新北市蘆洲區九芎街2號"
      }
    },
    {
      "type": "Feature",
      "geometry": {
        "type": "Point",
        "coordinates": [
          121.453636,
          25.04065
        ]
      },
      "properties": {
        "no": "364",
        "county_code": "65000",
        "site_name": "慈濟中大型環保教育站\n(新莊中港環保教育站)",
        "tel": "02-29917793",
        "postal_code": "242",
        "address": "中港路161巷28號",
        "service_type": "維修,維護",
        "item": "其他類",
        "resolved_county": "新北市",
        "resolved_district": "新莊區",
        "full_address": "新北市新莊區中港路161巷28號",
        "address_resolve_note": null,
        "geocode_ok": true,
        "geocode_provider": "google",
        "geocode_tier": "street",
        "geocode_query": "新北市新莊區中港路161巷28號"
      }
    },
    {
      "type": "Feature",
      "geometry": {
        "type": "Point",
        "coordinates": [
          121.4771621,
          25.0051428
        ]
      },
      "properties": {
        "no": "365",
        "county_code": "65000",
        "site_name": "慈濟中大型環保教育站\n(雙和環保教育站)",
        "tel": "02-82281628",
        "postal_code": "235",
        "address": "中山路三段41號",
        "service_type": "維修,維護",
        "item": "其他類",
        "resolved_county": "新北市",
        "resolved_district": "中和區",
        "full_address": "新北市中和區中山路三段41號",
        "address_resolve_note": null,
        "geocode_ok": true,
        "geocode_provider": "google",
        "geocode_tier": "street",
        "geocode_query": "新北市中和區中山路三段41號"
      }
    },
    {
      "type": "Feature",
      "geometry": {
        "type": "Point",
        "coordinates": [
          121.4732938,
          25.0714958
        ]
      },
      "properties": {
        "no": "366",
        "county_code": "65000",
        "site_name": "慈濟中大型環保教育站\n(三重園區環保站)",
        "tel": "02-29810310",
        "postal_code": "241",
        "address": "中正北路472號",
        "service_type": "維修,維護",
        "item": "其他類",
        "resolved_county": "新北市",
        "resolved_district": "三重區",
        "full_address": "新北市三重區中正北路472號",
        "address_resolve_note": null,
        "geocode_ok": true,
        "geocode_provider": "google",
        "geocode_tier": "street",
        "geocode_query": "新北市三重區中正北路472號"
      }
    },
    {
      "type": "Feature",
      "geometry": {
        "type": "Point",
        "coordinates": [
          121.5234154,
          24.9808157
        ]
      },
      "properties": {
        "no": "368",
        "county_code": "65000",
        "site_name": "新店區中山里",
        "tel": "（02）2219-9115",
        "postal_code": "231",
        "address": "溪園路361號",
        "service_type": "維修,維護",
        "item": "其他類",
        "resolved_county": "新北市",
        "resolved_district": "新店區",
        "full_address": "新北市新店區溪園路361號",
        "address_resolve_note": null,
        "geocode_ok": true,
        "geocode_provider": "google",
        "geocode_tier": "street",
        "geocode_query": "新北市新店區溪園路361號"
      }
    },
    {
      "type": "Feature",
      "geometry": {
        "type": "Point",
        "coordinates": [
          121.5143546,
          25.0267199
        ]
      },
      "properties": {
        "no": "369",
        "county_code": "63000",
        "site_name": "中正區營雪里",
        "tel": "02-2305-2201",
        "postal_code": "100",
        "address": "福州街59號",
        "service_type": "維修,維護",
        "item": "其他類",
        "resolved_county": "臺北市",
        "resolved_district": "中正區",
        "full_address": "臺北市中正區福州街59號",
        "address_resolve_note": null,
        "geocode_ok": true,
        "geocode_provider": "google",
        "geocode_tier": "street",
        "geocode_query": "臺北市中正區福州街59號"
      }
    },
    {
      "type": "Feature",
      "geometry": {
        "type": "Point",
        "coordinates": [
          121.4553549,
          25.0126707
        ]
      },
      "properties": {
        "no": "370",
        "county_code": "65000",
        "site_name": "板橋區自強里",
        "tel": "02-2967-6168",
        "postal_code": "220",
        "address": "中正路25巷3號",
        "service_type": "維修,維護",
        "item": "其他類",
        "resolved_county": "新北市",
        "resolved_district": "板橋區",
        "full_address": "新北市板橋區中正路25巷3號",
        "address_resolve_note": null,
        "geocode_ok": true,
        "geocode_provider": "google",
        "geocode_tier": "street",
        "geocode_query": "新北市板橋區中正路25巷3號"
      }
    },
    {
      "type": "Feature",
      "geometry": {
        "type": "Point",
        "coordinates": [
          121.4522269,
          24.9853747
        ]
      },
      "properties": {
        "no": "371",
        "county_code": "65000",
        "site_name": "土城區廣興里",
        "tel": "0922-974-127",
        "postal_code": "236",
        "address": "學府路1段20之1號",
        "service_type": "維修,維護",
        "item": "其他類",
        "resolved_county": "新北市",
        "resolved_district": "土城區",
        "full_address": "新北市土城區學府路1段20之1號",
        "address_resolve_note": null,
        "geocode_ok": true,
        "geocode_provider": "google",
        "geocode_tier": "street",
        "geocode_query": "新北市土城區學府路1段20之1號"
      }
    },
    {
      "type": "Feature",
      "geometry": {
        "type": "Point",
        "coordinates": [
          121.5534664,
          24.9878341
        ]
      },
      "properties": {
        "no": "686",
        "county_code": "63000",
        "site_name": "尋寶趣",
        "tel": "無",
        "postal_code": "116",
        "address": "木柵路一段220號",
        "service_type": "捐送,買賣",
        "item": "其他類",
        "resolved_county": "臺北市",
        "resolved_district": "文山區",
        "full_address": "臺北市文山區木柵路一段220號",
        "address_resolve_note": null,
        "geocode_ok": true,
        "geocode_provider": "google",
        "geocode_tier": "street",
        "geocode_query": "臺北市文山區木柵路一段220號"
      }
    },
    {
      "type": "Feature",
      "geometry": {
        "type": "Point",
        "coordinates": [
          121.5693651,
          24.9876934
        ]
      },
      "properties": {
        "no": "688",
        "county_code": "63000",
        "site_name": "鼎順專業收購",
        "tel": "0966-607-111",
        "postal_code": "116",
        "address": "集英街2-1號",
        "service_type": "買賣",
        "item": "其他類",
        "resolved_county": "臺北市",
        "resolved_district": "文山區",
        "full_address": "臺北市文山區集英街2-1號",
        "address_resolve_note": null,
        "geocode_ok": true,
        "geocode_provider": "google",
        "geocode_tier": "street",
        "geocode_query": "臺北市文山區集英街2-1號"
      }
    },
    {
      "type": "Feature",
      "geometry": {
        "type": "Point",
        "coordinates": [
          121.5754639,
          24.9880316
        ]
      },
      "properties": {
        "no": "689",
        "county_code": "63000",
        "site_name": "潛水鳥",
        "tel": "無",
        "postal_code": "116",
        "address": "指南路二段77巷24號",
        "service_type": "買賣",
        "item": "其他類",
        "resolved_county": "臺北市",
        "resolved_district": "文山區",
        "full_address": "臺北市文山區指南路二段77巷24號",
        "address_resolve_note": null,
        "geocode_ok": true,
        "geocode_provider": "google",
        "geocode_tier": "street",
        "geocode_query": "臺北市文山區指南路二段77巷24號"
      }
    },
    {
      "type": "Feature",
      "geometry": {
        "type": "Point",
        "coordinates": [
          121.5436616,
          25.0457293
        ]
      },
      "properties": {
        "no": "693",
        "county_code": "63000",
        "site_name": "RECOVER",
        "tel": "(02)8772-3188",
        "postal_code": "104",
        "address": "復興南路一段36之5號",
        "service_type": "買賣",
        "item": "其他類",
        "resolved_county": "臺北市",
        "resolved_district": "中山區",
        "full_address": "臺北市中山區復興南路一段36之5號",
        "address_resolve_note": null,
        "geocode_ok": true,
        "geocode_provider": "google",
        "geocode_tier": "street",
        "geocode_query": "臺北市中山區復興南路一段36之5號"
      }
    },
    {
      "type": "Feature",
      "geometry": {
        "type": "Point",
        "coordinates": [
          121.5436058,
          25.0461161
        ]
      },
      "properties": {
        "no": "705",
        "county_code": "63000",
        "site_name": "優買二手精品名牌店-微風復興店",
        "tel": "(02)8772-2455",
        "postal_code": "104",
        "address": "復興南路一段36-1號",
        "service_type": "買賣",
        "item": "其他類",
        "resolved_county": "臺北市",
        "resolved_district": "中山區",
        "full_address": "臺北市中山區復興南路一段36-1號",
        "address_resolve_note": null,
        "geocode_ok": true,
        "geocode_provider": "google",
        "geocode_tier": "street",
        "geocode_query": "臺北市中山區復興南路一段36-1號"
      }
    },
    {
      "type": "Feature",
      "geometry": {
        "type": "Point",
        "coordinates": [
          121.5059039,
          25.0435485
        ]
      },
      "properties": {
        "no": "708",
        "county_code": "63000",
        "site_name": "當肯二手名品",
        "tel": "0953-708-520",
        "postal_code": "108",
        "address": "西寧南路70號1樓29室",
        "service_type": "買賣",
        "item": "其他類",
        "resolved_county": "臺北市",
        "resolved_district": "萬華區",
        "full_address": "臺北市萬華區西寧南路70號1樓29室",
        "address_resolve_note": null,
        "geocode_ok": true,
        "geocode_provider": "google",
        "geocode_tier": "street",
        "geocode_query": "臺北市萬華區西寧南路70號1樓29室"
      }
    },
    {
      "type": "Feature",
      "geometry": {
        "type": "Point",
        "coordinates": [
          121.5060657,
          25.0436428
        ]
      },
      "properties": {
        "no": "709",
        "county_code": "63000",
        "site_name": "愛麗絲二手名牌",
        "tel": "(02)2389-3724",
        "postal_code": "103",
        "address": "西寧南路70號1樓21室",
        "service_type": "買賣",
        "item": "其他類",
        "resolved_county": "臺北市",
        "resolved_district": "大同區",
        "full_address": "臺北市大同區西寧南路70號1樓21室",
        "address_resolve_note": null,
        "geocode_ok": true,
        "geocode_provider": "google",
        "geocode_tier": "street",
        "geocode_query": "臺北市大同區西寧南路70號1樓21室"
      }
    },
    {
      "type": "Feature",
      "geometry": {
        "type": "Point",
        "coordinates": [
          121.5129393,
          25.072968
        ]
      },
      "properties": {
        "no": "715",
        "county_code": "63000",
        "site_name": "唐青古物商行",
        "tel": "(02)2341-8799",
        "postal_code": "103",
        "address": "哈密街155號",
        "service_type": "買賣",
        "item": "其他類",
        "resolved_county": "臺北市",
        "resolved_district": "大同區",
        "full_address": "臺北市大同區哈密街155號",
        "address_resolve_note": null,
        "geocode_ok": true,
        "geocode_provider": "google",
        "geocode_tier": "street",
        "geocode_query": "臺北市大同區哈密街155號"
      }
    },
    {
      "type": "Feature",
      "geometry": {
        "type": "Point",
        "coordinates": [
          121.565571,
          25.041356
        ]
      },
      "properties": {
        "no": "739",
        "county_code": "63000",
        "site_name": "最愛二手精品店",
        "tel": "(02)2768-7685",
        "postal_code": "110",
        "address": "忠孝東路五段17號",
        "service_type": "買賣",
        "item": "其他類",
        "resolved_county": "臺北市",
        "resolved_district": "信義區",
        "full_address": "臺北市信義區忠孝東路五段17號",
        "address_resolve_note": null,
        "geocode_ok": true,
        "geocode_provider": "google",
        "geocode_tier": "street",
        "geocode_query": "臺北市信義區忠孝東路五段17號"
      }
    },
    {
      "type": "Feature",
      "geometry": {
        "type": "Point",
        "coordinates": [
          121.5652888,
          25.0419728
        ]
      },
      "properties": {
        "no": "740",
        "county_code": "63000",
        "site_name": "優買二手名牌店",
        "tel": "(02)2748-9917",
        "postal_code": "110",
        "address": "基隆路一段159號",
        "service_type": "買賣",
        "item": "其他類",
        "resolved_county": "臺北市",
        "resolved_district": "信義區",
        "full_address": "臺北市信義區基隆路一段159號",
        "address_resolve_note": null,
        "geocode_ok": true,
        "geocode_provider": "google",
        "geocode_tier": "street",
        "geocode_query": "臺北市信義區基隆路一段159號"
      }
    },
    {
      "type": "Feature",
      "geometry": {
        "type": "Point",
        "coordinates": [
          121.578066,
          25.044175
        ]
      },
      "properties": {
        "no": "741",
        "county_code": "63000",
        "site_name": "老胡單車精品",
        "tel": "(02)2761-7864",
        "postal_code": "110",
        "address": "松山路251號",
        "service_type": "買賣",
        "item": "其他類",
        "resolved_county": "臺北市",
        "resolved_district": "信義區",
        "full_address": "臺北市信義區松山路251號",
        "address_resolve_note": null,
        "geocode_ok": true,
        "geocode_provider": "google",
        "geocode_tier": "street",
        "geocode_query": "臺北市信義區松山路251號"
      }
    },
    {
      "type": "Feature",
      "geometry": {
        "type": "Point",
        "coordinates": [
          121.5683178,
          25.0436322
        ]
      },
      "properties": {
        "no": "742",
        "county_code": "63000",
        "site_name": "鍾愛國際精品",
        "tel": "(02)2765-4088",
        "postal_code": "110",
        "address": "永吉路30巷102弄10號",
        "service_type": "買賣",
        "item": "其他類",
        "resolved_county": "臺北市",
        "resolved_district": "信義區",
        "full_address": "臺北市信義區永吉路30巷102弄10號",
        "address_resolve_note": null,
        "geocode_ok": true,
        "geocode_provider": "google",
        "geocode_tier": "street",
        "geocode_query": "臺北市信義區永吉路30巷102弄10號"
      }
    },
    {
      "type": "Feature",
      "geometry": {
        "type": "Point",
        "coordinates": [
          121.5830935,
          25.0398101
        ]
      },
      "properties": {
        "no": "743",
        "county_code": "63000",
        "site_name": "宏韻中古鋼琴",
        "tel": "(02)2727-1109",
        "postal_code": "110",
        "address": "大道路111號",
        "service_type": "買賣",
        "item": "其他類",
        "resolved_county": "臺北市",
        "resolved_district": "信義區",
        "full_address": "臺北市信義區大道路111號",
        "address_resolve_note": null,
        "geocode_ok": true,
        "geocode_provider": "google",
        "geocode_tier": "street",
        "geocode_query": "臺北市信義區大道路111號"
      }
    },
    {
      "type": "Feature",
      "geometry": {
        "type": "Point",
        "coordinates": [
          121.5749578,
          25.0365483
        ]
      },
      "properties": {
        "no": "782",
        "county_code": "63000",
        "site_name": "提琴專家",
        "tel": "(02)2727-8143",
        "postal_code": "110",
        "address": "松德路161號",
        "service_type": "買賣",
        "item": "其他類",
        "resolved_county": "臺北市",
        "resolved_district": "信義區",
        "full_address": "臺北市信義區松德路161號",
        "address_resolve_note": null,
        "geocode_ok": true,
        "geocode_provider": "google",
        "geocode_tier": "street",
        "geocode_query": "臺北市信義區松德路161號"
      }
    },
    {
      "type": "Feature",
      "geometry": {
        "type": "Point",
        "coordinates": [
          121.5195478,
          25.093391
        ]
      },
      "properties": {
        "no": "789",
        "county_code": "63000",
        "site_name": "尋寶",
        "tel": "無",
        "postal_code": "111",
        "address": "中正路422號",
        "service_type": "買賣",
        "item": "其他類",
        "resolved_county": "臺北市",
        "resolved_district": "士林區",
        "full_address": "臺北市士林區中正路422號",
        "address_resolve_note": null,
        "geocode_ok": true,
        "geocode_provider": "google",
        "geocode_tier": "street",
        "geocode_query": "臺北市士林區中正路422號"
      }
    },
    {
      "type": "Feature",
      "geometry": {
        "type": "Point",
        "coordinates": [
          121.5245607,
          25.103368
        ]
      },
      "properties": {
        "no": "790",
        "county_code": "63000",
        "site_name": "文森珠寶精品",
        "tel": "(02)2831-8699",
        "postal_code": "111",
        "address": "中山北路六段35巷6號",
        "service_type": "買賣",
        "item": "其他類",
        "resolved_county": "臺北市",
        "resolved_district": "士林區",
        "full_address": "臺北市士林區中山北路六段35巷6號",
        "address_resolve_note": null,
        "geocode_ok": true,
        "geocode_provider": "google",
        "geocode_tier": "street",
        "geocode_query": "臺北市士林區中山北路六段35巷6號"
      }
    },
    {
      "type": "Feature",
      "geometry": {
        "type": "Point",
        "coordinates": [
          121.5284402,
          25.1187468
        ]
      },
      "properties": {
        "no": "791",
        "county_code": "63000",
        "site_name": "思覓處",
        "tel": "(02)2872-8066",
        "postal_code": "111",
        "address": "天母西路13巷5號",
        "service_type": "買賣",
        "item": "其他類",
        "resolved_county": "臺北市",
        "resolved_district": "士林區",
        "full_address": "臺北市士林區天母西路13巷5號",
        "address_resolve_note": null,
        "geocode_ok": true,
        "geocode_provider": "google",
        "geocode_tier": "street",
        "geocode_query": "臺北市士林區天母西路13巷5號"
      }
    },
    {
      "type": "Feature",
      "geometry": {
        "type": "Point",
        "coordinates": [
          121.5195559,
          25.0934765
        ]
      },
      "properties": {
        "no": "800",
        "county_code": "63000",
        "site_name": "創世基金會二手拍",
        "tel": "(02)2835-7700#128",
        "postal_code": "111",
        "address": "中正路420號B1",
        "service_type": "捐送,買賣",
        "item": "其他類",
        "resolved_county": "臺北市",
        "resolved_district": "士林區",
        "full_address": "臺北市士林區中正路420號B1",
        "address_resolve_note": null,
        "geocode_ok": true,
        "geocode_provider": "google",
        "geocode_tier": "street",
        "geocode_query": "臺北市士林區中正路420號B1"
      }
    },
    {
      "type": "Feature",
      "geometry": {
        "type": "Point",
        "coordinates": [
          121.574766,
          25.0641021
        ]
      },
      "properties": {
        "no": "801",
        "county_code": "63000",
        "site_name": "BRAND OFF",
        "tel": "(02)8791-6710",
        "postal_code": "114",
        "address": "民善街205號",
        "service_type": "買賣",
        "item": "其他類",
        "resolved_county": "臺北市",
        "resolved_district": "內湖區",
        "full_address": "臺北市內湖區民善街205號",
        "address_resolve_note": null,
        "geocode_ok": true,
        "geocode_provider": "google",
        "geocode_tier": "street",
        "geocode_query": "臺北市內湖區民善街205號"
      }
    },
    {
      "type": "Feature",
      "geometry": {
        "type": "Point",
        "coordinates": [
          121.5270327,
          25.0192853
        ]
      },
      "properties": {
        "no": "818",
        "county_code": "63000",
        "site_name": "愛人如己文創小店",
        "tel": "02 2363 5111",
        "postal_code": "100",
        "address": "汀州路三段43號B1",
        "service_type": "買賣",
        "item": "其他類",
        "resolved_county": "臺北市",
        "resolved_district": "中正區",
        "full_address": "臺北市中正區汀州路三段43號B1",
        "address_resolve_note": null,
        "geocode_ok": true,
        "geocode_provider": "google",
        "geocode_tier": "street",
        "geocode_query": "臺北市中正區汀州路三段43號B1"
      }
    },
    {
      "type": "Feature",
      "geometry": {
        "type": "Point",
        "coordinates": [
          121.5043684,
          25.0294886
        ]
      },
      "properties": {
        "no": "820",
        "county_code": "63000",
        "site_name": "萬華大水溝二手屋",
        "tel": "0958 130 142",
        "postal_code": "108",
        "address": "中華路二段334號B1",
        "service_type": "買賣",
        "item": "其他類",
        "resolved_county": "臺北市",
        "resolved_district": "萬華區",
        "full_address": "臺北市萬華區中華路二段334號B1",
        "address_resolve_note": null,
        "geocode_ok": true,
        "geocode_provider": "google",
        "geocode_tier": "street",
        "geocode_query": "臺北市萬華區中華路二段334號B1"
      }
    },
    {
      "type": "Feature",
      "geometry": {
        "type": "Point",
        "coordinates": [
          121.5196789,
          25.0549924
        ]
      },
      "properties": {
        "no": "821",
        "county_code": "63000",
        "site_name": "MITTY - 古著 二手 選物 服飾店",
        "tel": "0",
        "postal_code": "103",
        "address": "赤峰街43號2樓",
        "service_type": "買賣",
        "item": "其他類",
        "resolved_county": "臺北市",
        "resolved_district": "大同區",
        "full_address": "臺北市大同區赤峰街43號2樓",
        "address_resolve_note": null,
        "geocode_ok": true,
        "geocode_provider": "google",
        "geocode_tier": "street",
        "geocode_query": "臺北市大同區赤峰街43號2樓"
      }
    },
    {
      "type": "Feature",
      "geometry": {
        "type": "Point",
        "coordinates": [
          121.5367647,
          25.0104491
        ]
      },
      "properties": {
        "no": "823",
        "county_code": "63000",
        "site_name": "小麻雀公館無人自助商店",
        "tel": "02 8259 5738",
        "postal_code": "116",
        "address": "羅斯福路四段206巷8號",
        "service_type": "買賣",
        "item": "其他類",
        "resolved_county": "臺北市",
        "resolved_district": "文山區",
        "full_address": "臺北市文山區羅斯福路四段206巷8號",
        "address_resolve_note": null,
        "geocode_ok": true,
        "geocode_provider": "google",
        "geocode_tier": "street",
        "geocode_query": "臺北市文山區羅斯福路四段206巷8號"
      }
    },
    {
      "type": "Feature",
      "geometry": {
        "type": "Point",
        "coordinates": [
          121.5413264,
          25.0421382
        ]
      },
      "properties": {
        "no": "824",
        "county_code": "63000",
        "site_name": "綠天使二手衣著專賣站",
        "tel": "02 2711 5322",
        "postal_code": "106",
        "address": "忠孝東路三段251巷2弄5號一樓",
        "service_type": "買賣",
        "item": "其他類",
        "resolved_county": "臺北市",
        "resolved_district": "大安區",
        "full_address": "臺北市大安區忠孝東路三段251巷2弄5號一樓",
        "address_resolve_note": null,
        "geocode_ok": true,
        "geocode_provider": "google",
        "geocode_tier": "street",
        "geocode_query": "臺北市大安區忠孝東路三段251巷2弄5號一樓"
      }
    },
    {
      "type": "Feature",
      "geometry": {
        "type": "Point",
        "coordinates": [
          121.5421011,
          25.0441098
        ]
      },
      "properties": {
        "no": "825",
        "county_code": "63000",
        "site_name": "伴Ban 古著 二手 買取 選品工作室",
        "tel": "0",
        "postal_code": "106",
        "address": "安東街40巷3號一樓",
        "service_type": "買賣",
        "item": "其他類",
        "resolved_county": "臺北市",
        "resolved_district": "大安區",
        "full_address": "臺北市大安區安東街40巷3號一樓",
        "address_resolve_note": null,
        "geocode_ok": true,
        "geocode_provider": "google",
        "geocode_tier": "street",
        "geocode_query": "臺北市大安區安東街40巷3號一樓"
      }
    },
    {
      "type": "Feature",
      "geometry": {
        "type": "Point",
        "coordinates": [
          121.5041734,
          25.0460472
        ]
      },
      "properties": {
        "no": "826",
        "county_code": "63000",
        "site_name": "OPMM.SHOP",
        "tel": "070 9589 7088",
        "postal_code": "108",
        "address": "漢口街二段90巷4號",
        "service_type": "買賣",
        "item": "其他類",
        "resolved_county": "臺北市",
        "resolved_district": "萬華區",
        "full_address": "臺北市萬華區漢口街二段90巷4號",
        "address_resolve_note": null,
        "geocode_ok": true,
        "geocode_provider": "google",
        "geocode_tier": "street",
        "geocode_query": "臺北市萬華區漢口街二段90巷4號"
      }
    },
    {
      "type": "Feature",
      "geometry": {
        "type": "Point",
        "coordinates": [
          121.5010267,
          25.0212701
        ]
      },
      "properties": {
        "no": "827",
        "county_code": "63000",
        "site_name": "萬大庇護工場",
        "tel": "2305-0025",
        "postal_code": "108",
        "address": "萬大路423巷38號",
        "service_type": "買賣",
        "item": "其他類",
        "resolved_county": "臺北市",
        "resolved_district": "萬華區",
        "full_address": "臺北市萬華區萬大路423巷38號",
        "address_resolve_note": null,
        "geocode_ok": true,
        "geocode_provider": "google",
        "geocode_tier": "street",
        "geocode_query": "臺北市萬華區萬大路423巷38號"
      }
    },
    {
      "type": "Feature",
      "geometry": {
        "type": "Point",
        "coordinates": [
          121.5190596,
          25.0291766
        ]
      },
      "properties": {
        "no": "828",
        "county_code": "63000",
        "site_name": "光仁綠時尚-古亭選品店",
        "tel": "2356-0112",
        "postal_code": "100",
        "address": "福州街11之1號",
        "service_type": "買賣",
        "item": "其他類",
        "resolved_county": "臺北市",
        "resolved_district": "中正區",
        "full_address": "臺北市中正區福州街11之1號",
        "address_resolve_note": null,
        "geocode_ok": true,
        "geocode_provider": "google",
        "geocode_tier": "street",
        "geocode_query": "臺北市中正區福州街11之1號"
      }
    },
    {
      "type": "Feature",
      "geometry": {
        "type": "Point",
        "coordinates": [
          121.5265998,
          25.113554
        ]
      },
      "properties": {
        "no": "829",
        "county_code": "63000",
        "site_name": "光仁綠時尚-天母選品店",
        "tel": "2871-0608",
        "postal_code": "111",
        "address": "中山北路六段419巷1號",
        "service_type": "捐送,買賣",
        "item": "其他類",
        "resolved_county": "臺北市",
        "resolved_district": "士林區",
        "full_address": "臺北市士林區中山北路六段419巷1號",
        "address_resolve_note": null,
        "geocode_ok": true,
        "geocode_provider": "google",
        "geocode_tier": "street",
        "geocode_query": "臺北市士林區中山北路六段419巷1號"
      }
    },
    {
      "type": "Feature",
      "geometry": {
        "type": "Point",
        "coordinates": [
          121.5766029,
          25.0602863
        ]
      },
      "properties": {
        "no": "830",
        "county_code": "63000",
        "site_name": "迪卡儂內湖門市",
        "tel": "(02)2795-6700",
        "postal_code": "114",
        "address": "新湖一路128巷38號",
        "service_type": "捐送,買賣,維修,維護",
        "item": "其他類",
        "resolved_county": "臺北市",
        "resolved_district": "內湖區",
        "full_address": "臺北市內湖區新湖一路128巷38號",
        "address_resolve_note": null,
        "geocode_ok": true,
        "geocode_provider": "google",
        "geocode_tier": "street",
        "geocode_query": "臺北市內湖區新湖一路128巷38號"
      }
    }
  ]
}