{"type":"FeatureCollection","features":[{"type":"Feature","geometry":{"type":"Point","coordinates":[121.544483,25.0517636]},"properties":{"no":"206","county_code":"63000","site_name":"Lucky柒","tel":"0913226809","postal_code":"105","address":"南京東路三段253號販賣店B1","service_type":"買賣","item":"3C用品類","resolved_county":"臺北市","resolved_district":"松山區","full_address":"臺北市松山區南京東路三段253號販賣店B1","address_resolve_note":null,"geocode_ok":true,"geocode_provider":"google","geocode_tier":"street","geocode_query":"臺北市松山區南京東路三段253號販賣店B1"}},{"type":"Feature","geometry":{"type":"Point","coordinates":[121.5411539,24.9970957]},"properties":{"no":"350","county_code":"63000","site_name":"FixTED 維修工作室","tel":"02-2935-0899","postal_code":"116","address":"羅斯福路六段163號","service_type":"維修,維護","item":"3C用品類","resolved_county":"臺北市","resolved_district":"文山區","full_address":"臺北市文山區羅斯福路六段163號","address_resolve_note":null,"geocode_ok":true,"geocode_provider":"google","geocode_tier":"street","geocode_query":"臺北市文山區羅斯福路六段163號"}},{"type":"Feature","geometry":{"type":"Point","coordinates":[121.5784063,25.0835337]},"properties":{"no":"676","county_code":"63000","site_name":"銘遠商行","tel":"(02)2797-6128","postal_code":"114","address":"港墘路7號1樓","service_type":"買賣","item":"3C用品類","resolved_county":"臺北市","resolved_district":"內湖區","full_address":"臺北市內湖區港墘路7號1樓","address_resolve_note":null,"geocode_ok":true,"geocode_provider":"google","geocode_tier":"street","geocode_query":"臺北市內湖區港墘路7號1樓"}},{"type":"Feature","geometry":{"type":"Point","coordinates":[121.6085371,25.054556]},"properties":{"no":"678","county_code":"63000","site_name":"劃時代電玩漫畫","tel":"(02)2651-2596","postal_code":"115","address":"南港路一段281號","service_type":"買賣,維修","item":"3C用品類","resolved_county":"臺北市","resolved_district":"南港區","full_address":"臺北市南港區南港路一段281號","address_resolve_note":null,"geocode_ok":true,"geocode_provider":"google","geocode_tier":"street","geocode_query":"臺北市南港區南港路一段281號"}},{"type":"Feature","geometry":{"type":"Point","coordinates":[121.6140835,25.0346535]},"properties":{"no":"681","county_code":"63000","site_name":"佳音中古電器","tel":"(02)2785-7221","postal_code":"115","address":"研究院路三段76號","service_type":"買賣,維修","item":"3C用品類","resolved_county":"臺北市","resolved_district":"南港區","full_address":"臺北市南港區研究院路三段76號","address_resolve_note":null,"geocode_ok":true,"geocode_provider":"google","geocode_tier":"street","geocode_query":"臺北市南港區研究院路三段76號"}},{"type":"Feature","geometry":{"type":"Point","coordinates":[121.53983,25.00144]},"properties":{"no":"683","county_code":"63000","site_name":"林相攝影","tel":"(02)2930-3697","postal_code":"116","address":"羅斯福路六段5號萬隆捷運站2號出口","service_type":"買賣,維修","item":"3C用品類","resolved_county":"臺北市","resolved_district":"文山區","full_address":"臺北市文山區羅斯福路六段5號萬隆捷運站2號出口","address_resolve_note":null,"geocode_ok":true,"geocode_provider":"google","geocode_tier":"street","geocode_query":"臺北市文山區羅斯福路六段5號萬隆捷運站2號出口"}},{"type":"Feature","geometry":{"type":"Point","coordinates":[121.54138,24.995639]},"properties":{"no":"685","county_code":"63000","site_name":"GE 電玩達人","tel":"(02)2933-8345","postal_code":"116","address":"羅斯福路六段227號","service_type":"買賣,維修","item":"3C用品類","resolved_county":"臺北市","resolved_district":"文山區","full_address":"臺北市文山區羅斯福路六段227號","address_resolve_note":null,"geocode_ok":true,"geocode_provider":"google","geocode_tier":"street","geocode_query":"臺北市文山區羅斯福路六段227號"}},{"type":"Feature","geometry":{"type":"Point","coordinates":[121.5620191,24.9841843]},"properties":{"no":"687","county_code":"63000","site_name":"侍 電玩","tel":"0965-350-469","postal_code":"116","address":"興隆路四段163之2號","service_type":"買賣,維修","item":"3C用品類","resolved_county":"臺北市","resolved_district":"文山區","full_address":"臺北市文山區興隆路四段163之2號","address_resolve_note":null,"geocode_ok":true,"geocode_provider":"google","geocode_tier":"street","geocode_query":"臺北市文山區興隆路四段163之2號"}},{"type":"Feature","geometry":{"type":"Point","coordinates":[121.543622,25.054109]},"properties":{"no":"690","county_code":"63000","site_name":"集英堂寫真機","tel":"(02)2545-1212","postal_code":"104","address":"南京東路三段223巷53號","service_type":"買賣","item":"3C用品類","resolved_county":"臺北市","resolved_district":"中山區","full_address":"臺北市中山區南京東路三段223巷53號","address_resolve_note":null,"geocode_ok":true,"geocode_provider":"google","geocode_tier":"street","geocode_query":"臺北市中山區南京東路三段223巷53號"}},{"type":"Feature","geometry":{"type":"Point","coordinates":[121.537017,25.0458577]},"properties":{"no":"692","county_code":"63000","site_name":"惜福屋-慈濟二手好物大賣場","tel":"無","postal_code":"104","address":"八德路二段108-1號","service_type":"捐送,買賣","item":"3C用品類","resolved_county":"臺北市","resolved_district":"中山區","full_address":"臺北市中山區八德路二段108-1號","address_resolve_note":null,"geocode_ok":true,"geocode_provider":"google","geocode_tier":"street","geocode_query":"臺北市中山區八德路二段108-1號"}},{"type":"Feature","geometry":{"type":"Point","coordinates":[121.5117323,25.0525102]},"properties":{"no":"707","county_code":"63000","site_name":"四海相機","tel":"(02)2555-0303","postal_code":"103","address":"延平北路一段96號","service_type":"買賣","item":"3C用品類","resolved_county":"臺北市","resolved_district":"大同區","full_address":"臺北市大同區延平北路一段96號","address_resolve_note":null,"geocode_ok":true,"geocode_provider":"google","geocode_tier":"street","geocode_query":"臺北市大同區延平北路一段96號"}},{"type":"Feature","geometry":{"type":"Point","coordinates":[121.5186486,25.0662384]},"properties":{"no":"711","county_code":"63000","site_name":"優酷3C收購中心","tel":"0920-787-688","postal_code":"103","address":"承德路三段91號","service_type":"買賣,維修","item":"3C用品類","resolved_county":"臺北市","resolved_district":"大同區","full_address":"臺北市大同區承德路三段91號","address_resolve_note":null,"geocode_ok":true,"geocode_provider":"google","geocode_tier":"street","geocode_query":"臺北市大同區承德路三段91號"}},{"type":"Feature","geometry":{"type":"Point","coordinates":[121.5644722,25.0339639]},"properties":{"no":"737","county_code":"63000","site_name":"成功二手冷氣買賣","tel":"(02)2255-8075","postal_code":"110","address":"漢生東路33號","service_type":"買賣","item":"3C用品類","resolved_county":"臺北市","resolved_district":"信義區","full_address":"臺北市信義區漢生東路33號","address_resolve_note":null,"geocode_ok":true,"geocode_provider":"google","geocode_tier":"street","geocode_query":"臺北市信義區漢生東路33號"}},{"type":"Feature","geometry":{"type":"Point","coordinates":[121.5642343,25.0289159]},"properties":{"no":"738","county_code":"63000","site_name":"大老二手電腦","tel":"0953-231-611","postal_code":"110","address":"莊敬路289巷8弄16號1樓","service_type":"買賣","item":"3C用品類","resolved_county":"臺北市","resolved_district":"信義區","full_address":"臺北市信義區莊敬路289巷8弄16號1樓","address_resolve_note":null,"geocode_ok":true,"geocode_provider":"google","geocode_tier":"street","geocode_query":"臺北市信義區莊敬路289巷8弄16號1樓"}},{"type":"Feature","geometry":{"type":"Point","coordinates":[121.5008325,25.1183089]},"properties":{"no":"785","county_code":"63000","site_name":"小米電腦","tel":"(02)2821-2617","postal_code":"112","address":"承德路七段393巷31號","service_type":"買賣","item":"3C用品類","resolved_county":"臺北市","resolved_district":"北投區","full_address":"臺北市北投區承德路七段393巷31號","address_resolve_note":null,"geocode_ok":true,"geocode_provider":"google","geocode_tier":"street","geocode_query":"臺北市北投區承德路七段393巷31號"}},{"type":"Feature","geometry":{"type":"Point","coordinates":[121.5266191,25.0892184]},"properties":{"no":"798","county_code":"63000","site_name":"鴻景通信","tel":"(02)2881-9687","postal_code":"111","address":"文林路155號","service_type":"買賣,維修","item":"3C用品類","resolved_county":"臺北市","resolved_district":"士林區","full_address":"臺北市士林區文林路155號","address_resolve_note":null,"geocode_ok":true,"geocode_provider":"google","geocode_tier":"street","geocode_query":"臺北市士林區文林路155號"}},{"type":"Feature","geometry":{"type":"Point","coordinates":[121.5803966,25.0743499]},"properties":{"no":"802","county_code":"63000","site_name":"成功電腦回收","tel":"(02)8792-2135","postal_code":"114","address":"陽光街200號","service_type":"買賣,維修","item":"3C用品類","resolved_county":"臺北市","resolved_district":"內湖區","full_address":"臺北市內湖區陽光街200號","address_resolve_note":null,"geocode_ok":true,"geocode_provider":"google","geocode_tier":"street","geocode_query":"臺北市內湖區陽光街200號"}},{"type":"Feature","geometry":{"type":"Point","coordinates":[121.5955687,25.0839056]},"properties":{"no":"803","county_code":"63000","site_name":"優格米電玩遊戲專賣店(內湖金湖店)","tel":"(02)2634-9232","postal_code":"114","address":"金湖路2號1樓","service_type":"買賣,維修","item":"3C用品類","resolved_county":"臺北市","resolved_district":"內湖區","full_address":"臺北市內湖區金湖路2號1樓","address_resolve_note":null,"geocode_ok":true,"geocode_provider":"google","geocode_tier":"street","geocode_query":"臺北市內湖區金湖路2號1樓"}},{"type":"Feature","geometry":{"type":"Point","coordinates":[121.5949799,25.078653]},"properties":{"no":"804","county_code":"63000","site_name":"就愛新歡跳蚤市場","tel":"0932-187-063","postal_code":"114","address":"康寧路一段190號","service_type":"捐送,買賣","item":"3C用品類","resolved_county":"臺北市","resolved_district":"內湖區","full_address":"臺北市內湖區康寧路一段190號","address_resolve_note":null,"geocode_ok":true,"geocode_provider":"google","geocode_tier":"street","geocode_query":"臺北市內湖區康寧路一段190號"}}]}