{"type":"FeatureCollection","features":[{"type":"Feature","geometry":{"type":"Point","coordinates":[121.5784063,25.0835337]},"properties":{"no":"676","county_code":"63000","site_name":"銘遠商行","tel":"(02)2797-6128","postal_code":"114","address":"港墘路7號1樓","service_type":"買賣","item":"電器類","resolved_county":"臺北市","resolved_district":"內湖區","full_address":"臺北市內湖區港墘路7號1樓","address_resolve_note":null,"geocode_ok":true,"geocode_provider":"google","geocode_tier":"street","geocode_query":"臺北市內湖區港墘路7號1樓"}},{"type":"Feature","geometry":{"type":"Point","coordinates":[121.6140835,25.0346535]},"properties":{"no":"681","county_code":"63000","site_name":"佳音中古電器","tel":"(02)2785-7221","postal_code":"115","address":"研究院路三段76號","service_type":"買賣,維修","item":"電器類","resolved_county":"臺北市","resolved_district":"南港區","full_address":"臺北市南港區研究院路三段76號","address_resolve_note":null,"geocode_ok":true,"geocode_provider":"google","geocode_tier":"street","geocode_query":"臺北市南港區研究院路三段76號"}},{"type":"Feature","geometry":{"type":"Point","coordinates":[121.5282684,25.060174]},"properties":{"no":"691","county_code":"63000","site_name":"三分之一二手家電行","tel":"0935-285-178","postal_code":"104","address":"錦州街116號","service_type":"買賣","item":"電器類","resolved_county":"臺北市","resolved_district":"中山區","full_address":"臺北市中山區錦州街116號","address_resolve_note":null,"geocode_ok":true,"geocode_provider":"google","geocode_tier":"street","geocode_query":"臺北市中山區錦州街116號"}},{"type":"Feature","geometry":{"type":"Point","coordinates":[121.537017,25.0458577]},"properties":{"no":"692","county_code":"63000","site_name":"惜福屋-慈濟二手好物大賣場","tel":"無","postal_code":"104","address":"八德路二段108-1號","service_type":"捐送,買賣","item":"電器類","resolved_county":"臺北市","resolved_district":"中山區","full_address":"臺北市中山區八德路二段108-1號","address_resolve_note":null,"geocode_ok":true,"geocode_provider":"google","geocode_tier":"street","geocode_query":"臺北市中山區八德路二段108-1號"}},{"type":"Feature","geometry":{"type":"Point","coordinates":[121.501398,25.0412779]},"properties":{"no":"717","county_code":"63000","site_name":"收購二手傢俱家電","tel":"0980-730-482","postal_code":"108","address":"雅江街52-1號2樓","service_type":"買賣,維修","item":"電器類","resolved_county":"臺北市","resolved_district":"萬華區","full_address":"臺北市萬華區雅江街52-1號2樓","address_resolve_note":null,"geocode_ok":true,"geocode_provider":"google","geocode_tier":"street","geocode_query":"臺北市萬華區雅江街52-1號2樓"}},{"type":"Feature","geometry":{"type":"Point","coordinates":[121.5025327,25.0387344]},"properties":{"no":"718","county_code":"63000","site_name":"二手電視修理買賣","tel":"(02)2311-8581","postal_code":"108","address":"桂林路65巷12號","service_type":"買賣,維修","item":"電器類","resolved_county":"臺北市","resolved_district":"萬華區","full_address":"臺北市萬華區桂林路65巷12號","address_resolve_note":null,"geocode_ok":true,"geocode_provider":"google","geocode_tier":"street","geocode_query":"臺北市萬華區桂林路65巷12號"}},{"type":"Feature","geometry":{"type":"Point","coordinates":[121.5644722,25.0339639]},"properties":{"no":"737","county_code":"63000","site_name":"成功二手冷氣買賣","tel":"(02)2255-8075","postal_code":"110","address":"漢生東路33號","service_type":"買賣","item":"電器類","resolved_county":"臺北市","resolved_district":"信義區","full_address":"臺北市信義區漢生東路33號","address_resolve_note":null,"geocode_ok":true,"geocode_provider":"google","geocode_tier":"street","geocode_query":"臺北市信義區漢生東路33號"}},{"type":"Feature","geometry":{"type":"Point","coordinates":[121.5644722,25.0339639]},"properties":{"no":"744","county_code":"63000","site_name":"行善二手冷氣買賣","tel":"0986-595-335","postal_code":"110","address":"漢生東路33號","service_type":"買賣","item":"電器類","resolved_county":"臺北市","resolved_district":"信義區","full_address":"臺北市信義區漢生東路33號","address_resolve_note":null,"geocode_ok":true,"geocode_provider":"google","geocode_tier":"street","geocode_query":"臺北市信義區漢生東路33號"}},{"type":"Feature","geometry":{"type":"Point","coordinates":[121.5949799,25.078653]},"properties":{"no":"804","county_code":"63000","site_name":"就愛新歡跳蚤市場","tel":"0932-187-063","postal_code":"114","address":"康寧路一段190號","service_type":"捐送,買賣","item":"電器類","resolved_county":"臺北市","resolved_district":"內湖區","full_address":"臺北市內湖區康寧路一段190號","address_resolve_note":null,"geocode_ok":true,"geocode_provider":"google","geocode_tier":"street","geocode_query":"臺北市內湖區康寧路一段190號"}},{"type":"Feature","geometry":{"type":"Point","coordinates":[121.5030425,25.0388865]},"properties":{"no":"972","county_code":"63000","site_name":"明宏專修電視及二手買賣","tel":"(02)2314-3923","postal_code":"108","address":"貴陽街二段96巷34號","service_type":"買賣,維修","item":"電器類","resolved_county":"臺北市","resolved_district":"萬華區","full_address":"臺北市萬華區貴陽街二段96巷34號","address_resolve_note":null,"geocode_ok":true,"geocode_provider":"google","geocode_tier":"street","geocode_query":"臺北市萬華區貴陽街二段96巷34號"}}]}